,location,,address,adname,cityname,id,importance,name,pname,tel,type,typecode,X,Y
0,"112.966189,28.141542",,南二环新开铺109号南郊公园内,天心区,长沙市,B0FFF36MVH,[],南郊汽车影院(南二环店),湖南省,0731-88788788,体育休闲服务;影剧院;电影院,80601,112.966189,28.141542
1,"117.332906,31.867353",,长江东路589号,瑶海区,合肥市,B0FFF5T9WX,[],花冲影城(长江东路店),安徽省,0551-64489558;0551-64483032,体育休闲服务;影剧院;电影院,80601,117.332906,31.867353
2,"109.122237,21.444863",,海洋之窗附近,银海区,北海市,B030B00TQI,[],动感4D影院,广西壮族自治区,0779-3887777;0779-3886666,体育休闲服务;影剧院;影剧院相关,80600,109.122237,21.444863
3,"106.213212,38.483524",,北京中路新华百货CC park购物广场3层,金凤区,银川市,B03B703ZWC,[],橙天嘉禾影城(拉普斯店),宁夏回族自治区,0951-5132000,体育休闲服务;影剧院;电影院,80601,106.213212,38.483524
4,"112.933554,28.217451",,桐梓坡路维也纳国际酒店2单元4楼(河西王府井步步高对面),岳麓区,长沙市,B0FFG4CKN6,[],恋影私人主题影吧,湖南省,13307316761;18684675787,体育休闲服务;体育休闲服务场所;体育休闲服务场所,80000,112.933554,28.217451
5,"101.786962,36.620845",,饮马街口37号天桥购物购物广场2层(大十字莫家街对面),城中区,西宁市,B03CB10MM6,[],青剧天桥影城(天桥购物广场店),青海省,0971-6105329;13897231668,体育休闲服务;影剧院;电影院,80601,101.786962,36.620845
6,"112.546027,37.883542",,柳溪街11号阳光时尚广场4层,杏花岭区,太原市,B015F14GJ3,[],金刚里影城(金刚里店),山西省,0351-5258040;0351-5258139,体育休闲服务;影剧院;电影院,80601,112.546027,37.883542
7,"108.399881,22.812298",,民族大道150号,青秀区,南宁市,B03030UCJY,[],民族影城(民族大道店),广西壮族自治区,0771-5525322,体育休闲服务;影剧院;电影院,80601,108.399881,22.812298
8,"107.170954,34.361286",,金台大道28号马营大润发超市6层,金台区,宝鸡市,B03950PPHQ,[],五州国际电影城(马营大润发店),陕西省,0917-2959711;0917-2959722;0917-3121599,体育休闲服务;影剧院;电影院,80601,107.170954,34.361286
9,"112.984873,28.179280",,城南路街道芙蓉中路摩天一号好乐迪巷,天心区,长沙市,B0FFGRD1UG,[],华夏太古巨幕影城(贺龙店),湖南省,0731-88096799,体育休闲服务;影剧院;电影院,80601,112.984873,28.17928
10,"117.329844,31.894031",,铜陵北路与颖河路交汇处东侧(生态公园北侧),瑶海区,合肥市,B022715N9S,[],正鼎国际电影城(利港店),安徽省,0551-62796996;0551-62796992,体育休闲服务;影剧院;电影院,80601,117.329844,31.894031
11,"115.959547,28.679183",,高新大道1978号江西艺术中心1-3层,青山湖区,南昌市,B03170S32I,[],天幕影城(高新大道店),江西省,0791-88112200;13576976704,体育休闲服务;影剧院;电影院,80601,115.959547,28.679183
12,"112.565136,37.825242",,茂业天地6幢601,小店区,太原市,B0FFGKGFXP,[],点时私人影院,山西省,0351-4366811,体育休闲服务;影剧院;电影院,80601,112.565136,37.825242
13,"112.970087,28.149466",,乾城一期4栋裙楼3003号,天心区,长沙市,B0FFH0UAJG,[],执念,湖南省,18684861716;0731-85232561;0731-85230261,体育休闲服务;影剧院;电影院,80601,112.970087,28.149466
14,"117.286117,31.896932",,阜阳北路与北二环交叉口向南200米处源祥广场3层,庐阳区,合肥市,B0FFGDFK0S,[],天天欢乐影城(源祥广场店),安徽省,0551-65509528;0551-62862096,体育休闲服务;影剧院;电影院,80601,117.286117,31.896932
15,"115.917852,28.680906",,二七北路328号南昌壹9二七内4层,东湖区,南昌市,B0FFFGWZA0,[],星濠国际影城,江西省,[],体育休闲服务;影剧院;电影院,80601,115.917852,28.680906
16,"112.560056,37.867816",,解放路41号,迎泽区,太原市,B015F006FB,[],宽银幕电影院(解放路店),山西省,0351-2024994;0351-2024431,体育休闲服务;影剧院;电影院,80601,112.560056,37.867816
17,"108.311694,22.797503",,星光大道25号,江南区,南宁市,B0303007E6,[],江南电影院(星光大道店),广西壮族自治区,0771-4823159,体育休闲服务;影剧院;电影院,80601,108.311694,22.797503
18,"111.738630,40.839905",,新华东街与东二环路交汇处内蒙古博物院旁边,新城区,呼和浩特市,B01D702BZT,[],内蒙古乌兰恰特电影城,内蒙古自治区,0471-4608277;0471-8945666;0471-6962554,体育休闲服务;影剧院;电影院,80601,111.73863,40.839905
19,"112.972767,28.141788",,书院南路174号新一佳3层,天心区,长沙市,B0FFFZP6ZS,[],潇湘佳星国际影城,湖南省,0731-82762402;0731-89904571,体育休闲服务;影剧院;电影院,80601,112.972767,28.141788
20,"87.601276,43.780302",,钱塘江路168号友好时尚购物中心6层,沙依巴克区,乌鲁木齐市,B0FFGF471L,[],103电影公园(钱塘江路店),新疆维吾尔自治区,0991-5512876,体育休闲服务;影剧院;电影院,80601,87.601276,43.780302
21,"106.279249,38.461642",,新华东街118号,兴庆区,银川市,B03B703ZAZ,[],金凤凰电影城,宁夏回族自治区,0951-6026095;0951-6026388;0951-6023395,体育休闲服务;影剧院;电影院,80601,106.279249,38.461642
22,"106.290018,38.497000",,民族北街蓝泰广场6层,兴庆区,银川市,B0FFG7M10Y,[],金凤凰电影城(蓝泰店),宁夏回族自治区,0951-6011137,体育休闲服务;影剧院;电影院,80601,106.290018,38.497
23,"111.672978,27.692684",,交通路湘王大厦2层,涟源市,娄底市,B02E20NDEJ,[],华谊国际影城,湖南省,0738-4420501;0738-4458222,体育休闲服务;影剧院;电影院,80601,111.672978,27.692684
24,"112.549703,37.822689",,景苑16号楼1单元604室,小店区,太原市,B0FFH6SMWO,[],萤石私人影吧,山西省,0351-7222295;13834229889,体育休闲服务;影剧院;电影院,80601,112.549703,37.822689
25,"101.761985,36.629491",,五四大街31号,城西区,西宁市,B03CB1078Q,[],青剧影城(五四大街店),青海省,0971-6146561,体育休闲服务;影剧院;电影院,80601,101.761985,36.629491
26,"112.941281,28.141305",,阳光壹佰一期3-11栋303,岳麓区,长沙市,B0FFG3RHW8,[],不语时光影院(阳光一百店),湖南省,0731-88572270;17775851115,体育休闲服务;影剧院;电影院,80601,112.941281,28.141305
27,"109.1137,21.474201",,北部湾中路62号新力百货商业广场4层,海城区,北海市,B0FFF9RYRU,[],海之恋影院(新力百货商业广场店),广西壮族自治区,0779-3061833,体育休闲服务;影剧院;电影院,80601,109.1137,21.474201
28,"87.598399,43.802595",,扬子江路49号,沙依巴克区,乌鲁木齐市,B03DF0687Z,[],十月影剧院,新疆维吾尔自治区,0991-4506809;0991-5580987,体育休闲服务;影剧院;电影院,80601,87.598399,43.802595
29,"112.567413,37.864301",,柳巷南路19号贵都世纪广场12层,迎泽区,太原市,B015F15D3Z,[],横店电影城(贵都店),山西省,0351-6196179;0351-5223168,体育休闲服务;影剧院;电影院,80601,112.567413,37.864301
30,"108.324938,22.784941",,白沙大道20号南城百货4层,江南区,南宁市,B03030WQDX,[],橙天嘉禾影城(南城店),广西壮族自治区,0771-4350166;0771-4350266,体育休闲服务;影剧院;电影院,80601,108.324938,22.784941
31,"106.315444,38.509851",,兴水路1号绿地21城A区4号楼,兴庆区,银川市,B03B70PI5V,[],红地毯影城(兴水路店),宁夏回族自治区,0951-7697166,体育休闲服务;影剧院;电影院,80601,106.315444,38.509851
32,"87.634356,43.788109",,幸福南路70号1-2层,天山区,乌鲁木齐市,B03DF0SJH7,[],天山影城(幸福店),新疆维吾尔自治区,0991-2628171;0991-2607029,体育休闲服务;影剧院;电影院,80601,87.634356,43.788109
33,"112.006538,27.72765",,氐星路万豪城市广场4层,娄星区,娄底市,B02E20NNLG,[],左岸国际影城(万豪城市广场店),湖南省,0738-2882111,体育休闲服务;影剧院;电影院,80601,112.006538,27.72765
34,"108.307528,22.794091",,五一东路7号淡村商贸城6号楼5层,江南区,南宁市,B03030TANO,[],大地影院(淡村商贸店),广西壮族自治区,0771-4951022;4006782828,体育休闲服务;影剧院;电影院,80601,108.307528,22.794091
35,"112.572326,37.861400",,五一广场西115号,迎泽区,太原市,B015F009C2,[],太原影都(五一广场店),山西省,0351-4044521;0351-4042863;15935616103,体育休闲服务;影剧院;电影院,80601,112.572326,37.8614
36,"108.302864,22.794248",,江南水街综合楼7号楼2层,江南区,南宁市,B0FFG16YO4,[],横店电影城(南宁水街店),广西壮族自治区,0771-4951360,体育休闲服务;影剧院;电影院,80601,108.302864,22.794248
37,"87.608674,43.803615",,光明路30号世纪金花B1层,天山区,乌鲁木齐市,B03DF0UVP3,[],星辉电影公园(世纪金花店),新疆维吾尔自治区,0991-8128888;0991-2628605,体育休闲服务;影剧院;电影院,80601,87.608674,43.803615
38,"101.772833,36.6195",,长江路128号BHG Mall北京华联西宁购物中心3层,城中区,西宁市,B03CB0ZHOG,[],橙天嘉禾影城(长江路店),青海省,0971-8565366;0971-8565266,体育休闲服务;影剧院;电影院,80601,101.772833,36.6195
39,"111.662912,40.803162",,大东街1号七彩城购物中心5层50447号,玉泉区,呼和浩特市,B0FFH0L50F,[],凯诺星空影城(亚辰海派七彩城店),内蒙古自治区,0471-3982233;0471-3983322,体育休闲服务;影剧院;电影院,80601,111.662912,40.803162
40,"108.309401,22.794311",,五一东路3号江南梦之岛6层,江南区,南宁市,B03030V5AY,[],大地数字影院(江南梦之岛店),广西壮族自治区,0771-2529734,体育休闲服务;影剧院;电影院,80601,108.309401,22.794311
41,"112.564682,37.863885",,开化寺街12号金地国际公寓609室,迎泽区,太原市,B0FFGD74I1,[],蓝影汇・私人影院(柳巷店),山西省,13734003269;0351-7772866,体育休闲服务;影剧院;电影院,80601,112.564682,37.863885
42,"112.916720,28.231143",,杜鹃路858号奥克斯缤纷广场F3层-F4层,岳麓区,长沙市,B0FFH0W1IC,[],芒果国际影城(奥克斯缤纷广场店),湖南省,[],体育休闲服务;影剧院;电影院,80601,112.91672,28.231143
43,"117.369481,31.877631",,通达路万欢购物广场1层,瑶海区,合肥市,B02271AO21,[],万欢影城(万欢广场店),安徽省,0551-67698080,体育休闲服务;影剧院;电影院,80601,117.369481,31.877631
44,"111.670705,40.814395",,中山西路1号海亮广场F栋6层,回民区,呼和浩特市,B01D70OZR2,[],横店影城(海亮店),内蒙古自治区,0471-5290202;0471-5290555;4008260803,体育休闲服务;影剧院;电影院,80601,111.670705,40.814395
45,"117.236411,29.316172",,景东大道9号恒大名都商业中心3-4层,珠山区,景德镇市,B0FFGCDXMR,[],恒大影城(景东大道店),江西省,0798-8232888;0798-8214888,体育休闲服务;影剧院;电影院,80601,117.236411,29.316172
46,"112.568768,37.869791",,小水巷与柳巷交叉口东100米,迎泽区,太原市,B0FFHLRPAW,[],乐影私人影咖(铜锣湾店),山西省,13934618791,体育休闲服务;影剧院;电影院,80601,112.568768,37.869791
47,"112.554694,28.260490",,花明北路大润发向北20米佰潮汇5层,宁乡市,长沙市,B0FFGH4L1Z,[],佰潮汇影院,湖南省,0731-87058058,体育休闲服务;影剧院;电影院,80601,112.554694,28.26049
48,"112.953424,28.213069",,咸嘉湖路48号河西王陵公园内,岳麓区,长沙市,B02DB07Q4P,[],幕语汽车影苑,湖南省,0731-88803888,体育休闲服务;影剧院;电影院,80601,112.953424,28.213069
49,"115.86467,28.690136",,绿茵路129号联发广场红谷中心天虹4层,东湖区,南昌市,B0FFF4P8UT,[],金逸国际电影城(红谷滩店),江西省,0791-88557672,体育休闲服务;影剧院;电影院,80601,115.86467,28.690136
50,"112.517778,37.857179",,迎泽西大街与千峰南路交汇处能源中心裙楼7层,万柏林区,太原市,B015F0IRPP,[],奥斯卡国际影城(能源中心店),山西省,0351-6110088,体育休闲服务;影剧院;电影院,80601,112.517778,37.857179
51,"87.570401,43.848143",,北京南路429号福润德购物中心3层,新市区,乌鲁木齐市,B03DF0SHQS,[],星光电影城(北京南路店),新疆维吾尔自治区,0991-3694388,体育休闲服务;影剧院;电影院,80601,87.570401,43.848143
52,"112.871598,28.204784",,涉外经济学院西门天元七彩mall商城3层,岳麓区,长沙市,B0FFFQ0ZHJ,[],潇湘大乐影城(涉外西门店),湖南省,0731-82257888;0731-82257555,体育休闲服务;影剧院;电影院,80601,112.871598,28.204784
53,"117.232787,31.831635",,望江西路198号大唐国际购物中心3层,蜀山区,合肥市,B02270JQD5,[],左岸国际电影城(大唐国际购物中心店),安徽省,0551-65584100,体育休闲服务;影剧院;电影院,80601,117.232787,31.831635
54,"112.559417,37.823875",,亲贤北街99号王府井百货A馆6F层,小店区,太原市,B015F14DHD,[],太原横店电影城(王府井店),山西省,0351-7887688,体育休闲服务;影剧院;电影院,80601,112.559417,37.823875
55,"108.336691,22.806736",,星湖路1号,青秀区,南宁市,B0303054RW,[],星湖影城,广西壮族自治区,0771-5867009;0771-5852665;13878824560,体育休闲服务;影剧院;电影院,80601,108.336691,22.806736
56,"115.900936,28.623329",,施尧路1111号水榭公馆3层,青云谱区,南昌市,B0FFGYMV80,[],中影银河影城,江西省,0791-85292636;0791-83857636,体育休闲服务;影剧院;电影院,80601,115.900936,28.623329
57,"112.931232,27.930918",,吉利西路7号铭鸿新杉世纪广场2栋4层,雨湖区,湘潭市,B02DC0OJ6J,[],银都国际影城(新杉世纪广场店),湖南省,0731-52836988;0731-52836966,体育休闲服务;影剧院;电影院,80601,112.931232,27.930918
58,"112.480992,34.686149",,左安街西侧青年宫广场北侧(近八角楼金街),老城区,洛阳市,B017B01GTM,[],新华国际影城(洛阳店),河南省,0379-63969333;0379-63956600,体育休闲服务;影剧院;电影院,80601,112.480992,34.686149
59,"112.895254,28.213458",,瑞龙路标志麓谷坐标南门(麓谷公园湖边岚园酒店一楼),岳麓区,长沙市,B0FFGPBM9B,[],创锦私人影院,湖南省,0731-89796229,体育休闲服务;影剧院;电影院,80601,112.895254,28.213458
60,"112.481591,34.693805",,环城北路12号,e河回族区,洛阳市,B0FFGZGDLT,[],中影星美影城,河南省,0379-60213999,体育休闲服务;影剧院;电影院,80601,112.481591,34.693805
61,"117.283468,31.880048",,北一环路16号,庐阳区,合肥市,B0227161SY,[],人民影城(北一环店),安徽省,0551-65530656,体育休闲服务;影剧院;电影院,80601,117.283468,31.880048
62,"113.115034,28.217040",,小塘路28号,长沙县,长沙市,B0FFGH01Q8,[],华耀国际影城(泉塘店),湖南省,0731-86221866;0731-86221566;15367877433,体育休闲服务;影剧院;电影院,80601,113.115034,28.21704
63,"111.611227,40.835801",,成吉思汗西街99号恒大雅苑商业中心3层,回民区,呼和浩特市,B0FFF5QYFU,[],恒大影城,内蒙古自治区,0471-3693322,体育休闲服务;影剧院;电影院,80601,111.611227,40.835801
64,"112.569952,37.869196",,柳巷北路68号铜锣湾潮流汇购物城3层,迎泽区,太原市,B015F18RLW,[],横店影城(潮流汇店),山西省,0351-5611299;0351-7887688,体育休闲服务;影剧院;电影院,80601,112.569952,37.869196
65,"112.980715,28.023753",,南托街道北塘路19号4楼,天心区,长沙市,B0FFGWYUW7,[],爱幕私人影院,湖南省,18820125242,体育休闲服务;影剧院;电影院,80601,112.980715,28.023753
66,"112.952914,28.195326",,枫林路1号通程商业广场5层,岳麓区,长沙市,B02DB10JFD,[],亿鑫影城(麓山店),湖南省,0731-82285085;0731-88854588,体育休闲服务;影剧院;电影院,80601,112.952914,28.195326
67,"116.261455,28.378743",,滨湖大道199号,进贤县,南昌市,B03170UYSB,[],进贤华影城(滨湖大道店),江西省,0791-85507766,体育休闲服务;影剧院;电影院,80601,116.261455,28.378743
68,"111.690299,34.385687",,城关镇大唐文化广场3层(王协大桥北侧),洛宁县,洛阳市,B0FFFYWSWQ,[],大唐国际影城,河南省,0379-65228880,体育休闲服务;影剧院;电影院,80601,111.690299,34.385687
69,"91.12931,29.649973",,宇拓路30号珠峰伟业2层,城关区,拉萨市,B037B0274W,[],拉萨电影城(珠峰店),西藏自治区,0891-6324865;0891-6329991,体育休闲服务;影剧院;电影院,80601,91.12931,29.649973
70,"117.280520,31.856280",,合作经济广场9层,庐阳区,合肥市,B0FFG4OBUL,[],康乾影城,安徽省,0551-64316588,体育休闲服务;影剧院;电影院,80601,117.28052,31.85628
71,"87.569729,43.839108",,[],沙依巴克区,乌鲁木齐市,B0FFGFZOEU,[],华纳国际影城,新疆维吾尔自治区,0991-8725996,体育休闲服务;影剧院;电影院,80601,87.569729,43.839108
72,"117.209292,31.781689",,繁华大道与翡翠路交叉口中环购物中心F3层,蜀山区,合肥市,B022716247,[],中影・国际影城(中环店),安徽省,0551-65860766;0551-65860622;0551-5860766,体育休闲服务;影剧院;电影院,80601,117.209292,31.781689
73,"111.680733,40.797336",,鄂尔多斯大街32号嘉茂购物中心4层,赛罕区,呼和浩特市,B01D70P6H2,[],金逸国际电影城(凯德MALL店),内蒙古自治区,0471-5963802;0471-5965009;0471-5960303,体育休闲服务;影剧院;电影院,80601,111.680733,40.797336
74,"117.281210,31.855003",,桐城路136号,庐阳区,合肥市,B022703CJ9,[],安徽省黄梅戏剧院,安徽省,0551-62644166;0551-62640166;0551-62676856,体育休闲服务;影剧院;电影院,80601,117.28121,31.855003
75,"117.219058,31.841076",,黄山路与怀宁路交口1912街区1号楼,蜀山区,合肥市,B0227161GP,[],中影国际影城(1912店),安徽省,0551-65503535;0551-65503131,体育休闲服务;影剧院;电影院,80601,117.219058,31.841076
76,"112.197759,27.466857",,沿河北路湄水湾综合楼4层,双峰县,娄底市,B0FFGDHV01,[],湄水湾影院,湖南省,0738-6839988,体育休闲服务;影剧院;电影院,80601,112.197759,27.466857
77,"115.968097,28.675015",,北京东路1819号达观国际广场4层,青山湖区,南昌市,B03170TQ1A,[],万达影城(达观广场店),江西省,0791-88337697;0791-88181677,体育休闲服务;影剧院;电影院,80601,115.968097,28.675015
78,"107.141559,34.372138",,经二路93号百合新天地4层,渭滨区,宝鸡市,B0FFFRL5EP,[],万达影城(宝鸡经二路店),陕西省,0917-3221155;0917-3229922,体育休闲服务;影剧院;电影院,80601,107.141559,34.372138
79,"109.26696,22.68108",,槎江路45号,横县,南宁市,B0303056H2,[],横县电影院(槎江路店),广西壮族自治区,0771-7230318,体育休闲服务;影剧院;电影院,80601,109.26696,22.68108
80,"112.40776,34.654546",,辽宁路170号万达商业广场4层,涧西区,洛阳市,B017B02KCR,[],万达影城(洛阳万达广场店),河南省,0379-65581888;4000806060,体育休闲服务;影剧院;电影院,80601,112.40776,34.654546
81,"112.914337,28.203306",,玉兰路444号达美D6区3栋3层,岳麓区,长沙市,B0FFH84D4S,[],巨米影吧,湖南省,0731-82886810;18674829906;0731-82732888,体育休闲服务;影剧院;电影院,80601,112.914337,28.203306
82,"114.294798,35.732937",,鹤煤大道银兴国际广场5层,淇滨区,鹤壁市,B01880LWFB,[],新华银兴国际影城(银兴国际广场店),河南省,0392-3227999,体育休闲服务;影剧院;电影院,80601,114.294798,35.732937
83,"106.282767,38.462083",,新华东街227号东方红广场8层,兴庆区,银川市,B03B703SSC,[],万达影城(东方红广场店),宁夏回族自治区,0951-5088555;0951-6099508;4000806060,体育休闲服务;影剧院;电影院,80601,106.282767,38.462083
84,"108.334953,22.813737",,民族大道49号新梦之岛5层,青秀区,南宁市,B0FFF0GACL,[],泰和民族宫电影城(梦之岛百货店),广西壮族自治区,0771-2830108;0771-2639973,体育休闲服务;影剧院;电影院,80601,108.334953,22.813737
85,"117.214292,29.283331",,广场南路皇冠购物广场西三区6号楼(庆和楼旁),珠山区,景德镇市,B0FFHL3Q29,[],金幕国际影城(广场南路店),江西省,0798-8621888,体育休闲服务;影剧院;电影院,80601,117.214292,29.283331
86,"108.819613,23.2124",,商贸城广场南路小花园东面,宾阳县,南宁市,B030302HGH,[],城建・时代电影城,广西壮族自治区,0771-8240288,体育休闲服务;影剧院;电影院,80601,108.819613,23.2124
87,"112.195786,27.460040",,育才路与工农路交叉口汇丰步行街2期广场3层,双峰县,娄底市,B0FFGBFV92,[],红鹰国际影城,湖南省,0738-8989777,体育休闲服务;影剧院;电影院,80601,112.195786,27.46004
88,"111.670514,40.814950",,锡林郭勒南路海亮广场C座13层1318号,回民区,呼和浩特市,B0FFHCU8WQ,[],流年私人影院,内蒙古自治区,15661174017;13674757677,体育休闲服务;影剧院;电影院,80601,111.670514,40.81495
89,"112.973154,28.146790",,书院南路万事佳景园2栋1106,天心区,长沙市,B0FFHK65JQ,[],0818影咖,湖南省,18670065505;18573155411,体育休闲服务;影剧院;电影院,80601,112.973154,28.14679
90,"108.346481,22.796060",,国立商业城综合楼4层,青秀区,南宁市,B0FFG03YYU,[],大地广湛影院,广西壮族自治区,0771-3382269;0771-3381239,体育休闲服务;影剧院;电影院,80601,108.346481,22.79606
91,"112.994711,28.167549",,韶山中路1号潇影大厦东塘荟5层,雨花区,长沙市,B0FFGHOW26,[],潇湘国际影城(东塘店),湖南省,0731-88711777,体育休闲服务;影剧院;电影院,80601,112.994711,28.167549
92,"112.193187,27.453889",,永丰镇复兴街农贸市场对面,双峰县,娄底市,B02E20NNJT,[],华谊影城(双峰店),湖南省,0738-6825589;0738-6825066,体育休闲服务;影剧院;电影院,80601,112.193187,27.453889
93,"112.553488,37.824805",,平阳路186号顶好时尚商城2层,小店区,太原市,B0FFHK9QLM,[],完美世界影城(顶好店),山西省,0351-7333996;0351-7333577,体育休闲服务;影剧院;电影院,80601,112.553488,37.824805
94,"113.114891,36.193593",,英雄中路91号,潞州区,长治市,B0163002C9,[],潞州剧院,山西省,0355-2024123,体育休闲服务;影剧院;电影院|体育休闲服务;影剧院;剧场,080601|080603,113.114891,36.193593
95,"108.370212,22.830695",,东葛路延长线118号万达广场5F层,青秀区,南宁市,B0FFFS4VRA,[],万达影城(南宁青秀万达广场店),广西壮族自治区,0771-5732682,体育休闲服务;影剧院;电影院,80601,108.370212,22.830695
96,"112.750505,34.726455",,杜甫大道上海国际商贸城E3区1层,偃师市,洛阳市,B017B0PIPV,[],中影国际影城(上海国际商贸城店),河南省,0379-69653777,体育休闲服务;影剧院;电影院,80601,112.750505,34.726455
97,"112.0065,27.719705",,氐星路星海名都裙楼1层,娄星区,娄底市,B02E20NNJR,[],中影国际影城(娄底店),湖南省,0738-8188588,体育休闲服务;影剧院;电影院,80601,112.0065,27.719705
98,"113.032417,28.189889",,万家丽国际Mall8层,芙蓉区,长沙市,B0FFH2NSZM,[],中影星美国际影城(万家丽店),湖南省,0731-89668555,体育休闲服务;影剧院;电影院,80601,113.032417,28.189889
99,"112.916999,27.902311",,湘潭科技大学北校门岚天阳光汇商业广场3层,雨湖区,湘潭市,B0FFFNN27J,[],华纳影院,湖南省,15573222255,体育休闲服务;影剧院;电影院,80601,112.916999,27.902311
100,"112.442497,34.828672",,小浪底路107号致和时代广场5层,孟津县,洛阳市,B0FFG3DGX8,[],奥斯卡影城,河南省,0379-67805599;0379-67806699,体育休闲服务;影剧院;电影院,80601,112.442497,34.828672
101,"123.412256,41.786462",,马路湾光荣街10号,和平区,沈阳市,B001816DS0,[],七星国际影城(光荣街店),辽宁省,024-83217777;024-83217717,体育休闲服务;影剧院;电影院,80601,123.412256,41.786462
102,"122.108818,30.015016",,文化广场18号3层,定海区,舟山市,B024400B9S,[],舟山影城(文化广场店),浙江省,0580-2028208,体育休闲服务;影剧院;电影院,80601,122.108818,30.015016
103,"112.565508,37.824071",,亲贤北街79号茂业天地1期L6层,小店区,太原市,B0FFG59X7L,[],博纳国际影城(茂业天地1期),山西省,0351-7581999,体育休闲服务;影剧院;电影院,80601,112.565508,37.824071
104,"112.933179,28.218890",,金星中路383号长沙王府井FAMILYPARK购物中心6F层,岳麓区,长沙市,B0FFGLNOY5,[],卢米埃影城(长沙王府井FAMILYPARK购物中心),湖南省,0731-82250146;0731-10105335,体育休闲服务;影剧院;电影院,80601,112.933179,28.21889
105,"112.979949,28.251295",,金泰路199号世纪金源购物中心1层,开福区,长沙市,B02DB081DE,[],沃美影城(世纪金源购物中心店),湖南省,0731-85867878,体育休闲服务;影剧院;电影院,80601,112.979949,28.251295
106,"112.943826,28.16881",,麓山南路229号渔湾码头4层,岳麓区,长沙市,B02DB0UDW2,[],潇湘国际影城(天马店),湖南省,0731-82857555,体育休闲服务;影剧院;电影院,80601,112.943826,28.16881
107,"117.22187,31.820646",,南二环路3818号万达广场娱乐楼4层,蜀山区,合肥市,B022715XY1,[],万达影城(天鹅湖万达广场店),安徽省,0551-63718100;4000806060,体育休闲服务;影剧院;电影院,80601,117.22187,31.820646
108,"112.935608,28.218417",,金星中路428号步步高商业广场9层,岳麓区,长沙市,B02DB0UWAR,[],万达影城(步步高广场店),湖南省,0731-88959722,体育休闲服务;影剧院;电影院,80601,112.935608,28.218417
109,"112.994986,28.154752",,韶山中路421号长沙深国投商业中心2层,雨花区,长沙市,B02DB07JTP,[],中影・国际影城(凯德广场店),湖南省,0731-82921300;0731-82921322;4006303011,体育休闲服务;影剧院;电影院,80601,112.994986,28.154752
110,"115.849593,28.693073",,会展路999号万达百货3层,东湖区,南昌市,B0FFFTQ998,[],万达影城,江西省,0791-83833801;0791-83892295,体育休闲服务;影剧院;电影院,80601,115.849593,28.693073
111,"117.209059,31.791104",,翡翠路与芙蓉路交口往北50米处港澳广场L4层,蜀山区,合肥市,B022715Z49,[],大地影院(港澳购物中心店),安徽省,0551-63770250,体育休闲服务;影剧院;电影院,80601,117.209059,31.791104
112,"117.256428,31.853291",,长江西路199号国购广场3层,蜀山区,合肥市,B02270JHEL,[],凯得利影城(三里庵国购广场店),安徽省,0551-65133322;0551-65133377;0551-65105588,体育休闲服务;影剧院;电影院,80601,117.256428,31.853291
113,"111.735587,40.836308",,新华东街26万达广场4层,赛罕区,呼和浩特市,B01D70OW9O,[],万达影城(呼和浩特万达广场店),内蒙古自治区,0471-6924555;0471-3371555,体育休闲服务;影剧院;电影院,80601,111.735587,40.836308
114,"112.556711,37.818182",,长风街705号和信商座6层,小店区,太原市,B015F0ITS1,[],中影・国际影城(长风街和信广场店),山西省,0351-7527118;0351-7526928,体育休闲服务;影剧院;电影院,80601,112.556711,37.818182
115,"112.455623,34.612553",,牡丹大道166号泉舜购物公园3层,洛龙区,洛阳市,B0FFGG8A6L,[],万达影城(世茂广场店),河南省,0379-63002777;4000806060;15236652510,体育休闲服务;影剧院;电影院,80601,112.455623,34.612553
116,"113.086375,28.206548",,马坡岭街道远大路与红旗路交汇处汇一城C栋3层301号商铺,芙蓉区,长沙市,B0FFHFYXR0,[],中影佳N国际影城,湖南省,0731-86907678,体育休闲服务;影剧院;电影院,80601,113.086375,28.206548
117,"111.650449,40.817131",,牛街维多利生活广场3层,回民区,呼和浩特市,B01D702SB9,[],万达影城,内蒙古自治区,0471-6924555;0471-6360555;0471-6360941,体育休闲服务;影剧院;电影院,80601,111.650449,40.817131
118,"117.21487,29.29501",,人民广场瓷都新天地5层,珠山区,景德镇市,B031E13S13,[],横店国际影城(新天地店),江西省,0798-8478666;0798-8587555,体育休闲服务;影剧院;电影院,80601,117.21487,29.29501
119,"120.54311,31.863214",,张家港步行街58号3层,张家港市,苏州市,B020008CXJ,[],世纪巨星电影城(张家港步行街店),江苏省,0512-58223127;0512-58224960,体育休闲服务;影剧院;电影院,80601,120.54311,31.863214
120,"113.019098,28.109285",,湘府东路二段459号梦和商业广场4层,雨花区,长沙市,B02DB0W7U3,[],太平洋影城(长沙湘府店),湖南省,0731-89795599,体育休闲服务;影剧院;电影院,80601,113.019098,28.109285
121,"112.408212,34.644206",,南昌路139号王府井购物中心6F层,涧西区,洛阳市,B0FFFRH9AG,[],卢米埃影城(王府井购物中心),河南省,0379-69966077;4006010618,体育休闲服务;影剧院;电影院,80601,112.408212,34.644206
122,"113.848998,27.621189",,西门八一西路21号,安源区,萍乡市,B031F009QN,[],萍乡国际数字电影城(八一西路店),江西省,0799-6833731,体育休闲服务;影剧院;电影院,80601,113.848998,27.621189
123,"114.939453,27.800286",,抱石大道519号洪城大厦4层,渝水区,新余市,B03160MEPG,[],万达影城(新余洪城大厦厚品店),江西省,0790-6333088;0790-6333082,体育休闲服务;影剧院;电影院,80601,114.939453,27.800286
124,"121.129921,41.118943",,人民街三段3号新玛特F5层,古塔区,锦州市,B01A0141MT,[],中影国际影城(新玛特店),辽宁省,0416-2387700;0416-2338800,体育休闲服务;影剧院;电影院,80601,121.129921,41.118943
125,"108.392507,22.811215",,民族大道136号万象城L5层595号,青秀区,南宁市,B03030TLCZ,[],沃美影城(万象城店),广西壮族自治区,0771-2868268,体育休闲服务;影剧院;电影院,80601,108.392507,22.811215
126,"91.138125,29.652137",,北京东路59号,城关区,拉萨市,B037B0OJYV,[],东方红电影院(北京东路店),西藏自治区,0891-6343453,体育休闲服务;影剧院;电影院,80601,91.138125,29.652137
127,"115.903976,28.676317",,八一大道333号万达广场4层,东湖区,南昌市,B0FFGSXFLN,[],万达影城(八一店),江西省,0791-86311113;0791-86211010,体育休闲服务;影剧院;电影院,80601,115.903976,28.676317
128,"117.30188,31.856126",,马鞍山路130号合肥万达广场娱乐楼4层,包河区,合肥市,B022715AST,[],万达影城(合肥包河万达广场店),安徽省,0551-62891002;0551-62891001;0551-62891000,体育休闲服务;影剧院;电影院,80601,117.30188,31.856126
129,"113.008678,28.196433",,八一路1号阿波罗商业广场4层,芙蓉区,长沙市,B02DB0ZXMM,[],潇湘国际影城(阿波罗店),湖南省,0731-89965999,体育休闲服务;影剧院;电影院,80601,113.008678,28.196433
130,"112.898623,28.133016",,含浦镇米兰春天G3号楼1层,岳麓区,长沙市,B02DB0UHIK,[],横店影城(米兰春天店),湖南省,0731-84428628;0731-84428928;0731-84428338,体育休闲服务;影剧院;电影院,80601,112.898623,28.133016
131,"112.548535,28.250771",,玉潭镇春城路与八一路交汇处春城万象广场1号楼4层,宁乡市,长沙市,B0FFGA4Q9J,[],中影星美国际影城(宁乡店),湖南省,0731-87573866,体育休闲服务;影剧院;电影院,80601,112.548535,28.250771
132,"114.293640,35.732798",,兴鹤大街与鹤煤大道交叉口裕隆爱之城6层,淇滨区,鹤壁市,B0FFFCP90C,[],裕隆影视城,河南省,0392-6868080,体育休闲服务;影剧院;电影院,80601,114.29364,35.732798
133,"112.90994,28.219285",,桐梓坡路与玉兰路交汇处时代广场4层,岳麓区,长沙市,B02DB0UDSS,[],金逸影城(长沙时代店),湖南省,0731-85307266,体育休闲服务;影剧院;电影院,80601,112.90994,28.219285
134,"102.632845,37.92833",,凉州商厦6层,凉州区,武威市,B078F13NB7,[],太平洋国际影城(凉州商厦店),甘肃省,[],体育休闲服务;影剧院;电影院,80601,102.632845,37.92833
135,"112.576300,37.750096",,真武路69号,小店区,太原市,B0FFG8NQI7,[],恒大嘉凯影城(绿洲店),山西省,0351-5646888,体育休闲服务;影剧院;电影院,80601,112.5763,37.750096
136,"112.902061,28.196475",,金茂广场金茂览秀城3层,岳麓区,长沙市,B0FFHDLXVI,[],CGV星聚汇影院,湖南省,0731-85350220,体育休闲服务;影剧院;电影院,80601,112.902061,28.196475
137,"115.868362,28.568640",,汇仁大道1888号恒大城商业中心3-4层,南昌县,南昌市,B0FFGCCE39,[],恒大影城(恒大城店),江西省,0791-82227333,体育休闲服务;影剧院;电影院,80601,115.868362,28.56864
138,"112.996097,28.071209",,芙蓉南路友阿奥特莱斯17栋2层,天心区,长沙市,B0FFG63NOP,[],MC影城(奥莱店),湖南省,0731-89856778,体育休闲服务;影剧院;电影院,80601,112.996097,28.071209
139,"106.248648,38.485465",,正源北街22号金凤万达广场娱乐楼4层,金凤区,银川市,B03B70PHXL,[],万达影城(金凤万达广场店),宁夏回族自治区,0951-5088918;0951-6099064;0951-6099063,体育休闲服务;影剧院;电影院,80601,106.248648,38.485465
140,"114.926284,27.834294",,劳动北路1088号新东方大厦4层,渝水区,新余市,B0FFGIISJE,[],东方环球影城(新纺店),江西省,0790-6288555;0790-6288558,体育休闲服务;影剧院;电影院,80601,114.926284,27.834294
141,"112.400163,34.659863",,景华路25号奥斯卡广场4层,涧西区,洛阳市,B017B0P7LN,[],奥斯卡国际影城(广百店),河南省,0379-64217777;0379-64898555,体育休闲服务;影剧院;电影院,80601,112.400163,34.659863
142,"108.313452,22.789580",,星光大道与亭洪路交汇处江南万达广场4层,江南区,南宁市,B0FFHO4AFS,[],万达影城(南宁江南万达广场店),广西壮族自治区,18077788505;0771-4975196,体育休闲服务;影剧院;电影院,80601,108.313452,22.78958
143,"112.955125,28.222799",,岳麓大道57号奥克斯广场5层,岳麓区,长沙市,B02DB0ZRW2,[],CGV国际影院(奥克斯广场店),湖南省,0731-89728628;0731-89728728,体育休闲服务;影剧院;电影院,80601,112.955125,28.222799
144,"112.998068,28.124399",,友谊路与万芙北路交汇处富兴中央金街A区3层,天心区,长沙市,B0FFGHUOTI,[],哈艺时尚影城(长沙富兴店),湖南省,0731-84258055,体育休闲服务;影剧院;电影院,80601,112.998068,28.124399
145,"117.24202,31.865579",,青阳北路龙居山庄优购邻里购物中心3层,蜀山区,合肥市,B022715JII,[],金逸国际影城(优购店),安徽省,0551-65160111;4001112800,体育休闲服务;影剧院;电影院,80601,117.24202,31.865579
146,"117.288885,31.742779",,徽州大道5566号世纪金源购物中心B区4层,包河区,合肥市,B02270JS1F,[],华谊兄弟影院(金源店),安徽省,0551-66185205,体育休闲服务;影剧院;电影院,80601,117.288885,31.742779
147,"112.000768,27.734088",,湘阳街与娄星南路交界湘中园3层,娄星区,娄底市,B02E20O2QD,[],大地影院(湘中园店),湖南省,0738-8216809;0738-8216859,体育休闲服务;影剧院;电影院,80601,112.000768,27.734088
148,"113.644156,28.158358",,白沙路118号恒大华府3层,浏阳市,长沙市,B02DB0ZPQ6,[],恒大影城(白沙路店),湖南省,0731-83630188,体育休闲服务;影剧院;电影院,80601,113.644156,28.158358
149,"112.433637,34.671421",,解放路56号新都汇购物公园E座4层,西工区,洛阳市,B017B01H9R,[],奥斯卡国际影城(新都汇店),河南省,0379-63106788;0379-63106699,体育休闲服务;影剧院;电影院,80601,112.433637,34.671421
150,"112.956660,27.786412",,易俗河镇凤凰中路凯旋国际广场5楼,湘潭县,湘潭市,B0FFHCBWLT,[],芒果时代影城(易俗河店),湖南省,0731-52860577;0731-52865877,体育休闲服务;影剧院;电影院,80601,112.95666,27.786412
151,"102.655914,37.913606",,天马湖畔恒大绿洲3-4层,凉州区,武威市,B0FFGD0YR8,[],恒大影城,甘肃省,0935-6337788,体育休闲服务;影剧院;电影院,80601,102.655914,37.913606
152,"112.881548,28.197269",,枫林三路608号罗马商业广场A区3层,岳麓区,长沙市,B02DB101H4,[],中影・国际影城(枫林三路店),湖南省,0731-89704200;0731-89901944;0731-89901914,体育休闲服务;影剧院;电影院,80601,112.881548,28.197269
153,"117.307986,31.87532",,胜利路88号元一时代广场4层C区,瑶海区,合肥市,B02270IOSI,[],元一环球影城(元一时代广场店),安徽省,0551-64250088;0551-64213333;0551-4255626,体育休闲服务;影剧院;电影院,80601,117.307986,31.87532
154,"120.667538,28.015742",,飞霞北路134号,鹿城区,温州市,B0241050D8,[],白鹿影城(飞霞北路店),浙江省,0577-88831334,体育休闲服务;影剧院;电影院,80601,120.667538,28.015742
155,"112.906453,27.858525",,建设北路8号大洋百货6层,雨湖区,湘潭市,B02DC0NKDE,[],左岸影城(大洋百货店),湖南省,0731-55586455;0731-55577757,体育休闲服务;影剧院;电影院,80601,112.906453,27.858525
156,"111.668622,40.816355",,中山西路1号维多利购物中心7层,回民区,呼和浩特市,B01D702DMK,[],万达影城(维多利广场店),内蒙古自治区,0471-6924555;0471-3329966;4000806060,体育休闲服务;影剧院;电影院,80601,111.668622,40.816355
157,"107.151577,34.369983",,经二路开元商城宝鸡店5层,渭滨区,宝鸡市,B03950PB2W,[],奥斯卡国际影城(开元商城店),陕西省,0917-3539898;0917-3663456,体育休闲服务;影剧院;电影院,80601,107.151577,34.369983
158,"112.907213,27.85866",,建设北路5号时尚魔方4层,雨湖区,湘潭市,B02DC0OGUB,[],大地影院(雨湖时尚魔方店),湖南省,0731-58631255;0731-58631955,体育休闲服务;影剧院;电影院,80601,112.907213,27.85866
159,"131.162965,44.39574",,兴隆路26号,绥芬河市,牡丹江市,B01C50291R,[],华夏国际电影城(兴隆路店),黑龙江省,0453-3946555,体育休闲服务;影剧院;电影院,80601,131.162965,44.39574
160,"103.622332,36.096835",,庄浪路174号虹盛百货6层,西固区,兰州市,B03A30BICC,[],虹盛国际影城,甘肃省,0931-7545377;0931-7589191,体育休闲服务;影剧院;电影院,80601,103.622332,36.096835
161,"116.687109,23.352387",,新兴路3号,金平区,汕头市,B02F2014HX,[],D岛影剧院,广东省,0754-88273049;0754-88444976,体育休闲服务;影剧院;电影院,80601,116.687109,23.352387
162,"115.904917,28.687084",,阳明东路66号投资大厦商业裙楼4层,东湖区,南昌市,B0FFHSHSQ5,[],聚丰主题影城(央央春天店),江西省,0791-87398189,体育休闲服务;影剧院;电影院,80601,115.904917,28.687084
163,"112.946517,27.783076",,凤凰中路与银杏路交汇处步步高广场4层,湘潭县,湘潭市,B0FFG53SEN,[],万达影城(易俗河店),湖南省,0731-52838808,体育休闲服务;影剧院;电影院,80601,112.946517,27.783076
164,"87.584855,43.866707",,长春南路美居物流园L座2层,新市区,乌鲁木齐市,B0FFIV2XR0,[],i尚花田电影小镇,新疆维吾尔自治区,0991-5205111,体育休闲服务;影剧院;电影院,80601,87.584855,43.866707
165,"87.589504,43.820589",,友好路689号美美百货6层,沙依巴克区,乌鲁木齐市,B03DF06OHL,[],奥斯卡友好国际影城,新疆维吾尔自治区,0991-6999994,体育休闲服务;影剧院;电影院,80601,87.589504,43.820589
166,"112.917336,27.834152",,建设路口步步高广场8层,岳塘区,湘潭市,B0FFF61OWZ,[],湘潭横店电影城,湖南省,0731-52337906;0731-52337999,体育休闲服务;影剧院;电影院,80601,112.917336,27.834152
167,"116.471212,35.932572",,东平镇东山路,东平县,泰安市,B021A00LTQ,[],东平影剧,山东省,0538-2822866,体育休闲服务;影剧院;电影院,80601,116.471212,35.932572
168,"117.235747,31.899272",,北二环路与四里河路交口明发商业广场A3区3层,庐阳区,合肥市,B022716793,[],金逸国际电影城(明发店),安徽省,0551-65746111,体育休闲服务;影剧院;电影院,80601,117.235747,31.899272
169,"115.944134,28.542928",,五一路308号星云广场3层,南昌县,南昌市,B0317050Q4,[],永乐影城(星云广场店),江西省,0791-87092788;0791-87179789,体育休闲服务;影剧院;电影院,80601,115.944134,28.542928
170,"115.887009,28.684042",,胜利路287号,东湖区,南昌市,B0FFH9V7N5,[],千山讲私人影咖,江西省,0791-86501015;18879125227,体育休闲服务;影剧院;电影院,80601,115.887009,28.684042
171,"101.716043,36.642375",,广场路1号宁万达广场,城西区,西宁市,B0FFH98ONH,[],万达影城,青海省,0971-4295200,体育休闲服务;影剧院;电影院,80601,101.716043,36.642375
172,"111.685107,40.806446",,呼伦贝尔南路雅阁星城商业2层,赛罕区,呼和浩特市,B01D70P5FN,[],兰亚国际影城(雅阁星城店),内蒙古自治区,0471-3973777,体育休闲服务;影剧院;电影院,80601,111.685107,40.806446
173,"117.281909,31.863637",,安庆路116号,庐阳区,合肥市,B02270IH75,[],艺术影城(安庆路店),安徽省,0551-62794999;0551-62795998,体育休闲服务;影剧院;电影院,80601,117.281909,31.863637
174,"119.653017,29.101036",,新华街67号永盛购物广场6层,婺城区,金华市,B0FFF36R2E,[],佳艺影城(永盛购物广场店),浙江省,0579-82638899,体育休闲服务;影剧院;电影院,80601,119.653017,29.101036
175,"112.182623,34.515184",,红旗中路世纪广场5层,宜阳县,洛阳市,B017B0PNU6,[],奥斯卡国际影城(世纪广场店),河南省,0379-68978999;0379-68950375,体育休闲服务;影剧院;电影院,80601,112.182623,34.515184
176,"115.89214,28.675123",,中山路318号天虹百货9层,西湖区,南昌市,B0317061Q6,[],华影国际影城(天虹店),江西省,0791-86772828;0791-86767275,体育休闲服务;影剧院;电影院,80601,115.89214,28.675123
177,"120.077837,29.298462",,下车门路109号,义乌市,金华市,B0243026E4,[],义乌影都(稠城店),浙江省,0579-85362616,体育休闲服务;影剧院;电影院,80601,120.077837,29.298462
178,"119.461008,32.38923",,运河西路228号先锋广场4层,广陵区,扬州市,B0FFF37706,[],中影星美扬州达麦影城(先锋广场店),江苏省,0514-87555700;0514-87555788,体育休闲服务;影剧院;电影院,80601,119.461008,32.38923
179,"116.704935,23.365592",,金砂路54号,金平区,汕头市,B02F201JT9,[],艺都大剧院(金砂路店),广东省,0754-88236663;0754-88132983,体育休闲服务;影剧院;电影院,80601,116.704935,23.365592
180,"120.302712,31.488816",,立信大道168号海岸城A座L5层,滨湖区,无锡市,B0FFF9RB6Y,[],海岸影城(海岸城A座),江苏省,0510-85912268;0510-85918812;0510-85918816,体育休闲服务;影剧院;电影院,80601,120.302712,31.488816
181,"87.601302,43.789448",,黄河路127号,沙依巴克区,乌鲁木齐市,B03DF02E30,[],五一电影院(黄河路店),新疆维吾尔自治区,0991-5811051,体育休闲服务;影剧院;电影院,80601,87.601302,43.789448
182,"108.369552,22.816954",,金湖路61号梦之岛百货水晶城店3层,青秀区,南宁市,B03030T10S,[],中影国际影城(水晶城店),广西壮族自治区,0771-5531667;0771-2373229,体育休闲服务;影剧院;电影院,80601,108.369552,22.816954
183,"122.112849,37.508044",,少年路4号,环翠区,威海市,B0FFFWFTGP,[],威海移动电影城,山东省,0631-5232510;0631-5232595,体育休闲服务;影剧院;电影院,80601,122.112849,37.508044
184,"117.289172,31.861035",,宿州路48号,庐阳区,合肥市,B022702YSK,[],解放电影院(长江中路店),安徽省,0551-62652170,体育休闲服务;影剧院;电影院,80601,117.289172,31.861035
185,"112.577330,37.789743",,北张小区南区10号楼2单元201室,小店区,太原市,B0FFGB7PB4,[],2046私人影院,山西省,[],体育休闲服务;影剧院;电影院,80601,112.57733,37.789743
186,"121.413211,28.653062",,天和路88号意得广场4层,椒江区,台州市,B02400VT6F,[],意得国际影城(意得广场),浙江省,0576-88191999,体育休闲服务;影剧院;电影院,80601,121.413211,28.653062
187,"113.261787,22.849966",,大良云景路一通美居中心F栋1层,顺德区,佛山市,B02F50YUE6,[],华钠国际影城(云景路店),广东省,0757-22263686;0757-29282688,体育休闲服务;影剧院;电影院,80601,113.261787,22.849966
188,"111.437155,27.689683",,锑都中路45号影视国际2层,冷水江市,娄底市,B0FFG93G3H,[],潇湘锑都国际影城,湖南省,0738-5219666,体育休闲服务;影剧院;电影院,80601,111.437155,27.689683
189,"112.948880,28.136725",,洋湖兰亭MALL购物中心3层,岳麓区,长沙市,B0FFI7I0HA,[],mc影城(兰亭湾畔店),湖南省,0731-84394438,体育休闲服务;影剧院;电影院,80601,112.94888,28.136725
190,"120.685111,27.995735",,车站大道238号恒隆商务楼4层,鹿城区,温州市,B02410WKQ8,[],恒隆影城(恒隆商务楼店),浙江省,0577-88666869,体育休闲服务;影剧院;电影院,80601,120.685111,27.995735
191,"87.540437,43.913917",,常州街111号,新市区,乌鲁木齐市,B0FFHD0V8A,[],新天润国际影城,新疆维吾尔自治区,0991-3739898;0991-3735445,体育休闲服务;影剧院;电影院,80601,87.540437,43.913917
192,"112.859706,35.485531",,文昌东街人民医院对面金辇时代广场5层,城区,晋城市,B01640MFE3,[],嘉域国际影城(金辇店),山西省,4000158666,体育休闲服务;影剧院;电影院,80601,112.859706,35.485531
193,"103.853732,36.04083",,天水南路160号,城关区,兰州市,B03A300C5C,[],东方红影城(天水南路店),甘肃省,0931-8635858;0931-8632828,体育休闲服务;影剧院;电影院,80601,103.853732,36.04083
194,"103.517024,30.570424",,内蒙古大道展瑞新商业广场4层,大邑县,成都市,B001C8ON1Z,[],新时代电影城(展瑞新商业广场店),四川省,028-88289099;028-69698229,体育休闲服务;影剧院;电影院,80601,103.517024,30.570424
195,"120.578226,29.976521",,城南大道532号,越城区,绍兴市,B0FFH5I3VH,[],墨兰影城,浙江省,0575-88090030;0575-88090035,体育休闲服务;影剧院;电影院,80601,120.578226,29.976521
196,"119.431315,32.393581",,文昌中路537号扬州时代广场F4层-F5层,广陵区,扬州市,B02020HRH6,[],世纪电影城(扬州时代广场店),江苏省,0514-87866866;0514-82077377;0514-87354268,体育休闲服务;影剧院;电影院,80601,119.431315,32.393581
197,"113.07705,22.870349",,文华路11号盈信城市广场B区3层,顺德区,佛山市,B02F508IXS,[],盈信星光影城(盈信城市广场店),广东省,0757-28089230;0757-23639922,体育休闲服务;影剧院;电影院,80601,113.07705,22.870349
198,"87.610486,43.799404",,新华北路222号小西门美亚大光明3层,天山区,乌鲁木齐市,B0FFF69KRM,[],美亚大光明国际影城(新华北路店),新疆维吾尔自治区,0991-2318111,体育休闲服务;影剧院;电影院,80601,87.610486,43.799404
199,"116.724524,23.378082",,长江路23号合胜百货5层(购书中心正对面),龙湖区,汕头市,B0FFFT3UI8,[],合胜影城(汕头店),广东省,0754-81883888,体育休闲服务;影剧院;电影院,80601,116.724524,23.378082
200,"87.659642,43.838492",,温泉北路1号世界公元1期七英里商业中心4层,水磨沟区,乌鲁木齐市,B0FFIP3J6E,[],银河欢乐影城(世界公元店),新疆维吾尔自治区,0991-4609325,体育休闲服务;影剧院;电影院,80601,87.659642,43.838492
201,"112.788340,34.727391",,民主路35号阳光新天地3层,偃师市,洛阳市,B0FFG4X6L7,[],奥斯卡国际影城(明珠路店),河南省,0379-67775388,体育休闲服务;影剧院;电影院,80601,112.78834,34.727391
202,"112.571078,37.789164",,北美N1商场,小店区,太原市,B0FFI6JY57,[],全美影院(太原N1店),山西省,0351-7856078,体育休闲服务;影剧院;电影院,80601,112.571078,37.789164
203,"112.574538,37.789025",,晋阳街北美金棕榈8号楼2单元2501室,小店区,太原市,B0FFI5VJAV,[],缘来影咖,山西省,13303511602;18103465666,体育休闲服务;影剧院;电影院,80601,112.574538,37.789025
204,"120.752094,30.767051",,华庭街Z区4层,南湖区,嘉兴市,B023D0PPJ6,[],华庭国际影城,浙江省,0573-82050177;0573-82079112,体育休闲服务;影剧院;电影院,80601,120.752094,30.767051
205,"113.015745,28.069341",,长沙理工大学东门汇金路云唐校区职工小区4栋204,天心区,长沙市,B0FFI0WNNE,[],诗影TaTa私人影院(理工大学店),湖南省,17752897953,体育休闲服务;影剧院;电影院,80601,113.015745,28.069341
206,"112.979429,28.187289",,蔡锷南路明景公寓楼道进来左转一楼院子,芙蓉区,长沙市,B0FFG195R2,[],iMovie爱电影私人影院,湖南省,0731-85588121,体育休闲服务;影剧院;电影院,80601,112.979429,28.187289
207,"117.279048,31.880900",,北一环路168号新天地国际购物中心华润万家4层410,庐阳区,合肥市,B0227161TT,[],17.5影城(新天地店),安徽省,0551-65526428;0551-65526448,体育休闲服务;影剧院;电影院,80601,117.279048,31.8809
208,"120.432394,36.099184",,银川东路1号内59号,市北区,青岛市,B02140WL2Y,[],艺佳映画电影城(银川东路店),山东省,0532-66065517;0532-66065518,体育休闲服务;影剧院;电影院,80601,120.432394,36.099184
209,"120.581851,29.993396",,鲁迅中路115号咸亨新天地3层,越城区,绍兴市,B023F034VU,[],咸亨国际影城(鲁迅中路店),浙江省,0575-88782222;0575-88405777,体育休闲服务;影剧院;电影院,80601,120.581851,29.993396
210,"116.712577,23.387118",,东厦北路175号南信星汇国际卜蜂中心4层,金平区,汕头市,B0FFGJ5LHR,[],星城影院IMAX(卜蜂中心店),广东省,0754-87292188,体育休闲服务;影剧院;电影院,80601,116.712577,23.387118
211,"126.644783,45.75859",,东大直街350号华滨通讯2层,南岗区,哈尔滨市,B01C300D7C,[],哈尔滨电影院(东大直街店),黑龙江省,0451-53607016;0451-89582345,体育休闲服务;影剧院;电影院,80601,126.644783,45.75859
212,"91.139668,29.655557",,林廓东路105号,城关区,拉萨市,B0FFHJ6U2C,[],华美巨幕影城,西藏自治区,[],体育休闲服务;影剧院;电影院,80601,91.139668,29.655557
213,"120.660476,30.90482",,盛泽镇舜新中路398号,吴江区,苏州市,B020008CRG,[],盛泽世纪影城(舜新中路店),江苏省,0512-63599577,体育休闲服务;影剧院;电影院,80601,120.660476,30.90482
214,"117.294466,31.818672",,宁国南路与水阳江路交口街美食街13栋楼3楼,包河区,合肥市,B0FFI7PM0I,[],时代国际影城,安徽省,0551-65560028;0551-65560058,体育休闲服务;影剧院;电影院,80601,117.294466,31.818672
215,"113.087863,28.187148",,东湖渔场村,芙蓉区,长沙市,B0FFGWL7CA,[],芒果私人影咖,湖南省,13973196199,体育休闲服务;影剧院;电影院,80601,113.087863,28.187148
216,"112.899127,28.130151",,象嘴路裕园小区商业街6栋,岳麓区,长沙市,B0FFHILOPV,[],侏罗纪,湖南省,13618474233;15111390561,体育休闲服务;影剧院;电影院,80601,112.899127,28.130151
217,"120.706371,27.980552",,温州大道1907号名人・中环广场3层,鹿城区,温州市,B0FFGF4FO4,[],名人国际影城(中环店),浙江省,0577-86000000,体育休闲服务;影剧院;电影院,80601,120.706371,27.980552
218,"120.550778,31.868200",,暨阳中路71号1-2层,张家港市,苏州市,B0FFFF66UE,[],张家港ATMos巨幕影城,江苏省,0512-58215222,体育休闲服务;影剧院;电影院,80601,120.550778,31.8682
219,"109.879431,40.677572",,青山路125号,青山区,包头市,B01D80P1X1,[],金亿国际影城(北重店),内蒙古自治区,0472-3315222,体育休闲服务;影剧院;电影院,80601,109.879431,40.677572
220,"110.376657,20.01464",,国兴大道68号,琼山区,海口市,B03820QSCG,[],海口中视国际影城(国兴大道店),海南省,0898-65237111,体育休闲服务;影剧院;电影院,80601,110.376657,20.01464
221,"121.414065,28.650351",,亿嘉路75号天天财富公寓3层,椒江区,台州市,B0FFGIPN8M,[],佳纳国际影城(亿嘉路店),浙江省,0576-88106200,体育休闲服务;影剧院;电影院,80601,121.414065,28.650351
222,"117.973757,28.43996",,赣东北大道2号,信州区,上饶市,B0319009A0,[],上饶影城(海德文景苑店),江西省,0793-8227686;0793-8227786,体育休闲服务;影剧院;电影院,80601,117.973757,28.43996
223,"119.487222,31.409901",,罗湾路308号文化公园B1层,溧阳市,常州市,B0FFFT3Z5C,[],嘉丰国际影城,江苏省,0519-87999998,体育休闲服务;影剧院;电影院,80601,119.487222,31.409901
224,"123.435443,41.762238",,青年大街201号沈阳科学宫内,沈河区,沈阳市,B00181EJ6L,[],穹幕影院,辽宁省,024-23978052,体育休闲服务;影剧院;电影院,80601,123.435443,41.762238
225,"125.369820,43.932545",,长新东街3999号欧亚长新购物中心2层,二道区,长春市,B0FFFHAT5U,[],吉视影城(二道欧亚店),吉林省,0431-81961333,体育休闲服务;影剧院;电影院,80601,125.36982,43.932545
226,"118.34431,35.066393",,沂蒙路135号,兰山区,临沂市,B021B0AIW3,[],东方红影城(沂蒙路店),山东省,0539-8079898;0539-8079899,体育休闲服务;影剧院;电影院,80601,118.34431,35.066393
227,"117.317143,31.249516",,城东大道与经四路交叉口,庐江县,合肥市,B0FFGCSPL3,[],庐江大剧院,安徽省,0551-87991877,体育休闲服务;影剧院;剧场,80603,117.317143,31.249516
228,"109.403577,24.325187",,雅儒路东四巷6号,柳北区,柳州市,B0FFFAKAZE,[],天空国际影城,广西壮族自治区,0772-5330033,体育休闲服务;影剧院;电影院,80601,109.403577,24.325187
229,"113.090493,22.584635",,跃进路98号1-2层,蓬江区,江门市,B02EE00E02,[],东湖影剧院(港口一路),广东省,0750-3335810,体育休闲服务;影剧院;电影院,80601,113.090493,22.584635
230,"117.946122,40.979121",,武烈路3号,双桥区,承德市,B013A0PDDA,[],承德大剧院畅达影城,河北省,0314-2031305,体育休闲服务;影剧院;剧场,80603,117.946122,40.979121
231,"112.970671,28.198962",,湘江中路589号万达广场娱乐楼5层,开福区,长沙市,B02DB101H6,[],万达影城(开福万达广场店),湖南省,0731-88599588,体育休闲服务;影剧院;电影院,80601,112.970671,28.198962
232,"120.582507,30.001706",,县前街45号鲁迅电影城3-4层,越城区,绍兴市,B023F00DRZ,[],鲁迅电影城(县前街店),浙江省,0575-85110292;0575-85086603,体育休闲服务;影剧院;电影院,80601,120.582507,30.001706
233,"119.240629,34.288841",,人民西路1号(县政府向北100米),灌云县,连云港市,B020601ZME,[],灌云影剧院数码影城(人民西路店),江苏省,0518-88225566,体育休闲服务;影剧院;电影院,80601,119.240629,34.288841
234,"87.555589,43.816624",,北晟文创广场3层,沙依巴克区,乌鲁木齐市,B0FFIUK6VV,[],美亚影城(北晟文创广场店),新疆维吾尔自治区,0991-5355111,体育休闲服务;影剧院;电影院,80601,87.555589,43.816624
235,"115.962341,39.726931",,岗南路3号,房山区,北京市,B000A087D5,[],燕山影剧院(燕东路),北京市,010-69330001,体育休闲服务;影剧院;电影院,80601,115.962341,39.726931
236,"123.920708,47.321628",,新立街恒大翡翠华庭13号楼3层,龙沙区,齐齐哈尔市,B0FFHF6TXI,[],恒大影城(齐齐哈尔翡翠华庭店),黑龙江省,0452-8639000,体育休闲服务;影剧院;电影院,80601,123.920708,47.321628
237,"115.867594,28.692926",,红谷滩新区红谷中大道1706号世茂广场六层,东湖区,南昌市,B0FFI301CK,[],万达影城(世茂店),江西省,0791-86311112;0791-83892295,体育休闲服务;影剧院;电影院,80601,115.867594,28.692926
238,"113.806560,27.879787",,吴楚花都60栋3层,上栗县,萍乡市,B0FFGKXSSB,[],星河国际影城,江西省,0799-3667066;0799-3667166,体育休闲服务;影剧院;电影院,80601,113.80656,27.879787
239,"120.660944,28.009958",,人民中路32号影都大楼1-6层,鹿城区,温州市,B024100E5X,[],新中国影都(人民中路店),浙江省,0577-88258901;0577-88258841,体育休闲服务;影剧院;电影院,80601,120.660944,28.009958
240,"117.257805,31.853524",,长江西路187号之心城7F层7F-12,蜀山区,合肥市,B022718OWF,[],天空之城(之心城),安徽省,0551-65189388;18355128927;18356962952,体育休闲服务;娱乐场所;游戏厅,80305,117.257805,31.853524
241,"120.559328,31.886793",,一干河西路锦绣邻里坊2幢,张家港市,苏州市,B0FFGZG9PS,[],巨星沙洲湖影城,江苏省,0512-58989218,体育休闲服务;影剧院;电影院,80601,120.559328,31.886793
242,"121.508586,31.273648",,控江路2066号旭辉MALL1号楼4层,杨浦区,上海市,B0FFHF1UJD,[],世纪虹旭影城(控江旭辉MALL店),上海市,021-65199261;021-55085950,体育休闲服务;影剧院;电影院,80601,121.508586,31.273648
243,"119.258013,34.298009",,胜利中路206号金事达购物中心1层,灌云县,连云港市,B0FFG9BAWH,[],时代影城(灌云店),江苏省,0518-88811585,体育休闲服务;影剧院;电影院,80601,119.258013,34.298009
244,"110.924655,21.650044",,光华南路189号远光大厦1-2层,茂南区,茂名市,B0FFGDJJ9X,[],中影凤凰影城(人民广场店),广东省,0668-3382666;0668-3382388,体育休闲服务;影剧院;电影院,80601,110.924655,21.650044
245,"109.114764,21.470918",,北部湾广场东侧和安商都3层,海城区,北海市,B030B00ON1,[],大地影院(和安商都店),广西壮族自治区,0779-3993928,体育休闲服务;影剧院;电影院,80601,109.114764,21.470918
246,"114.375348,22.736586",,光祖北路与吉康路交汇处,坪山区,深圳市,B02F30A1ZO,[],坑梓影剧院,广东省,0755-84135568,体育休闲服务;影剧院;电影院,80601,114.375348,22.736586
247,"111.607793,40.831739",,成吉思汗西街万达广场4层,回民区,呼和浩特市,B0FFIT512C,[],万达影城(回民区万达广场店),内蒙古自治区,0471-6281555,体育休闲服务;影剧院;电影院,80601,111.607793,40.831739
248,"120.925798,30.829097",,人民大道嘉善县文化艺术中心内,嘉善县,嘉兴市,B023D03X49,[],孙道临影城(文化艺术店),浙江省,0573-84022526;0573-84212038,体育休闲服务;影剧院;电影院,80601,120.925798,30.829097
249,"112.562463,37.820329",,长治路奥林花园巴黎座18层2101,小店区,太原市,B0FFGZEB2G,[],乐影私人影院,山西省,15513086766,体育休闲服务;影剧院;电影院,80601,112.562463,37.820329
250,"109.114466,21.473563",,北部湾广场和安商港5层,海城区,北海市,B0FFG65JFL,[],大地影院(和安商港店),广西壮族自治区,0779-3998605;0779-3998615,体育休闲服务;影剧院;电影院,80601,109.114466,21.473563
251,"118.355172,35.016944",,沂州路318号麦德龙3层,罗庄区,临沂市,B021B0Z3XO,[],大华时代国际影城(沂河路店),山东省,0539-7100868,体育休闲服务;影剧院;电影院,80601,118.355172,35.016944
252,"122.103852,37.523573",,高区古寨东路威高花园235号威高时光城主楼区L-208,环翠区,威海市,B0FFH7FAP8,[],时光新世纪影城,山东省,0631-5893966,体育休闲服务;影剧院;电影院,80601,122.103852,37.523573
253,"119.968169,30.534756",,武康镇永安街158号正翔商业广场3层,德清县,湖州市,B023C0P0F0,[],银都电影院(正翔商业广场店),浙江省,0572-8078561;0572-8078566,体育休闲服务;影剧院;电影院,80601,119.968169,30.534756
254,"112.862276,28.199112",,枫林三路1099号步步高梅溪新天地购物中心D区L3层,岳麓区,长沙市,B0FFH5OCJ8,[],万达影城(梅溪湖步步高店),湖南省,0731-88279688,体育休闲服务;影剧院;电影院,80601,112.862276,28.199112
255,"113.804917,22.802202",,长东路120号长安中心影剧院,东莞市,东莞市,B03017WJIM,[],长安影剧院(长中路),广东省,0769-85531562;0769-85532949,体育休闲服务;影剧院;电影院,80601,113.804917,22.802202
256,"122.085394,46.076937",,乌兰东街财富时代广场4层,乌兰浩特市,兴安盟,B0FFHP6D3P,[],零点年华国际影城,内蒙古自治区,0482-8525577,体育休闲服务;影剧院;电影院,80601,122.085394,46.076937
257,"112.553637,37.832642",,平阳路40号美特好超市4层,小店区,太原市,B015F0I7BE,[],星美电影城(平阳店),山西省,0351-5627202;0351-5627222;0351-5627200,体育休闲服务;影剧院;电影院,80601,112.553637,37.832642
258,"125.118155,46.594589",,经六街24号毅腾商都购物中心F4层,萨尔图区,大庆市,B0FFGI0C3F,[],生升影院(毅腾商都购物中心),黑龙江省,0459-6150111;0459-6364444,体育休闲服务;影剧院;电影院,80601,125.118155,46.594589
259,"119.302704,26.101174",,华林路155号新华兴联合广场26层,鼓楼区,福州市,B0FFFSXU6R,[],夏尔电影馆(华林路店),福建省,[],体育休闲服务;影剧院;电影院,80601,119.302704,26.101174
260,"111.689893,40.825885",,鼓楼立交桥东南角,新城区,呼和浩特市,B01D703EE9,[],环球数字影院(鼓楼店),内蒙古自治区,0471-6202706;0471-6956181,体育休闲服务;影剧院;电影院,80601,111.689893,40.825885
261,"116.480777,39.957975",,亮马桥路21号,朝阳区,北京市,B000A7HHMO,[],枫花园汽车影院(亮马桥路店),北京市,[],体育休闲服务;影剧院;电影院,80601,116.480777,39.957975
262,"119.805091,31.342277",,鸨跄下126号现代生活广场3层,宜兴市,无锡市,B01FE0JQWN,[],晨兴数字影院(现代店),江苏省,0510-81709955;0510-81709966,体育休闲服务;影剧院;电影院,80601,119.805091,31.342277
263,"121.427784,28.645022",,东海大道455号,椒江区,台州市,B02400TFV8,[],大地影院(台州椒江欧尚商业中心店),浙江省,0576-88702007;0576-88702207,体育休闲服务;影剧院;电影院,80601,121.427784,28.645022
264,"119.920658,32.496641",,东进东路22号金鹰天地商务楼G2区3层,海陵区,泰州市,B020B027MC,[],横店电影城(金鹰店),江苏省,0523-86239000;0523-86237575,体育休闲服务;影剧院;电影院,80601,119.920658,32.496641
265,"117.288510,31.867502",,古井百花大厦A座2902室,庐阳区,合肥市,B0FFIIFUFY,[],萤石私人影院(梦幻店),安徽省,18010877728;17756595987,体育休闲服务;影剧院;电影院,80601,117.28851,31.867502
266,"120.915610,30.840241",,魏塘街道中山西路320号,嘉善县,嘉兴市,B023D02TEO,[],嘉善影剧院,浙江省,0573-84022472,体育休闲服务;影剧院;电影院,80601,120.91561,30.840241
267,"120.924434,31.737433",,江南大道95号滨江新城邻里中心4层,常熟市,苏州市,B0FFGDCBQ2,[],上影星海影城(常熟滨江店),江苏省,0512-52505800;0512-52706866,体育休闲服务;影剧院;电影院,80601,120.924434,31.737433
268,"112.568882,37.802928",,体育路西50米,小店区,太原市,B0FFHPOJNC,[],家庭影院,山西省,[],体育休闲服务;影剧院;电影院,80601,112.568882,37.802928
269,"119.09641,33.615437",,湖滨路12号银座新天地商业广场2层,清江浦区,淮安市,B02050TD46,[],欢乐小马电影城(新天地商业广场店),江苏省,0517-83571321;0517-83571899,体育休闲服务;影剧院;电影院,80601,119.09641,33.615437
270,"122.752778,40.855002",,中街北路万和城6层,海城市,鞍山市,B019C01YS6,[],万和国际影城(万和城店),辽宁省,0412-3385858,体育休闲服务;影剧院;电影院,80601,122.752778,40.855002
271,"121.501623,30.988044",,金汇镇中心路10号,奉贤区,上海市,B00156LI8X,[],金汇镇影剧院,上海市,021-57486105,体育休闲服务;影剧院;影剧院相关,80600,121.501623,30.988044
272,"113.556592,22.281095",,兴业路391号丹田城市广场5层,香洲区,珠海市,B0FFF0FMKA,[],星河国际电影城(城市广场店),广东省,0756-2114111;4008804122,体育休闲服务;影剧院;电影院,80601,113.556592,22.281095
273,"100.231184,26.880252",,民主路191号红太阳商业广场1-5层,古城区,丽江市,B0378003IY,[],丽江电影城(红太阳商业广场店),云南省,0888-5186151,体育休闲服务;影剧院;电影院,80601,100.231184,26.880252
274,"117.211391,31.775308",,经开区丹霞路与宝纶路交口国耀星达城4层,蜀山区,合肥市,B0FFHW6OFB,[],金逸影城(星达城店),安徽省,0551-65316166,体育休闲服务;影剧院;电影院,80601,117.211391,31.775308
275,"113.778055,23.032146",,东城中心世博广场G区3层(近东城中路口),东莞市,东莞市,B03017U8XU,[],中影火山湖影城(世博广场店),广东省,0769-23016666;0769-89778348,体育休闲服务;影剧院;电影院,80601,113.778055,23.032146
276,"120.767141,31.668395",,泰山北路世茂世纪中心搜秀活力城2号楼3-4层,常熟市,苏州市,B02000JI73,[],卢米埃影城(世茂世纪中心店),江苏省,0512-52030218;0512-52030215;4006010618,体育休闲服务;影剧院;电影院,80601,120.767141,31.668395
277,"115.856316,28.686633",,红谷中大道998号绿地缤纷城右里F3层-F4层,东湖区,南昌市,B0FFHLJXWU,[],金逸MX4D影城(绿地中心店),江西省,0791-83905588,体育休闲服务;影剧院;电影院,80601,115.856316,28.686633
278,"106.724026,26.563107",,市南路42号逸天城5层,南明区,贵阳市,B0FFG6KV6G,[],保利国际影城(贵阳逸天城店),贵州省,0851-85516350,体育休闲服务;影剧院;电影院,80601,106.724026,26.563107
279,"110.920455,21.663066",,河东油城五路10号大院,茂南区,茂名市,B029C02XNE,[],金逸国际电影城(油城五路店),广东省,0668-3330019;0668-3330031,体育休闲服务;影剧院;电影院,80601,110.920455,21.663066
280,"114.937759,27.799210",,胜利南路中国邮政储蓄银行北行50米(原茉莉花影院),渝水区,新余市,B0FFHVPK9G,[],星美国际影商城(新余店),江西省,0790-6236868,购物服务;购物相关场所;购物相关场所,60000,114.937759,27.79921
281,"129.490402,42.905612",,梨花路5号依斯特休闲娱乐广场4层,延吉市,延边朝鲜族自治州,B05990MCFI,[],依斯特影城,吉林省,0433-2755111;0433-4317618,体育休闲服务;影剧院;电影院,80601,129.490402,42.905612
282,"111.794335,38.066193",,人保公司旁,娄烦县,太原市,B015F00035,[],人民影剧院(南大街),山西省,[],体育休闲服务;影剧院;电影院,80601,111.794335,38.066193
283,"117.214252,39.076816",,黑牛城道125号新业广场F3层B310、F4层B401,河西区,天津市,B00161C3BP,[],耀莱成龙国际影城(友谊店),天津市,022-83885183;022-88312828,体育休闲服务;影剧院;电影院,80601,117.214252,39.076816
284,"121.454377,30.915751",,南桥路333号,奉贤区,上海市,B0015517BS,[],南桥电影院(南桥路店),上海市,021-57412136;021-57412102,体育休闲服务;影剧院;电影院,80601,121.454377,30.915751
285,"120.754523,31.671149",,海虞北路39号裕坤美城广场3层,常熟市,苏州市,B0FFFSV3S6,[],天幕国际影城,江苏省,0512-52030997;0512-52030995,体育休闲服务;影剧院;电影院,80601,120.754523,31.671149
286,"119.301191,26.085723",,鼓楼东街3号,鼓楼区,福州市,B024F04ABB,[],海峡影城(信息广场店),福建省,0591-87522182,体育休闲服务;影剧院;电影院,80601,119.301191,26.085723
287,"115.904358,28.692847",,青山南路118号蓝海购物广场3层,东湖区,南昌市,B0FFHH8D7Q,[],天幕影城(蓝海店),江西省,0791-88616060,体育休闲服务;影剧院;电影院,80601,115.904358,28.692847
288,"117.162911,31.725376",,上派镇金寨南路与青年北路交叉口万派城三楼,肥西县,合肥市,B0FFIW5PNT,[],中影・国际影城(万派城店),安徽省,0551-63806208;0551-63806218,体育休闲服务;影剧院;电影院,80601,117.162911,31.725376
289,"114.298807,30.596645",,京汉大道1001号,江岸区,武汉市,B0FFF67V9X,[],中南剧场1001天河影院(京汉大道店),湖北省,027-82835366;027-82842366,体育休闲服务;影剧院;电影院,80601,114.298807,30.596645
290,"120.595963,31.340033",,城北东路1188号江星商业广场5号楼3层,姑苏区,苏州市,B0FFG8XQZA,[],华夏国际影城(江星广场店),江苏省,0512-67534735;0512-67737778,体育休闲服务;影剧院;电影院,80601,120.595963,31.340033
291,"120.266971,31.906153",,人民中路170号红星娱乐广场3层,江阴市,无锡市,B01FE0ICPB,[],世纪红星影城(红星广场店),江苏省,0510-86892130,体育休闲服务;影剧院;电影院,80601,120.266971,31.906153
292,"120.415722,36.304931",,正阳路136号家佳源购物中心3层,城阳区,青岛市,B021409QWL,[],艺佳电影城(正阳路店),山东省,0532-87737700,体育休闲服务;影剧院;电影院,80601,120.415722,36.304931
293,"110.917919,21.664367",,油城四路263号汇丰广场3层,茂南区,茂名市,B0FFHED8T9,[],环球国际影城,广东省,0668-3911999,体育休闲服务;影剧院;电影院,80601,110.917919,21.664367
294,"117.859552,36.496230",,大街9号第五季玩库商业中心5层,博山区,淄博市,B0FFGAQ84L,[],博山齐纳国际影城,山东省,0533-4120778;0533-4120779,体育休闲服务;影剧院;电影院,80601,117.859552,36.49623
295,"120.660848,28.01253",,五马街11号,鹿城区,温州市,B02410WVRB,[],大众电影院(五马街店),浙江省,0577-88683371;0577-88683372,体育休闲服务;影剧院;电影院,80601,120.660848,28.01253
296,"120.671048,28.019756",,江滨西路355号欧洲城4层,鹿城区,温州市,B024104RQU,[],新时代电影大世界(欧洲城店),浙江省,0577-88869115;0577-88869102;0577-88869002,体育休闲服务;影剧院;电影院,80601,120.671048,28.019756
297,"110.296394,25.279393",,中山中路36号,秀峰区,桂林市,B030506UJ6,[],桂林电影院(中山中路店),广西壮族自治区,0773-2825507;0773-2100556,体育休闲服务;影剧院;电影院,80601,110.296394,25.279393
298,"104.092752,30.642987",,天紫界商业大厦25A层,锦江区,成都市,B0FFFRYVNK,[],涂涂私人影院,四川省,18080127590,体育休闲服务;影剧院;电影院,80601,104.092752,30.642987
299,"108.323611,22.814595",,青云街18号悦荟广场B座3层,兴宁区,南宁市,B030302HHE,[],万达影城(南宁悦荟广场店),广西壮族自治区,0771-2617770;4000806060,体育休闲服务;影剧院;电影院,80601,108.323611,22.814595
300,"113.082207,22.567575",,江会路人人乐商场首层,蓬江区,江门市,B0FFH0HESG,[],派的影城(江门店),广东省,0750-3535988;18923072203,体育休闲服务;影剧院;电影院,80601,113.082207,22.567575
301,"120.515442,30.903267",,塔影路36号新乐城3层,吴江区,苏州市,B0FFIKF2RC,[],幸福蓝海国际影城(震泽店),江苏省,0512-63800799;18340860720,体育休闲服务;影剧院;电影院,80601,120.515442,30.903267
302,"118.598920,24.900980",,美食街中段(湖美之星附近),丰泽区,泉州市,B0FFG6B63F,[],e+咖啡・私人影院(美食街店),福建省,0595-22521188,体育休闲服务;影剧院;电影院,80601,118.59892,24.90098
303,"121.400018,31.131046",,沪闵路7250号南方二区9层,闵行区,上海市,B001544BA0,[],世纪友谊影城(沪闵路店),上海市,021-64120804;021-64120260,体育休闲服务;影剧院;电影院,80601,121.400018,31.131046
304,"120.579872,30.006503",,解放北路211号汇金购物中心地下一层1011铺位,越城区,绍兴市,B0FFH4QVT7,[],汇金缪斯影城(八佰伴店),浙江省,0575-89199566,体育休闲服务;影剧院;电影院,80601,120.579872,30.006503
305,"113.286458,40.093939",,清远西街华林新天地4层,平城区,大同市,B01600MK2A,[],万达影城(华林新天地店),山西省,0352-7944555;4000806060;4001610352,体育休闲服务;影剧院;电影院,80601,113.286458,40.093939
306,"119.438123,32.395231",,文昌中路492号珍园内,广陵区,扬州市,B0FFFDC5Q6,[],艾米・1895电影吧(珍园店),江苏省,0514-87319850,体育休闲服务;影剧院;电影院,80601,119.438123,32.395231
307,"120.322954,36.319902",,裕园七路棘洪滩青大社区中心2层,城阳区,青岛市,B0FFFS36QW,[],棘洪滩影城,山东省,0532-58759988;0532-58759998,体育休闲服务;影剧院;电影院,80601,120.322954,36.319902
308,"121.374705,31.18164",,金汇路528号虹桥古玩城5层,闵行区,上海市,B00156O408,[],上海左岸影城(金汇店),上海市,021-54860799,体育休闲服务;影剧院;电影院,80601,121.374705,31.18164
309,"113.088837,22.608943",,育德建德街24号,蓬江区,江门市,B0FFHE40O5,[],夜幕方舟私人电影院,广东省,13760533243,体育休闲服务;影剧院;电影院,80601,113.088837,22.608943
310,"121.479425,31.225971",,淮海中路8号兰生大厦5层,黄浦区,上海市,B0FFFA088X,[],萌生典尚影院,上海市,021-63190618;021-63343300,体育休闲服务;影剧院;电影院,80601,121.479425,31.225971
311,"116.684542,39.536709",,广阳道与裕华路交口万向城商场4层,广阳区,廊坊市,B0FFGJV7KK,[],华谊兄弟影院(廊坊万向城店),河北省,0316-5909588,体育休闲服务;影剧院;电影院,80601,116.684542,39.536709
312,"117.307928,31.878215",,北一环与胜利路交口西50米中星城3号楼,瑶海区,合肥市,B0FFIMKHX3,[],观者国际影城(中星城店),安徽省,0551-62631792,体育休闲服务;影剧院;电影院,80601,117.307928,31.878215
313,"115.887209,28.682839",,胜利路263号炫谷青年街3层,东湖区,南昌市,B0FFHK9QHQ,[],完美世界影城(胜利店),江西省,[],体育休闲服务;影剧院;电影院,80601,115.887209,28.682839
314,"117.162086,35.086879",,杏坛中路7号2层,滕州市,枣庄市,B02780R0IK,[],新星国际影城(杏坛路店),山东省,0632-5979000,体育休闲服务;影剧院;电影院,80601,117.162086,35.086879
315,"110.823038,24.836856",,文武路粤华世纪鑫城C栋3层,恭城瑶族自治县,桂林市,B0FFG9OD16,[],梦迪影城,广西壮族自治区,0773-8191937,体育休闲服务;影剧院;电影院,80601,110.823038,24.836856
316,"121.492603,28.764947",,前王路50号,临海市,台州市,B0FFH09GVW,[],时代影城,浙江省,0576-85286161;18767103877,体育休闲服务;影剧院;电影院,80601,121.492603,28.764947
317,"119.475089,29.215936",,捷盛街123号中央广场D区3层,兰溪市,金华市,B0243154VK,[],时代国际影城(山田捷盛中央广场店),浙江省,0579-88831000,体育休闲服务;影剧院;电影院,80601,119.475089,29.215936
318,"116.419377,39.896428",,崇文门外大街40号搜秀城购物广场9层,东城区,北京市,B000A44FAC,[],搜秀影城(搜秀城店),北京市,010-51671299;010-51671298;010-51671226,体育休闲服务;影剧院;电影院,80601,116.419377,39.896428
319,"113.363327,22.934626",,光明南路7号,番禺区,广州市,B001409B24,[],市桥文化中心,广东省,020-84818172;020-84833640,体育休闲服务;影剧院;电影院|科教文化服务;文化宫;文化宫,080601|140800,113.363327,22.934626
320,"119.434725,32.392522",,汶河南路75号工人文化宫,广陵区,扬州市,B0202158SC,[],工人影城(文昌广场店),江苏省,0514-87342531,体育休闲服务;影剧院;电影院,80601,119.434725,32.392522
321,"119.529077,26.659304",,南环路时代百货3层,蕉城区,宁德市,B0251005C7,[],人民影院(时代百货店),福建省,0593-2855238,体育休闲服务;影剧院;电影院,80601,119.529077,26.659304
322,"104.394498,30.849888",,金凤路555号,金堂县,成都市,B0FFGPD6RD,[],恒大影城(金堂店),四川省,028-84901588,体育休闲服务;影剧院;电影院,80601,104.394498,30.849888
323,"121.844383,29.911358",,劳动路6号(近东河路),北仑区,宁波市,B023E07A79,[],北仑影剧院,浙江省,0574-86782021;0574-86874997,体育休闲服务;影剧院;影剧院相关,80600,121.844383,29.911358
324,"119.447299,32.368137",,大润发广场4层,广陵区,扬州市,B0FFILB4VH,[],中影时代华纳影城(奥邦大润发广场),江苏省,0514-82888282,体育休闲服务;影剧院;电影院,80601,119.447299,32.368137
325,"112.978116,28.191670",,城市生活家703,芙蓉区,长沙市,B0FFHCXCP3,[],时光若刻私人影院,湖南省,13170301907,体育休闲服务;影剧院;电影院,80601,112.978116,28.19167
326,"113.542012,22.234339",,九州大道西2023号13-101,香洲区,珠海市,B0FFG0KGF2,[],英皇・UA电影城(白合街),广东省,0756-8996129;4006384638,体育休闲服务;影剧院;电影院,80601,113.542012,22.234339
327,"113.913696,22.540707",,前海路3101-90号前海天虹6层,南山区,深圳市,B0FFHBVFTA,[],汉鼎宇佑影城(星海名城店),广东省,0755-86933999;0755-86571050,体育休闲服务;影剧院;电影院,80601,113.913696,22.540707
328,"114.231962,22.551013",,沙头角街道官下路63号瀚海东岸4层401,盐田区,深圳市,B0FFGCUWIB,[],冷杉欢腾影城(深圳店),广东省,0755-25251880,体育休闲服务;影剧院;电影院,80601,114.231962,22.551013
329,"120.164973,30.243774",,延安路98号银泰百货F5层,上城区,杭州市,B0FFG58CAX,[],海上明珠国际影城(银泰百货),浙江省,0571-87002038,体育休闲服务;影剧院;电影院,80601,120.164973,30.243774
330,"113.985292,22.534482",,华侨城光侨街1号华夏艺术中心1-4层,南山区,深圳市,B02F37V2ON,[],华夏艺术中心数码影院,广东省,0755-26602414;0755-26925674;0755-26604352,体育休闲服务;影剧院;电影院,80601,113.985292,22.534482
331,"120.347167,30.316207",,文泽路99号福雷德广场B1层,江干区,杭州市,B023B14KJ6,[],新远下沙影城(福雷德广场店),浙江省,0571-88285470,体育休闲服务;影剧院;电影院,80601,120.347167,30.316207
332,"120.164647,30.277497",,中山北路581号西湖文化广场C区8号,下城区,杭州市,B023B14BCH,[],新远国际影城(文化广场店),浙江省,0571-85001088;0571-85001099,体育休闲服务;影剧院;电影院,80601,120.164647,30.277497
333,"113.339815,23.135612",,天河路625号天娱广场西塔楼5-7层,天河区,广州市,B00140CB8E,[],天河电影城(天娱广场店),广东省,020-87576722;020-87576723,体育休闲服务;影剧院;电影院,80601,113.339815,23.135612
334,"113.337467,22.900964",,沙湾镇大巷涌路63号沙湾文化中心1层,番禺区,广州市,B00141JFE6,[],沙湾影剧院,广东省,020-34737921;020-34731122,体育休闲服务;影剧院;电影院,80601,113.337467,22.900964
335,"121.244856,31.384756",,城中路138号罗宾森购物广场F4层S4-15-16,嘉定区,上海市,B00155LTO4,[],大地影院(罗宾森广场店),上海市,021-59929830;021-59929820,体育休闲服务;影剧院;电影院,80601,121.244856,31.384756
336,"120.192189,30.342327",,石桥路468号2层,下城区,杭州市,B023B1FF37,[],星际影城(石桥路店),浙江省,0571-28953456,体育休闲服务;影剧院;电影院,80601,120.192189,30.342327
337,"120.905831,31.383352",,玉山镇前进西路1850号,昆山市,苏州市,B02001B0F9,[],保利国际影城(昆山文化艺术中心店),江苏省,0512-55135513;0512-55132388,体育休闲服务;影剧院;电影院,80601,120.905831,31.383352
338,"120.104241,30.943861",,太湖路5000号,吴兴区,湖州市,B0FFGUP0MZ,[],湖州影视城,浙江省,0572-2206000,体育休闲服务;影剧院;电影院,80601,120.104241,30.943861
339,"119.817964,31.363287",,大众路14号,宜兴市,无锡市,B01FE0IBME,[],宜兴影城(文化大厦店),江苏省,0510-87902129;0510-87903652,体育休闲服务;影剧院;电影院,80601,119.817964,31.363287
340,"113.583661,23.159053",,凤凰城星荟商业中心3层,增城区,广州市,B0FFG1WKOA,[],广州飞影国际4K影城(凤凰城店),广东省,020-82886998;13527747590,体育休闲服务;影剧院;电影院,80601,113.583661,23.159053
341,"120.502884,37.641606",,港城大道与南山路交汇处新源购物广场5层,龙口市,烟台市,B02170RZOM,[],利群华艺国际影城(龙口店),山东省,0535-8579866;0535-8579877,体育休闲服务;影剧院;电影院,80601,120.502884,37.641606
342,"119.171698,34.588394",,朝阳西路乐天玛特4层,海州区,连云港市,B0FFFPKM27,[],金典国际数字影城(乐天玛特店),江苏省,0518-81065858;0518-81065959,体育休闲服务;影剧院;电影院,80601,119.171698,34.588394
343,"109.528788,18.222901",,榆亚路136号1号港湾城4层,吉阳区,三亚市,B0FFFEC29K,[],三亚中视国际影城,海南省,0898-88707111;0898-88706111,体育休闲服务;影剧院;电影院,80601,109.528788,18.222901
344,"103.782578,36.065988",,西津东路575号2层,七里河区,兰州市,B03A30BH0R,[],倚能.假日影城(西津东路店),甘肃省,0931-2658615;0931-2666262,体育休闲服务;影剧院;电影院,80601,103.782578,36.065988
345,"120.49099,30.082503",,群贤路1811号(县政府西侧),柯桥区,绍兴市,B023F039XU,[],蓝天国际影城(群贤路店),浙江省,0575-81188222,体育休闲服务;影剧院;电影院,80601,120.49099,30.082503
346,"112.975708,28.184094",,黄兴南路步行街商业街A区3层,天心区,长沙市,B0FFGKE3ZJ,[],百誉影院(步行街店),湖南省,0731-85228383,体育休闲服务;影剧院;电影院,80601,112.975708,28.184094
347,"108.320733,22.814227",,兴宁路步行街59号,兴宁区,南宁市,B03030TLD0,[],金逸影城(步行街店),广西壮族自治区,0771-2825195;0771-2825186,体育休闲服务;影剧院;电影院,80601,108.320733,22.814227
348,"112.975105,28.191195",,黄兴南路445号长沙悦荟广场4层,天心区,长沙市,B02DB05X8U,[],万达影城(长沙解放路悦荟广场店),湖南省,0731-82239608;4000806060,体育休闲服务;影剧院;电影院,80601,112.975105,28.191195
349,"112.975843,28.193174",,黄兴中路27号王府井百货10层,天心区,长沙市,B02DB03R77,[],横店电影城(王府井店),湖南省,0731-82249400;0731-84416888;0731-82249407,体育休闲服务;影剧院;电影院,80601,112.975843,28.193174
350,"118.178333,39.651704",,建设北路29号,路北区,唐山市,B013B0354T,[],燕山影剧院,河北省,0315-2824395,体育休闲服务;影剧院;影剧院相关,80600,118.178333,39.651704
351,"120.684718,27.980671",,温州老火车站大楼西首1-2层,鹿城区,温州市,B02410WN7K,[],鑫乐国际影城(温州站店),浙江省,0577-55583299;0577-55577577,体育休闲服务;影剧院;电影院,80601,120.684718,27.980671
352,"109.503981,18.257195",,解放路668号明珠广场7层,天涯区,三亚市,B038300YVO,[],明珠电影城(明珠广场店),海南省,0898-88338999;0898-88369116,体育休闲服务;影剧院;电影院,80601,109.503981,18.257195
353,"113.645561,34.725649",,大学中路与政通路交叉口东北升龙国际C区3号楼2单元1105室,二七区,郑州市,B0FFGM1A7U,[],大白私人影院(升龙广场店),河南省,18037772137,体育休闲服务;影剧院;电影院,80601,113.645561,34.725649
354,"118.730263,31.992617",,楠溪江东街83号缤润汇购物中心3层,建邺区,南京市,B0FFH8KKSU,[],喜满客影城(缤润汇店),江苏省,025-58833309,体育休闲服务;影剧院;电影院,80601,118.730263,31.992617
355,"110.287851,25.221089",,凯风路90号万福广场1号楼4层,象山区,桂林市,B0FFG40LT2,[],新时代环球影城,广西壮族自治区,0773-7790788;0773-7790929,体育休闲服务;影剧院;电影院,80601,110.287851,25.221089
356,"118.247275,24.669840",,巷西一里4号海峡商贸城2层,翔安区,厦门市,B0FFGPGH5Q,[],维宝国际影城(马巷店),福建省,0592-7099098;0592-7088098,体育休闲服务;影剧院;电影院,80601,118.247275,24.66984
357,"121.012685,31.262391",,千灯镇尚书路上郡广场3号楼2层,昆山市,苏州市,B0FFF5OLYH,[],千影国际影城(上郡广场店),江苏省,0512-57905990,体育休闲服务;影剧院;电影院,80601,121.012685,31.262391
358,"120.612234,30.07875",,世纪东街57号昌民百货4层,越城区,绍兴市,B023F0RJO7,[],世纪电影城(益泉店),浙江省,0575-85086606;0575-85082279;0575-85132279,体育休闲服务;影剧院;电影院,80601,120.612234,30.07875
359,"117.125438,36.199286",,金山路24号,泰山区,泰安市,B021A00BYA,[],泰安市泰山影剧院电影展览厅,山东省,0538-8226594;0538-8221154,体育休闲服务;影剧院;电影院,80601,117.125438,36.199286
360,"114.369345,22.684605",,沙n社区同富裕路9号六星新天地商业广场A座3层,坪山区,深圳市,B02F38JFIA,[],星际银河电影城(同富裕路店),广东省,0755-28395920,体育休闲服务;影剧院;电影院,80601,114.369345,22.684605
361,"125.276866,43.821691",,日新楼5层,朝阳区,长春市,B0FFG8LVBV,[],吉大巨幕影城(体育场店),吉林省,0431-85307888,体育休闲服务;影剧院;电影院,80601,125.276866,43.821691
362,"117.063483,36.684865",,花园路101号海蔚广场B1,历城区,济南市,B021307V3F,[],新世纪电影城(洪家楼店),山东省,0531-86086088;0531-88028801,体育休闲服务;影剧院;电影院,80601,117.063483,36.684865
363,"121.258941,37.505688",,福海路178号振华购物广场福山店4层,福山区,烟台市,B02170RC8N,[],福山金字塔国际影城(福海路店),山东省,0535-2130222,体育休闲服务;影剧院;电影院,80601,121.258941,37.505688
364,"119.305427,26.111803",,五四路320号,鼓楼区,福州市,B024F0ZXAZ,[],中瑞国际影城(省体育中心店),福建省,0591-22857087;4000125000,体育休闲服务;影剧院;电影院,80601,119.305427,26.111803
365,"119.940581,30.282136",,禹航路1076号锦绣时代中心B区7号楼3层,余杭区,杭州市,B023B1FKBV,[],泽艺影城(余杭店),浙江省,0571-88668090;0571-88668797,体育休闲服务;影剧院;电影院,80601,119.940581,30.282136
366,"110.924513,21.674548",,光华北路368号1+1购物广场1层,茂南区,茂名市,B029C0P187,[],新鸿影城(光华北路店),广东省,0668-2379666;0668-2379128;0668-6315988,体育休闲服务;影剧院;电影院,80601,110.924513,21.674548
367,"120.894273,30.9433",,邮电东路15号,嘉善县,嘉兴市,B023D03OC8,[],西塘电影院(邮电西路店),浙江省,0573-84822808,体育休闲服务;影剧院;电影院,80601,120.894273,30.9433
368,"121.156531,30.052225",,中都购物中心5层,余姚市,宁波市,B023E0YME8,[],时代影城(中都店),浙江省,0574-62629199,体育休闲服务;影剧院;电影院,80601,121.156531,30.052225
369,"119.970371,31.818969",,通江中路88号万达广场新北店5层,新北区,常州市,B02070RYC1,[],万达影城(新北万达广场店),江苏省,0519-69960000,体育休闲服务;影剧院;电影院,80601,119.970371,31.818969
370,"120.265921,32.017735",,骥江路276号靖江书城南大门1-3层,靖江市,泰州市,B020B026NC,[],新华世纪影城(书城大楼店),江苏省,0523-82352951;0523-82352950,体育休闲服务;影剧院;电影院,80601,120.265921,32.017735
371,"117.652406,24.50827",,芳华北路20号(中山公园后门天主教堂1层),芗城区,漳州市,B02540P3D1,[],大地・电影城(天主教堂店),福建省,0596-2661596;0596-2661586,体育休闲服务;影剧院;电影院,80601,117.652406,24.50827
372,"113.138490,23.012621",,季华六路11号恒福国际商业中心4层,禅城区,佛山市,B0FFGCQYYV,[],唯亚影城(季华恒福店),广东省,0757-82091183,体育休闲服务;影剧院;电影院,80601,113.13849,23.012621
373,"114.571561,38.024118",,槐安东路153号永辉超市3层,裕华区,石家庄市,B01370Y4NU,[],金太狼国际影城(永辉超市店),河北省,0311-87651666,体育休闲服务;影剧院;电影院,80601,114.571561,38.024118
374,"116.405743,39.107259",,盐水河南道汇聚元超市3层,霸州市,廊坊市,B0FFGE6TQZ,[],金棕榈霸州古街影城,河北省,0316-7855333,体育休闲服务;影剧院;电影院,80601,116.405743,39.107259
375,"121.457428,32.100780",,久辉国际3层,海门市,南通市,B0FFGLX0MV,[],久辉国际影城,江苏省,0513-82891222;0513-82895666,体育休闲服务;影剧院;电影院,80601,121.457428,32.10078
376,"112.568876,37.802951",,体育路西50米,小店区,太原市,B0FFHNH5US,[],BOSE智能影院,山西省,[],体育休闲服务;影剧院;电影院,80601,112.568876,37.802951
377,"120.400151,27.503746",,公园路97号,苍南县,温州市,B024103ZP8,[],苍南影城(人民公园店),浙江省,0577-64771752;0577-68819000,体育休闲服务;影剧院;电影院,80601,120.400151,27.503746
378,"121.247561,31.383430",,城中路149号,嘉定区,上海市,B00155K7KX,[],嘉定影剧院,上海市,021-59531306,体育休闲服务;影剧院;电影院,80601,121.247561,31.38343
379,"116.366488,27.975993",,金巢大道299号凤凰城商业广场C区4层,临川区,抚州市,B0FFF36MZ3,[],凤凰城国际影院(凤凰城商业广场店),江西省,0794-2185880;0794-2189999,体育休闲服务;影剧院;电影院,80601,116.366488,27.975993
380,"110.013456,40.580567",,巴彦塔拉大街48号维多利新天地南楼4层,东河区,包头市,B0FFFFE2Q6,[],中数国际电影城(包头东河店),内蒙古自治区,0472-4183399;0472-4163399,体育休闲服务;影剧院;电影院,80601,110.013456,40.580567
381,"110.176343,20.329507",,东方二路龙达花园D栋4层,徐闻县,湛江市,B02F70OG0O,[],徐闻时代风影城(龙达店),广东省,0759-4814333,体育休闲服务;影剧院;电影院,80601,110.176343,20.329507
382,"112.850448,35.501236",,新市西街49号风展新时代广场7层,城区,晋城市,B01640ML52,[],万达影城(晋城凤展广场店),山西省,0356-8989111;0356-8989116,体育休闲服务;影剧院;电影院,80601,112.850448,35.501236
383,"84.911146,44.417394",,库尔勒东路和沙湾街交叉口东南角,奎屯市,伊犁哈萨克自治州,B0FFGEOKC9,[],美美影院,新疆维吾尔自治区,[],体育休闲服务;影剧院;电影院,80601,84.911146,44.417394
384,"119.053169,33.553131",,天津路33号1幢1124室,清江浦区,淮安市,B0FFHDV6XB,[],约会小墅映像馆私人影院,江苏省,13338918111;15366607050,体育休闲服务;影剧院;电影院,80601,119.053169,33.553131
385,"112.560831,37.818296",,长风街117号附近,小店区,太原市,B0FFHIG9CN,[],简一生活馆影院・智能,山西省,0351-7535020,购物服务;购物相关场所;购物相关场所,60000,112.560831,37.818296
386,"112.133736,32.063083",,长虹北路9号万达广场娱乐楼3层,樊城区,襄阳市,B02C6034HF,[],万达影城(襄阳万达广场店),湖北省,0710-3722999;4000806060;0710-3722810,体育休闲服务;影剧院;电影院,80601,112.133736,32.063083
387,"109.738530,28.313901",,人民北路48号悦和城5层,吉首市,湘西土家族苗族自治州,B0FFGERNFI,[],悦和影城,湖南省,0743-8758666,体育休闲服务;影剧院;电影院,80601,109.73853,28.313901
388,"116.080139,43.947692",,锡林大街42号,锡林浩特市,锡林郭勒盟,B01DF0051G,[],锡林影剧院,内蒙古自治区,0479-6847888,体育休闲服务;影剧院;影剧院相关,80600,116.080139,43.947692
389,"120.564486,32.39085",,中山路398号西欧国际广场5层,如皋市,南通市,B0201086EY,[],声屏世纪影城(西欧店),江苏省,0513-87536565;0513-87536262,体育休闲服务;影剧院;电影院,80601,120.564486,32.39085
390,"116.542426,40.105371",,九重汇商业大厦8层,顺义区,北京市,B0FFGXN1UF,[],华彩恐龙主题影城,北京市,010-80498699,体育休闲服务;影剧院;电影院,80601,116.542426,40.105371
391,"118.094619,24.585866",,集美大道199集美大学诚毅学院,集美区,厦门市,B025004CH0,[],集美大学诚毅学院影剧院,福建省,[],体育休闲服务;影剧院;影剧院相关,80600,118.094619,24.585866
392,"117.178002,34.190167",,同昌西路与圭山路交叉口徐师大公寓1号楼旁,铜山区,徐州市,B02040RFSJ,[],中山堂铜山影城,江苏省,0516-66626662,体育休闲服务;影剧院;电影院,80601,117.178002,34.190167
393,"112.495907,37.849231",,小井峪街80号,万柏林区,太原市,B0FFHMCEVI,[],恒大影城(恒大城店),山西省,0351-7784666,体育休闲服务;体育休闲服务场所;体育休闲服务场所,80000,112.495907,37.849231
394,"120.984138,31.403388",,玉山镇萧林东路3888号野马渡文体中心1层(白塘路东),昆山市,苏州市,B0FFFGZKPT,[],野马渡影城,江苏省,0512-57879889;0512-36683606,体育休闲服务;影剧院;电影院,80601,120.984138,31.403388
395,"119.967335,36.790106",,杭州路62号利群平度购物中心6层,平度市,青岛市,B0FFFDQIEQ,[],华艺国际影城(平度店),山东省,0532-88363733,体育休闲服务;影剧院;电影院,80601,119.967335,36.790106
396,"115.469494,38.889594",,朝阳北大街799号北国先天下7层,竞秀区,保定市,B01380PTWN,[],金棕榈先天下国际影城(北国先天下店),河北省,0312-5883456,体育休闲服务;影剧院;电影院,80601,115.469494,38.889594
397,"105.285184,29.345120",,古湖街道道观坪6,隆昌市,内江市,B0FFFAHAEE,[],恒彬・影城,四川省,0832-3995999,体育休闲服务;影剧院;电影院,80601,105.285184,29.34512
398,"113.865838,35.305797",,平原路22号,卫滨区,新乡市,B017500Z1L,[],新星大剧院,河南省,[],体育休闲服务;影剧院;剧场,80603,113.865838,35.305797
399,"121.405788,31.238665",,兰溪路125号,普陀区,上海市,B001540846,[],曹杨影城(兰溪路店),上海市,021-52666955;021-52668755;021-52666977,体育休闲服务;影剧院;电影院,80601,121.405788,31.238665
400,"113.82525,34.016579",,颍昌路与南大街交汇处大商新玛特总店5层,魏都区,许昌市,B0FFF36VCL,[],大商新玛特国际影城(新玛特店),河南省,0374-2555855;0374-7395855,体育休闲服务;影剧院;电影院,80601,113.82525,34.016579
401,"115.489604,38.859958",,裕华西路555号华创国际广场东区3-4层,莲池区,保定市,B01380QJL7,[],华隶影城(华创国际广场店),河北省,0312-2022123,体育休闲服务;影剧院;电影院,80601,115.489604,38.859958
402,"118.647921,24.938590",,华大街道华侨大学学生街观音路66号3楼,丰泽区,泉州市,B0FFGYF4GW,[],木未星影院(华大店),福建省,0595-22181679,体育休闲服务;影剧院;电影院,80601,118.647921,24.93859
403,"113.791377,23.02223",,东升路229号星河城3层,东莞市,东莞市,B03018JADU,[],博纳国际影城(星河城店),广东省,0769-26626866,体育休闲服务;影剧院;电影院,80601,113.791377,23.02223
404,"112.976611,28.198861",,黄兴中路188号乐和城F5层L5.01,芙蓉区,长沙市,B02DB0U57C,[],博纳国际影城(乐和城店),湖南省,0731-88782088;0731-88782099;4006303011,体育休闲服务;影剧院;电影院,80601,112.976611,28.198861
405,"121.229371,31.150253",,嘉松中路5999号米格天地广场2号楼3层,青浦区,上海市,B0FFF65Z6I,[],米格国际影城(嘉松中路店),上海市,021-39293330,体育休闲服务;影剧院;电影院,80601,121.229371,31.150253
406,"109.125353,21.459512",,和安宁春城8楼,海城区,北海市,B0FFIKMM1I,[],大地影院(北海宁春城IMAX店),广西壮族自治区,0779-2020258,体育休闲服务;影剧院;电影院,80601,109.125353,21.459512
407,"109.819231,40.659136",,钢铁大街59号东方明珠D座2层,昆都仑区,包头市,B01D80PRMA,[],天亿国际电影城(东方明珠店),内蒙古自治区,0472-2528022,体育休闲服务;影剧院;电影院,80601,109.819231,40.659136
408,"125.288956,43.831506",,前进大街1889号欢乐城6层,朝阳区,长春市,B0FFGHMPSH,[],欢乐城国际影城(前进大街店),吉林省,0431-81802292,体育休闲服务;影剧院;电影院,80601,125.288956,43.831506
409,"102.734182,25.081249",,北京路延长线北辰财富中心E栋4层,盘龙区,昆明市,B036708351,[],北辰财富中心影院,云南省,0871-65730900;0871-65730112,体育休闲服务;影剧院;电影院,80601,102.734182,25.081249
410,"104.850423,26.580418",,人民广场凉都宫3层,钟山区,六盘水市,B035A0N98W,[],星空影城(凉都宫店),贵州省,0858-8239300;0858-8239100,体育休闲服务;影剧院;电影院,80601,104.850423,26.580418
411,"118.604491,24.912369",,东湖街786号(东湖公园对面),丰泽区,泉州市,B0FFFO62FU,[],闽南影城(东湖路店),福建省,0595-22986251,体育休闲服务;影剧院;电影院,80601,118.604491,24.912369
412,"118.017360,37.375854",,中央公园3号楼3层,滨城区,滨州市,B0FFGK0LJ0,[],横店电影城(中央公园店),山东省,0543-2222599,体育休闲服务;影剧院;电影院,80601,118.01736,37.375854
413,"117.30285,31.830164",,马鞍山南路绿地赢海国际大厦C座4层,包河区,合肥市,B022715JHK,[],星美国际影城(赢海店),安徽省,0551-62521397;0551-62798099;4000118866,体育休闲服务;影剧院;电影院,80601,117.30285,31.830164
414,"106.719338,26.563281",,市南路265号,南明区,贵阳市,B035301I8H,[],贵阳大剧院电影城(市南路店),贵州省,0851-85516918;0851-85514032,体育休闲服务;影剧院;电影院,80601,106.719338,26.563281
415,"82.064725,44.889041",,北京路与新华路交汇处友好时尚购物中心5层,博乐市,博尔塔拉蒙古自治州,B0FFG2SGZW,[],友好国际影城(友好时尚购物中心店),新疆维吾尔自治区,0909-6225100,体育休闲服务;影剧院;电影院,80601,82.064725,44.889041
416,"120.388865,36.287160",,兴阳路702号城中城3层,城阳区,青岛市,B0FFGDE2U9,[],金太狼国际影城(城中城店),山东省,0532-55565550,体育休闲服务;影剧院;电影院,80601,120.388865,36.28716
417,"126.760243,45.718240",,幸福镇香福路52号永泰城5层,香坊区,哈尔滨市,B0FFFVHTH1,[],泰莱时代影城,黑龙江省,0451-51896608;0451-51896607,体育休闲服务;影剧院;电影院,80601,126.760243,45.71824
418,"94.902584,36.397692",,昆仑路与柴达木路交叉口,格尔木市,海西蒙古族藏族自治州,B0FFFPNIHQ,[],盐湖数码影院,青海省,[],体育休闲服务;影剧院;电影院,80601,94.902584,36.397692
419,"121.514984,31.226138",,张杨路400号,浦东新区,上海市,B00150C4C3,[],兰馨电影院(张杨路店),上海市,021-58827520;021-58765103,体育休闲服务;影剧院;电影院,80601,121.514984,31.226138
420,"112.896073,30.413083",,潜阳中路10号水牛城鞋业广场5层,潜江市,潜江市,B0AA8004Y4,[],水牛城电影院(章华中路店),湖北省,0728-6292678,体育休闲服务;影剧院;电影院,80601,112.896073,30.413083
421,"120.706199,28.001633",,万源路879号4-5层,鹿城区,温州市,B0FFG7K26M,[],鑫工场影院,浙江省,0577-55582929,体育休闲服务;影剧院;电影院,80601,120.706199,28.001633
422,"119.976512,32.487182",,易居城商业广场3层,海陵区,泰州市,B0FFFOWI89,[],美好环球影城,江苏省,0523-86205566,体育休闲服务;影剧院;电影院,80601,119.976512,32.487182
423,"113.153752,23.012004",,桂城季华七路与澜桂路交叉口鹏瑞利季华广场3层A3-A42,南海区,佛山市,B0FFF9S1FN,[],金逸影城(鹏瑞利广场店),广东省,0757-85132211;18029279083,体育休闲服务;影剧院;电影院,80601,113.153752,23.012004
424,"118.33164,36.813359",,天齐路方正2009南区4层,临淄区,淄博市,B0FFF5Y0EI,[],临淄齐纳国际影城(天齐路店),山东省,0533-7126066,体育休闲服务;影剧院;电影院,80601,118.33164,36.813359
425,"110.995980,35.047122",,人民北路锦绣花城南区东门对面,盐湖区,运城市,B0FFH3LTBK,[],运城巨幕,山西省,[],体育休闲服务;影剧院;电影院,80601,110.99598,35.047122
426,"113.114937,23.023557",,卫国路55号1、5层,禅城区,佛山市,B02F50108D,[],大明星电影城(佛门武馆店),广东省,0757-83995593;0757-83387094,体育休闲服务;影剧院;电影院,80601,113.114937,23.023557
427,"109.841251,40.654133",,阿尔丁大街1号神华国际城3层,昆都仑区,包头市,B01D802VM6,[],神华国际影城(阿尔丁大街店),内蒙古自治区,0472-5368824;0472-2625777,体育休闲服务;影剧院;电影院,80601,109.841251,40.654133
428,"103.809054,30.421386",,迎宾大道74号,新津县,成都市,B001C8O3ZP,[],太平洋国际影城(新津店),四川省,028-82588777;028-82552030,体育休闲服务;影剧院;电影院,80601,103.809054,30.421386
429,"121.407605,28.665155",,白云山西路58号三楼,椒江区,台州市,B0FFHI2HDC,[],MZC影城(台州店),浙江省,0576-81892288,体育休闲服务;影剧院;电影院,80601,121.407605,28.665155
430,"120.968345,31.604094",,宝芝路1号中宏新农中心中宏小商品市场2层,常熟市,苏州市,B0FFGG0FUY,[],东N影城,江苏省,0512-52551868,体育休闲服务;影剧院;电影院,80601,120.968345,31.604094
431,"100.222496,25.593414",,洱河南路29号河畔人家1层,大理市,大理白族自治州,B036814V6Q,[],好世界影城(河畔人家店),云南省,0872-8889988;0872-8889966,体育休闲服务;影剧院;电影院,80601,100.222496,25.593414
432,"120.031335,28.894766",,龙泉巷23号,永康市,金华市,B024314JHJ,[],永康影城,浙江省,0579-87111265;0579-87113971,体育休闲服务;影剧院;电影院,80601,120.031335,28.894766
433,"114.165872,40.113799",,昌盛街与西苑路交叉口新世纪电器城4层,阳原县,张家口市,B0FFHOAG20,[],当代电影院(阳原县店),河北省,0313-2766798,体育休闲服务;影剧院;电影院,80601,114.165872,40.113799
434,"110.352119,22.708145",,城中路国展大厦3层,北流市,玉林市,B0FFF3GVV3,[],国展影城(城中路店),广西壮族自治区,0775-6557666;0775-6552666,体育休闲服务;影剧院;电影院,80601,110.352119,22.708145
435,"110.156598,22.63245",,人民东路741号影视大厦3层,玉州区,玉林市,B0307005QL,[],神舟影城(影视店),广西壮族自治区,0775-2819997,体育休闲服务;影剧院;电影院,80601,110.156598,22.63245
436,"120.685189,27.951658",,温瑞大道999号万象城5层L519,瓯海区,温州市,B0FFGWF7OG,[],卢米埃影城(温州万象城店),浙江省,0577-86680600,体育休闲服务;影剧院;电影院,80601,120.685189,27.951658
437,"100.225881,25.586703",,建设东路34号2层,大理市,大理白族自治州,B03680J6KQ,[],深圳4D新建国际影城(绿玉公园店),云南省,0872-2125804;0872-2187033,体育休闲服务;影剧院;电影院,80601,100.225881,25.586703
438,"115.204549,36.076120",,新天地购物中心5层,南乐县,濮阳市,B0FFGNUA7K,[],奥斯卡影城(南乐店),河南省,0393-6755999;13939399198,体育休闲服务;影剧院;电影院,80601,115.204549,36.07612
439,"117.680167,38.996901",,新华路3678号新金融大厦1-6层,滨海新区,天津市,B0FFGDDXFW,[],CGV星聚汇影城(于家堡店),天津市,022-59060777,体育休闲服务;影剧院;电影院,80601,117.680167,38.996901
440,"122.284607,29.939135",,滨港西路158号国际水产城6号楼208号,普陀区,舟山市,B0FFGBB37L,[],埃米主题影城,浙江省,0580-3660255,体育休闲服务;影剧院;电影院,80601,122.284607,29.939135
441,"105.579429,30.503968",,遂州南路270号永逸百货7-8层,船山区,遂宁市,B033900I6R,[],永逸电影城,四川省,0825-2220661;0825-2255666,体育休闲服务;影剧院;电影院,80601,105.579429,30.503968
442,"118.494234,37.461939",,济南路与西四路交汇处利群瑞泰购物广场5层,东营区,东营市,B0222028NI,[],利群国际影城(瑞泰店),山东省,0546-8512520;0546-8512521,体育休闲服务;影剧院;电影院,80601,118.494234,37.461939
443,"106.748707,22.096081",,南大路155号华灵生活超市2层,凭祥市,崇左市,B0FFFALEHB,[],凭祥广影万福电影城,广西壮族自治区,0771-8572999,体育休闲服务;影剧院;电影院,80601,106.748707,22.096081
444,"114.473299,38.058648",,和平西路315号,新华区,石家庄市,B013701D02,[],金棕榈和平影城,河北省,0311-87043509;0311-87044624,体育休闲服务;影剧院;电影院,80601,114.473299,38.058648
445,"86.143575,41.757803",,团结北路金汇来广场4层,库尔勒市,巴音郭楞蒙古自治州,B0FFGFVICB,[],金汇来奥斯卡影城,新疆维吾尔自治区,0996-6335555,体育休闲服务;影剧院;电影院,80601,86.143575,41.757803
446,"116.687133,28.690818",,东上大街229号中港城4层,余干县,上饶市,B0FFGJYJV1,[],天鸿影城(余干店),江西省,0793-3398377;0793-3398622,体育休闲服务;影剧院;电影院,80601,116.687133,28.690818
447,"102.697429,25.050322",,文林街93号,五华区,昆明市,B036702B38,[],新建设电影世界(文林街店),云南省,0871-65373800,体育休闲服务;影剧院;电影院,80601,102.697429,25.050322
448,"121.490892,31.280324",,曲阳路570号,虹口区,上海市,B00153047D,[],曲阳影都,上海市,021-65527029;021-65533134,体育休闲服务;影剧院;电影院,80601,121.490892,31.280324
449,"118.018559,37.377213",,黄河四路渤海七路交叉口渤海国际广场D座3层,滨城区,滨州市,B021F03V4L,[],新世纪电影城(黄河四路),山东省,0543-3222877;0543-3325877,体育休闲服务;影剧院;电影院,80601,118.018559,37.377213
450,"120.755589,31.684840",,海虞北路90号常汇生活广场3层,常熟市,苏州市,B0FFIG4P29,[],巨洋国际影城(常熟店),江苏省,0512-52222537,体育休闲服务;影剧院;电影院,80601,120.755589,31.68484
451,"120.356965,30.566974",,洲泉小商品城3幢D区2层,桐乡市,嘉兴市,B023D0R7Z9,[],洲泉银河电影城(湘溪大道店),浙江省,0573-81888686,体育休闲服务;影剧院;电影院,80601,120.356965,30.566974
452,"120.599495,31.263758",,宝带西路1177号运河城二期北区1F-3F(原世茂国际影城巨幕店),姑苏区,苏州市,B0200164BF,[],苏州万达影城(世茂广场店),江苏省,0512-67877813,体育休闲服务;影剧院;电影院,80601,120.599495,31.263758
453,"113.148641,23.062119",,桂城灯湖东路20号保利水城购物中心F3层,南海区,佛山市,B02F5078DO,[],保利国际影城(佛山南海店),广东省,0757-81855503;0757-81855996;0757-81855995,体育休闲服务;影剧院;电影院,80601,113.148641,23.062119
454,"104.193320,30.809019",,缤纷时代广场3栋811号,新都区,成都市,B0FFGZFS0X,[],香橙私人影院,四川省,18980717180;18980451150,体育休闲服务;影剧院;电影院,80601,104.19332,30.809019
455,"114.268107,30.581158",,解放大道与万松园路交汇处创世纪大厦B座25层7号,江汉区,武汉市,B0FFH3PJ3Y,[],嘎纳・印记私人影院(武汉广场店),湖北省,18171499195,体育休闲服务;影剧院;电影院,80601,114.268107,30.581158
456,"105.08884,31.098282",,百乐巷百乐时代广场1-4层,三台县,绵阳市,B03300226J,[],中环百乐影城(百乐时代广场店),四川省,0816-5555268,体育休闲服务;影剧院;电影院,80601,105.08884,31.098282
457,"126.591978,45.821156",,中源大道99号(虎林园对面),松北区,哈尔滨市,B0FFFTW3F8,[],恒大影城(哈尔滨绿洲店),黑龙江省,[],体育休闲服务;影剧院;电影院,80601,126.591978,45.821156
458,"106.401513,29.802244",,嘉陵风情步行街11栋雄风百货7层,北碚区,重庆市,B00178UJP8,[],越界国际影城(北碚店),重庆市,023-68222532;023-68222530;023-68222531,体育休闲服务;影剧院;电影院,80601,106.401513,29.802244
459,"120.826185,29.589843",,鹿山路6-7号鹿山广场F6层,嵊州市,绍兴市,B0FFGL0ULG,[],嵊州MAX影城(鹿山广场店),浙江省,0575-83330666,体育休闲服务;影剧院;电影院,80601,120.826185,29.589843
460,"112.554288,28.248531",,楚沩中路与横街巷交叉口东50米,宁乡市,长沙市,B02DB04BT9,[],银都电影院(人民北路店),湖南省,[],体育休闲服务;影剧院;电影院,80601,112.554288,28.248531
461,"115.445082,30.241436",,人民广场1号楼,蕲春县,黄冈市,B0FFGPXTR8,[],华鼎天河影城(蕲春店),湖北省,0713-7380996;0713-7380998,体育休闲服务;影剧院;电影院,80601,115.445082,30.241436
462,"102.720907,25.026924",,北京路211,官渡区,昆明市,B0367028D6,[],滇池电影广场(北京路店),云南省,0871-63172101;0871-63184043,体育休闲服务;影剧院;电影院,80601,102.720907,25.026924
463,"117.373026,32.927581",,兴业路555号宝龙城市广场B3区第四层B3-4001号,蚌山区,蚌埠市,B0FFGF0F9G,[],爱沐咖啡电影,安徽省,0552-3526688,体育休闲服务;影剧院;电影院|餐饮服务;咖啡厅;咖啡厅,080601|050500,117.373026,32.927581
464,"104.176738,36.543967",,红星路280号7幢4-01,白银区,白银市,B0FFG839YJ,[],新视界电影城(白银店),甘肃省,0943-6970111,体育休闲服务;影剧院;电影院,80601,104.176738,36.543967
465,"112.628606,26.888547",,东风南路2号鑫都国际广场时尚购物中心F5层,珠晖区,衡阳市,B0FFGGH1MC,[],鑫都国际影城(鑫都国际广场店),湖南省,0734-8599858;0734-8599898,体育休闲服务;影剧院;电影院,80601,112.628606,26.888547
466,"117.154978,35.080460",,大同路华汇购物广场B1层,滕州市,枣庄市,B02780QP06,[],华汇国际影城(华汇购物广场店),山东省,0632-5236999,体育休闲服务;影剧院;电影院,80601,117.154978,35.08046
467,"120.770224,31.665355",,青城山路世茂世纪中心创富世纪6幢211-212,常熟市,苏州市,B0FFFU1RLA,[],巨幕私人影院(世茂店),江苏省,0512-52857990,体育休闲服务;影剧院;电影院,80601,120.770224,31.665355
468,"120.395380,31.584633",,团结中路3号荟聚・无锡购物中心北区F4层,锡山区,无锡市,B0FFF756QJ,[],金逸影城(荟聚・无锡购物中心北区),江苏省,0510-88258866,体育休闲服务;影剧院;电影院,80601,120.39538,31.584633
469,"120.612645,31.195496",,天鹅荡路与苏震桃路交界口永旺梦乐城3层E区,吴中区,苏州市,B0FFF64H43,[],苏州银兴国际影城(永旺店),江苏省,0512-66589606;0512-66589602;18013192102,体育休闲服务;影剧院;电影院,80601,120.612645,31.195496
470,"117.179938,39.077768",,宾水西道体育中心B馆津奥广场2层,南开区,天津市,B001612U2K,[],博纳国际影城(津奥广场店),天津市,022-23477816;022-23477878,体育休闲服务;影剧院;电影院,80601,117.179938,39.077768
471,"109.117453,21.481477",,解放路11号,海城区,北海市,B030B005C5,[],人民电影院(解放路店),广西壮族自治区,0779-2023574,体育休闲服务;影剧院;电影院,80601,109.117453,21.481477
472,"120.944133,31.92137",,星湖大道1101号5号楼1-3层,崇川区,南通市,B02010U2DU,[],壹零壹国际影城(星湖大道店),江苏省,0513-81015666;0513-81015111,体育休闲服务;影剧院;电影院,80601,120.944133,31.92137
473,"116.141583,39.738158",,拱辰大街31号,房山区,北京市,B000A7JHZZ,[],良乡影剧院,北京市,010-69352415,体育休闲服务;影剧院;剧场,80603,116.141583,39.738158
474,"106.513762,29.509653",,杨家坪正街1附1号跃华新都1层,九龙坡区,重庆市,B001782021,[],建设电影院(杨家坪店),重庆市,023-68410649;023-68413380,体育休闲服务;影剧院;电影院,80601,106.513762,29.509653
475,"117.547037,34.858106",,建华西路76号银座购物广场5层,市中区,枣庄市,B02780RHNP,[],乐达国际影城(银座店),山东省,0632-8815666,体育休闲服务;影剧院;电影院,80601,117.547037,34.858106
476,"121.654475,31.811170",,人民中路773号永安广场3层,启东市,南通市,B0FFFR1MEX,[],华夏影城(启东店),江苏省,0513-83896666,体育休闲服务;影剧院;电影院,80601,121.654475,31.81117
477,"110.93867,21.662155",,高凉中路图书馆1-3层,茂南区,茂名市,B029C0P19T,[],茂名文化广场影城(高凉中路店),广东省,0668-2877667;0668-2877666,体育休闲服务;影剧院;电影院,80601,110.93867,21.662155
478,"116.685876,23.660242",,金碧路38号桥东金山中学东侧,湘桥区,潮州市,B0FFG5MQA1,[],恒大影城,广东省,0768-2317888,体育休闲服务;影剧院;电影院,80601,116.685876,23.660242
479,"117.289805,31.244815",,庐城镇庐江中心城37栋2层(老乡鸡楼上),庐江县,合肥市,B0FFHF6BC4,[],聚影咖主题影院(庐江中心城店),安徽省,0551-83685888,体育休闲服务;影剧院;电影院,80601,117.289805,31.244815
480,"119.577177,31.743291",,金城镇司马坊54号味先生美食城4层,金坛区,常州市,B0207048DJ,[],金沙影城(司马坊店),江苏省,0519-82817699,体育休闲服务;影剧院;电影院,80601,119.577177,31.743291
481,"113.809040,23.098070",,迎春路石碣文化广场,东莞市,东莞市,B030104D0G,[],石碣影剧院,广东省,0769-86307333,体育休闲服务;影剧院;影剧院相关,80600,113.80904,23.09807
482,"119.56543,32.429884",,东方红路2号乐天玛特超市4层,江都区,扬州市,B0202158XP,[],时代电影城(乐天玛特店),江苏省,0514-86488666;0514-86538500;18086769780,体育休闲服务;影剧院;电影院,80601,119.56543,32.429884
483,"112.884132,22.899346",,沧江路137号,高明区,佛山市,B02F504LBI,[],高明影剧院,广东省,0757-88822664;0757-88823664,体育休闲服务;影剧院;电影院,80601,112.884132,22.899346
484,"109.686964,23.958281",,东井路99号,象州县,来宾市,B0FFGRGBL3,[],好青春影城(象州店),广西壮族自治区,0772-4301828,体育休闲服务;影剧院;电影院,80601,109.686964,23.958281
485,"117.651631,39.019715",,中心路7号,滨海新区,天津市,B00160CCEI,[],塘沽大剧院(中心路店),天津市,022-25862713;022-25862653,体育休闲服务;影剧院;电影院,80601,117.651631,39.019715
486,"115.976328,40.461925",,妫水北街39号金锣湾商业中心1幢H座1层,延庆区,北京市,B000A8X9SV,[],大地影院(延庆金锣湾店),北京市,010-60165114,体育休闲服务;影剧院;电影院,80601,115.976328,40.461925
487,"112.915393,28.203081",,西二环达美中心2层,岳麓区,长沙市,B0FFHFS4HU,[],中影星美影城(达美店),湖南省,0731-89822358;18874778347,体育休闲服务;影剧院;电影院,80601,112.915393,28.203081
488,"120.022456,28.907856",,城北西路238号4层,永康市,金华市,B02430IK9F,[],万福电影大世界,浙江省,0579-87331111,体育休闲服务;影剧院;电影院,80601,120.022456,28.907856
489,"116.709123,39.520172",,新华路45号,广阳区,廊坊市,B013C01444,[],明珠影剧院(新华路店),河北省,0316-2013433;0316-2027500,体育休闲服务;影剧院;电影院,80601,116.709123,39.520172
490,"119.687321,30.628165",,昌硕街道昌硕广场6号楼4层412-413号,安吉县,湖州市,B0FFFVM9V0,[],九州大地影城,浙江省,0572-5219999,体育休闲服务;影剧院;电影院,80601,119.687321,30.628165
491,"107.237852,26.579404",,城关镇徐家湾影剧院,贵定县,黔南布依族苗族自治州,B0FFGE9ST3,[],银海星空影城,贵州省,0854-4950898,体育休闲服务;影剧院;电影院,80601,107.237852,26.579404
492,"117.936848,40.976079",,南营子大街文化大厦B1层,双桥区,承德市,B013A006I3,[],群众电影院(南营子大街店),河北省,0314-2076811;0314-2073589,体育休闲服务;影剧院;电影院,80601,117.936848,40.976079
493,"110.786815,32.642901",,五堰北街如意广场内,茅箭区,十堰市,B02CF01ZNG,[],五堰电影院(如意广场店),湖北省,0719-8671986,体育休闲服务;影剧院;电影院,80601,110.786815,32.642901
494,"123.389254,41.749994",,长白二街3-2号,和平区,沈阳市,B0018173DA,[],金逸国际电影城(长白店),辽宁省,024-31632380;024-83737779,体育休闲服务;影剧院;电影院,80601,123.389254,41.749994
495,"103.887929,30.808697",,东大街27号3层,郫都区,成都市,B001C8NU7O,[],郫都区电影院(东大街店),四川省,028-86556858,体育休闲服务;影剧院;电影院,80601,103.887929,30.808697
496,"118.590276,24.913209",,西街20号,鲤城区,泉州市,B025301AHD,[],泉州影剧院,福建省,0595-22379286;0595-22388588,体育休闲服务;影剧院;电影院,80601,118.590276,24.913209
497,"125.147262,46.538645",,龙运路与凤德街交汇处,龙凤区,大庆市,B0FFGK2XDH,[],恒大影城(大庆店),黑龙江省,0459-6216988,体育休闲服务;影剧院;电影院,80601,125.147262,46.538645
498,"111.754592,29.64299",,财富广场C区3层,澧县,常德市,B02E00QMPF,[],长浩电影城(财富广场店),湖南省,0736-3138999,体育休闲服务;影剧院;电影院,80601,111.754592,29.64299
499,"117.025840,25.072171",,东尚国际大酒店,新罗区,龙岩市,B0FFGKU3NJ,[],中影梦工坊巨幕影城(美食城店),福建省,[],体育休闲服务;影剧院;电影院,80601,117.02584,25.072171
500,"114.069405,32.122245",,和美广场东方京城4层,负忧,信阳市,B01780146T,[],奥斯卡国际影城(东方京城店),河南省,0376-6211568;0376-6265488,体育休闲服务;影剧院;电影院,80601,114.069405,32.122245
501,"123.398317,41.790614",,万达新天地天河座4楼19号,和平区,沈阳市,B0FFHC66IY,[],影乐迪私人影院,辽宁省,13604032752,体育休闲服务;影剧院;电影院,80601,123.398317,41.790614
502,"101.758616,36.629622",,五四大街37号力盟步行街6号楼2-3层,城西区,西宁市,B0FFF36R3P,[],星美国际影城(力盟店),青海省,0971-6369388,体育休闲服务;影剧院;电影院,80601,101.758616,36.629622
503,"110.28707,21.605902",,五一路41号华影文化中心,廉江市,湛江市,B02F70NT3O,[],华影凤凰电影院(五一路店),广东省,0759-6892886,体育休闲服务;影剧院;电影院,80601,110.28707,21.605902
504,"121.698624,31.193544",,新川路400号,浦东新区,上海市,B001556QU4,[],川沙影剧院,上海市,021-58927839;021-58982228,体育休闲服务;影剧院;电影院,80601,121.698624,31.193544
505,"119.894594,32.380914",,口泰路1号中国医药城大学城邻里中心3层,海陵区,泰州市,B0FFGC3AR0,[],苏艺影城(泰州店),江苏省,0523-82189666,体育休闲服务;影剧院;电影院,80601,119.894594,32.380914
506,"123.459141,41.735368",,营盘西街17号万达广场4F层,浑南区,沈阳市,B00181ELEU,[],万达影城(奥体万达广场店),辽宁省,024-31599966,体育休闲服务;影剧院;电影院,80601,123.459141,41.735368
507,"113.097688,22.593563",,东华一路61号金华商业中心1层,蓬江区,江门市,B02EE0Q9HK,[],唯亚影城(金华店),广东省,0750-3719797;0750-3117388,体育休闲服务;影剧院;电影院,80601,113.097688,22.593563
508,"121.414169,28.654065",,市府大道555号万家灯火都市广场F5层,椒江区,台州市,B024005PDD,[],完美世界影城(万家灯火广场店),浙江省,0576-88819888;0576-88812018,体育休闲服务;影剧院;电影院,80601,121.414169,28.654065
509,"121.128817,31.284575",,绿地大道255弄2号3层,昆山市,苏州市,B020016BXG,[],中影国际影城(昆山花桥店),江苏省,0512-50173666,体育休闲服务;影剧院;电影院,80601,121.128817,31.284575
510,"117.812273,30.929492",,长江路1552号贵都商城3层,铜官区,铜陵市,B023201ADH,[],人民电影院(长江路店),安徽省,0562-2686697;0562-2686797,体育休闲服务;影剧院;电影院,80601,117.812273,30.929492
511,"118.600086,24.902254",,温陵路美食街中段,丰泽区,泉州市,B02530Q250,[],万星国际影城(温陵路店),福建省,0595-22697888;0595-28678181,体育休闲服务;影剧院;电影院,80601,118.600086,24.902254
512,"115.912069,28.670320",,丁公路120号盈石广场6层,西湖区,南昌市,B0FFI8O915,[],南昌耀莱成龙国际影城,江西省,0791-86282955;0791-86719880,体育休闲服务;影剧院;电影院,80601,115.912069,28.67032
513,"116.381121,23.536628",,榕东梅兜路中段东侧,榕城区,揭阳市,B0FFGEUATG,[],中基国际影城,广东省,0663-8933111;15766888107;13352707709,体育休闲服务;影剧院;电影院,80601,116.381121,23.536628
514,"117.137056,36.182957",,灵山大街276号银座商城5层,泰山区,泰安市,B0FFGJF50O,[],圣大电影城(东湖银座店),山东省,0538-8909999,体育休闲服务;影剧院;电影院,80601,117.137056,36.182957
515,"120.455478,36.389474",,振华街100号(新华书店东50米),即墨区,青岛市,B021408ULB,[],新时代影城,山东省,0532-88512861;18678435559,体育休闲服务;影剧院;电影院,80601,120.455478,36.389474
516,"117.359315,25.966506",,水坝路永安市文体休闲中心,永安市,三明市,B0256028P5,[],华夏大剧院(文体休闲中心店),福建省,0598-3459999;0598-3759999;0598-3756666,体育休闲服务;影剧院;电影院,80601,117.359315,25.966506
517,"117.961120,36.649009",,柳泉广场银座购物广场西门北邻,淄川区,淄博市,B0FFG7XT2L,[],淄川齐纳国际影城,山东省,0533-5137001;0533-5137002,体育休闲服务;影剧院;电影院,80601,117.96112,36.649009
518,"120.759681,30.736810",,南湖大道与中环南路交汇处(体育中心对面),南湖区,嘉兴市,B023D02WOR,[],嘉兴大剧院银河电影城(中环南路店),浙江省,0573-82876288;0573-82533957,体育休闲服务;影剧院;电影院,80601,120.759681,30.73681
519,"111.005721,21.503071",,水东镇人民路3号苏宁电器4层,电白区,茂名市,B029C0P5Z7,[],瑞湖数字影城(人民路店),广东省,0668-5331188;0668-5256888,体育休闲服务;影剧院;电影院,80601,111.005721,21.503071
520,"114.70058,22.957619",,惠东华美达广场酒店对面,惠东县,惠州市,B02F00S4K1,[],弘诚影院(百丘田店),广东省,0752-8313001;0752-5311333;0752-8313111,体育休闲服务;影剧院;电影院,80601,114.70058,22.957619
521,"116.998324,39.754986",,新开街香城壹号4层,香河县,廊坊市,B0FFGWV643,[],星光国际影城(香河店),河北省,0316-8321999;15373237595,体育休闲服务;影剧院;电影院,80601,116.998324,39.754986
522,"108.718045,34.331335",,统一广场B118号,秦都区,咸阳市,B038E02G9H,[],统一国际影城(统一广场店),陕西省,029-38990318,体育休闲服务;影剧院;电影院,80601,108.718045,34.331335
523,"121.597661,32.063778",,吕四港镇香堂路8号,启东市,南通市,B0FFFSVJB3,[],和平影城,江苏省,0513-83416100,体育休闲服务;影剧院;电影院,80601,121.597661,32.063778
524,"126.620066,45.77211",,中央大街69号金安国际购物广场5层,道里区,哈尔滨市,B01C30JPZL,[],金安国际影城(金安国际购物广场店),黑龙江省,0451-84567676;0451-84567875,体育休闲服务;影剧院;电影院,80601,126.620066,45.77211
525,"120.833196,30.078885",,崧厦镇中国伞城17号楼3层,上虞区,绍兴市,B0FFH0IN7O,[],孝民时代影院,浙江省,0575-82696868,体育休闲服务;影剧院;电影院,80601,120.833196,30.078885
526,"118.159733,24.476629",,莲前东路383号901室(6+1儿童摄影楼上),思明区,厦门市,B0FFGZBH9F,[],1080私人影院,福建省,0592-5969766,体育休闲服务;影剧院;电影院,80601,118.159733,24.476629
527,"111.291496,30.7055",,夷陵大道58号CBD购物中心3层,西陵区,宜昌市,B02CD02Y39,[],天河国际影城(夷陵大道店),湖北省,0717-6838051;0717-6290120;0717-6838050,体育休闲服务;影剧院;电影院,80601,111.291496,30.7055
528,"118.869901,28.961925",,县学街37号4层,柯城区,衢州市,B023A0IA2B,[],宏泰电影大世界(县学街店),浙江省,0570-8286695;0570-8586801,体育休闲服务;影剧院;电影院,80601,118.869901,28.961925
529,"114.347360,36.105435",,解放大道30号招商银行2层,北关区,安阳市,B0174027VJ,[],文化宫数字3D影城,河南省,0372-5115678,体育休闲服务;影剧院;电影院,80601,114.34736,36.105435
530,"120.117496,30.297499",,登云路518号赛码城3层,拱墅区,杭州市,B023B1A2BG,[],金象影城(赛码城店),浙江省,0571-86558333,体育休闲服务;影剧院;电影院,80601,120.117496,30.297499
531,"113.800145,27.880072",,府前路18号,上栗县,萍乡市,B031F0M21L,[],环球影城(府前路店),江西省,0799-3666618,体育休闲服务;影剧院;电影院,80601,113.800145,27.880072
532,"114.210975,36.420261",,滏临南大街29号(望园楼4层),峰峰矿区,邯郸市,B0FFGJ6ANH,[],星耀国际影城,河北省,0310-7950888,体育休闲服务;影剧院;电影院,80601,114.210975,36.420261
533,"120.602517,31.272923",,友新路1188号亿盛购物中心3层,姑苏区,苏州市,B020017JPL,[],金逸影城(亿象城IMAX店),江苏省,0512-67878110;0512-67878101,体育休闲服务;影剧院;电影院,80601,120.602517,31.272923
534,"114.482729,36.605046",,邯山街14号稽山商业步行街D1号楼4层,丛台区,邯郸市,B01360ND37,[],新天地电影城(邯山街店),河北省,0310-6038999;0310-6036111;0310-8038999,体育休闲服务;影剧院;电影院,80601,114.482729,36.605046
535,"108.365733,21.756843",,恒富商业广场4层,防城区,防城港市,B0FFH6LDTZ,[],奥斯卡国际影城(恒富商业广场店),广西壮族自治区,0770-3255588,体育休闲服务;影剧院;电影院,80601,108.365733,21.756843
536,"119.455927,32.199479",,解放路32号,京口区,镇江市,B01FF01DX4,[],镇江影剧院,江苏省,0511-84433699,体育休闲服务;影剧院;电影院,80601,119.455927,32.199479
537,"106.430920,38.363236",,横城景区内,兴庆区,银川市,B03B70R0CQ,[],汽车影院,宁夏回族自治区,[],体育休闲服务;影剧院;电影院,80601,106.43092,38.363236
538,"121.784617,39.060400",,辽河西路117万达广场4层,金州区,大连市,B0FFG8YDQW,[],万达影城(经开店),辽宁省,0411-88173555,体育休闲服务;影剧院;电影院,80601,121.784617,39.0604
539,"120.136713,33.382079",,建军中路59号苏宁电器大铜马店5层,亭湖区,盐城市,B02030JAWA,[],铜马国际影城(建军中路店),江苏省,0515-88865000,体育休闲服务;影剧院;电影院,80601,120.136713,33.382079
540,"121.413951,28.650912",,耀达路99号现代天地商城3楼南区,椒江区,台州市,B0FFH5AGZC,[],奥斯卡,浙江省,0576-89801877;0576-89801866,体育休闲服务;影剧院;电影院,80601,121.413951,28.650912
541,"123.174275,41.272748",,民主路14号(信达证券对面),白塔区,辽阳市,B01A3004EB,[],东都影城(民主路店),辽宁省,0419-4239999,体育休闲服务;影剧院;电影院,80601,123.174275,41.272748
542,"126.643293,45.761284",,果戈里大街414号,南岗区,哈尔滨市,B01C30287F,[],亚细亚电影院(果戈里大街店),黑龙江省,0451-53648651;0451-87531877,体育休闲服务;影剧院;电影院,80601,126.643293,45.761284
543,"120.400470,30.129291",,钱清镇新钱门学府4层,柯桥区,绍兴市,B0FFFOWDGH,[],大钱门国际影城,浙江省,0575-84060666,体育休闲服务;影剧院;电影院,80601,120.40047,30.129291
544,"109.423715,24.336936",,沿江路7号,城中区,柳州市,B03040PQBF,[],维星国际影城(柳州双渔汇店),广西壮族自治区,0772-3211668,体育休闲服务;影剧院;电影院,80601,109.423715,24.336936
545,"119.275604,28.596031",,君子路64-70号,遂昌县,丽水市,B0FFF60DVK,[],格瑞斯影城(君子路店),浙江省,0578-8526661,体育休闲服务;影剧院;电影院,80601,119.275604,28.596031
546,"102.691290,25.053436",,虹山东路9号版筑翠园小区9幢3-4层,五华区,昆明市,B036711BNN,[],翠园国际影城,云南省,0871-65175700,体育休闲服务;影剧院;电影院,80601,102.69129,25.053436
547,"113.295964,23.125443",,农林下路4-6号锦轩现代城4层,越秀区,广州市,B00140UVYE,[],中影火山湖电影城(东山口店),广东省,020-87623898;020-87623868,体育休闲服务;影剧院;电影院,80601,113.295964,23.125443
548,"115.524896,38.232581",,安平镇丝网东街(平安公园对过),安平县,衡水市,B013E0M61Y,[],平安国际影城(瑞泰广场店),河北省,0318-7567888;0318-8882088,体育休闲服务;影剧院;电影院,80601,115.524896,38.232581
549,"104.023271,30.670864",,清江东路360号,青羊区,成都市,B001C8NNGR,[],峨影1958电影城(清江东路店),四川省,028-62322261,体育休闲服务;影剧院;电影院,80601,104.023271,30.670864
550,"109.860716,40.657110",,钢铁大街BHG Mall北京华联包头购物中心4-5层,青山区,包头市,B0FFHD0VPC,[],BHG Mall北京华联包头购物中心国际影城(包头店),内蒙古自治区,0472-6209956;0472-6209998,体育休闲服务;影剧院;电影院,80601,109.860716,40.65711
551,"112.008284,27.726364",,氐星路1218号,娄星区,娄底市,B02E20NAPW,[],新城电影院,湖南省,13973849596,体育休闲服务;影剧院;电影院,80601,112.008284,27.726364
552,"114.208116,34.412497",,文化东路182号幸福大厦2层,尉氏县,开封市,B0FFFZQHXU,[],光线奥斯卡影城(东关光线店),河南省,0371-27296777,体育休闲服务;影剧院;电影院,80601,114.208116,34.412497
553,"115.212081,40.387093",,隆都路涿鹿影剧院,涿鹿县,张家口市,B0FFFAGL1T,[],涿鹿影剧院,河北省,0313-6538283,体育休闲服务;影剧院;电影院,80601,115.212081,40.387093
554,"112.95027,27.07508",,江大道966号,衡东县,衡阳市,B02DE0R08B,[],衡东美美影城(江大道店),湖南省,0734-5167777,体育休闲服务;影剧院;电影院,80601,112.95027,27.07508
555,"117.128477,34.818716",,建设路银座商城5层,微山县,济宁市,B0FFFQ5Y1I,[],德悦国际影城(微山银座店),山东省,0537-8558866,体育休闲服务;影剧院;电影院,80601,117.128477,34.818716
556,"106.405196,29.799964",,康宁路58号嘉陵风情步行街4-5层(状元府第旁),北碚区,重庆市,B00178UJX3,[],UME国际影城(北碚店),重庆市,023-60306699,体育休闲服务;影剧院;电影院,80601,106.405196,29.799964
557,"120.052008,29.311975",,北苑街道望道路153号福泰隆购物广场3层,义乌市,金华市,B0243188M2,[],蓝钻影城,浙江省,0579-85065666,体育休闲服务;影剧院;电影院,80601,120.052008,29.311975
558,"116.426179,39.845570",,宋庄路71号扑满山商场2层,丰台区,北京市,B0FFF8PRTZ,[],网尚点播・云乐迪(宋家庄店),北京市,010-87640188,体育休闲服务;影剧院;电影院,80601,116.426179,39.84557
559,"106.777856,30.382191",,文化路496号,华蓥市,广安市,B0FFF3GXR6,[],华蓥电影城(文化路店),四川省,0826-4879333;0826-4878866,体育休闲服务;影剧院;电影院,80601,106.777856,30.382191
560,"113.381956,23.132165",,棠德南路44号乐天棠德广场二楼(肯德基旁),天河区,广州市,B0FFH89GF9,[],龙影国际影城(棠下店),广东省,020-38915740,体育休闲服务;影剧院;电影院,80601,113.381956,23.132165
561,"115.954742,37.354248",,工业路与京杭大街交叉口西行800米路北(西博雅游泳馆西邻),故城县,衡水市,B0FFGLWCZC,[],金棕榈星辉国际影城(故城店),河北省,0318-6653666,体育休闲服务;影剧院;电影院,80601,115.954742,37.354248
562,"113.396494,23.12517",,中山大道中87号苏宁电器中山大道店3层,天河区,广州市,B0FFF09XHH,[],车陂国际影城(苏宁广场店),广东省,020-82304989,体育休闲服务;影剧院;电影院,80601,113.396494,23.12517
563,"119.913441,31.023011",,雉城镇锦绣路2号1层,长兴县,湖州市,B023C02XVM,[],长兴大剧院影城,浙江省,0572-6256008,体育休闲服务;影剧院;电影院,80601,119.913441,31.023011
564,"121.845241,39.063012",,澳东园10号澳东世纪购物广场3层,金州区,大连市,B0FFGF4Y63,[],大地影院(大连澳东世纪店),辽宁省,0411-62274288,体育休闲服务;影剧院;电影院,80601,121.845241,39.063012
565,"118.670154,37.430278",,胶州路新都商城5层,东营区,东营市,B0FFFCVUE6,[],新时代影城(胶州路店),山东省,0546-7765366;0546-8023666,体育休闲服务;影剧院;电影院,80601,118.670154,37.430278
566,"116.773321,23.461236",,文祠东路文化大厦2层,澄海区,汕头市,B02F20054E,[],澄城影剧院,广东省,0754-85722320;0754-85724320,体育休闲服务;影剧院;电影院,80601,116.773321,23.461236
567,"110.340642,19.977498",,吾悦广场,龙华区,海口市,B0FFHC6AEC,[],星轶IMAX国际影城(海口吾悦广场旗舰店),海南省,0898-36311198,体育休闲服务;影剧院;电影院,80601,110.340642,19.977498
568,"125.541957,43.996223",,卡伦湖大街与滨水路交汇合悦广场5层,九台区,长春市,B0FFGM3HM8,[],吉影名悦影城,吉林省,15699565716,体育休闲服务;影剧院;电影院,80601,125.541957,43.996223
569,"121.444465,31.266200",,延长中路801号B座2楼,静安区,上海市,B0FFH9GXHE,[],新华永乐国际影城,上海市,021-36572988,体育休闲服务;影剧院;电影院,80601,121.444465,31.2662
570,"107.642308,35.734741",,西大街与南大街交汇处丽晶百货8层,西峰区,庆阳市,B03A616U4U,[],奥斯卡国际影城(丽晶百货店),甘肃省,0934-6881000;0934-8899551,体育休闲服务;影剧院;电影院,80601,107.642308,35.734741
571,"120.726136,31.266122",,星湖街555号,苏州工业园区,苏州市,B02000K20E,[],独墅湖影剧院,江苏省,0512-62923000,体育休闲服务;影剧院;电影院,80601,120.726136,31.266122
572,"109.742775,28.30987",,武陵东路步步高广场6层,吉首市,湘西土家族苗族自治州,B0FFF3771I,[],新天地电影城(步步高广场店),湖南省,0743-8667788;0743-8537666;18674321318,体育休闲服务;影剧院;电影院,80601,109.742775,28.30987
573,"120.775694,31.666647",,闽江东路9号星光天地4F层,常熟市,苏州市,B0FFG0ZXQY,[],幸福蓝海国际影城(常熟星光店),江苏省,0512-52968199;17706230679,体育休闲服务;影剧院;电影院,80601,120.775694,31.666647
574,"117.484752,30.650191",,长江中路16号同晖城市广场S3栋3层,贵池区,池州市,B0FFGJ0GTG,[],神画巨幕国际影城,安徽省,0566-2716888,体育休闲服务;影剧院;电影院,80601,117.484752,30.650191
575,"125.371028,43.838063",,萧山街伊东商城2层,二道区,长春市,B01AF0Z8BC,[],中影・雷钠影城(博方广场店),吉林省,0431-81157899,体育休闲服务;影剧院;电影院,80601,125.371028,43.838063
576,"117.087405,36.195861",,市政广场金座旅游文化广场D座1号,泰山区,泰安市,B021A0OQR7,[],圣大电影城(市政广场店),山东省,0538-8665555,体育休闲服务;影剧院;电影院,80601,117.087405,36.195861
577,"120.748495,30.761417",,禾兴南路600号,南湖区,嘉兴市,B023D00J1P,[],中山影城(禾兴南路店),浙江省,0573-82085557;0573-82060004,体育休闲服务;影剧院;电影院,80601,120.748495,30.761417
578,"116.928315,38.941605",,静海镇联盟北路,静海区,天津市,B001611SW5,[],麦田国际电影城(联盟北路店),天津市,022-68520088;022-68520099;022-68520066,体育休闲服务;影剧院;电影院,80601,116.928315,38.941605
579,"120.147047,30.171423",,浦沿镇滨文路577号润泽宾馆4层,滨江区,杭州市,B023B0BI4R,[],滨文电影大世界(华润店),浙江省,0571-86630333;0571-86617968,体育休闲服务;影剧院;电影院,80601,120.147047,30.171423
580,"112.201068,31.029250",,中天街10号月新・荆门中心商业广场6层,东宝区,荆门市,B0FFGF4CQA,[],华夏巨幕影城(月新店),湖北省,0724-2221388,体育休闲服务;影剧院;电影院,80601,112.201068,31.02925
581,"114.062318,22.633643",,吉华路999号坂田商业广场5层,龙岗区,深圳市,B02F38J3TR,[],南国艺恒影城(坂田店),广东省,0755-28483188,体育休闲服务;影剧院;电影院,80601,114.062318,22.633643
582,"121.501146,31.275566",,四平路901号,杨浦区,上海市,B00154616F,[],四平电影院(大连西路店),上海市,021-65543245;021-65532093,体育休闲服务;影剧院;电影院,80601,121.501146,31.275566
583,"110.773484,21.441305",,同德城西首城2号B2层,吴川市,湛江市,B02F70ODQI,[],华影国际影城(同德城店),广东省,0759-5600255;0759-5611311,体育休闲服务;影剧院;电影院,80601,110.773484,21.441305
584,"121.352147,31.222325",,金钟路968号7号楼B1层,长宁区,上海市,B0FFGHFXVC,[],上影虹桥临空国际影城,上海市,021-62588318,体育休闲服务;影剧院;电影院,80601,121.352147,31.222325
585,"113.343153,23.141997",,天河北路705号曜和广场西3层,天河区,广州市,B00141JLBZ,[],中影乐佳影城(曜和店),广东省,020-38202202,体育休闲服务;影剧院;电影院,80601,113.343153,23.141997
586,"116.419186,40.03341",,北苑路42号(北辰购物中心斜对面、近北苑北辰购物中心),朝阳区,北京市,B000A8VW4O,[],K酷国际影城(K酷时尚广场店),北京市,010-84939886;010-84929466,体育休闲服务;影剧院;电影院,80601,116.419186,40.03341
587,"110.349873,20.057316",,和平大道与四东路交口家乐福超市4层,美兰区,海口市,B0FFGR7JIS,[],时代华纳国际影城(鹏辉广场店),海南省,0898-66236160,体育休闲服务;影剧院;电影院,80601,110.349873,20.057316
588,"104.122013,30.668083",,建设南支路4号2层,成华区,成都市,B001C8O5XD,[],影立方773IMAX影城(东郊记忆店),四川省,[],体育休闲服务;影剧院;电影院,80601,104.122013,30.668083
589,"113.91994,22.535158",,南新路3030号欢乐颂购物广场5层,南山区,深圳市,B0FFF3AT2S,[],百川国际影城(欢乐颂购物广场店),广东省,0755-86605666;0755-86646913,体育休闲服务;影剧院;电影院,80601,113.91994,22.535158
590,"114.354692,30.525753",,珞喻路4号乐天城购物广场6层,洪山区,武汉市,B001B0JOGD,[],天河国际影城(乐天店),湖北省,027-87882649,体育休闲服务;影剧院;电影院,80601,114.354692,30.525753
591,"115.998686,29.717607",,南湖路108号南湖国际3层,浔阳区,九江市,B0318066D4,[],南湖时代影城(南湖国际店),江西省,0792-8537555,体育休闲服务;影剧院;电影院,80601,115.998686,29.717607
592,"116.332885,23.262362",,陈店镇陈围金溪路南聚丰商业广场,潮南区,汕头市,B0FFH2MV5V,[],聚丰国际影城,广东省,0754-89378282,体育休闲服务;影剧院;电影院,80601,116.332885,23.262362
593,"102.729549,25.026674",,环城南路262号云路广场4层,官渡区,昆明市,B0FFFPA39N,[],万达影城(云路广场店),云南省,0871-65222660;0871-63383100;4000806060,体育休闲服务;影剧院;电影院,80601,102.729549,25.026674
594,"113.269013,23.124759",,北京路312号青年文化宫2层,越秀区,广州市,B00140AK1Y,[],青宫电影城(青年文化宫店),广东省,020-83329918;020-83322688,体育休闲服务;影剧院;电影院,80601,113.269013,23.124759
595,"116.364913,23.551566",,仁义路8号街头,榕城区,揭阳市,B0FFGIP1FR,[],中影巢汇影城,广东省,0663-8206988;18022555592,体育休闲服务;影剧院;电影院,80601,116.364913,23.551566
596,"120.874147,30.033664",,市民大道621号时代潮城5层,上虞区,绍兴市,B023F0P6IZ,[],上虞横店电影城,浙江省,0575-82796111;0575-82796177;0575-82796166,体育休闲服务;影剧院;电影院,80601,120.874147,30.033664
597,"119.919221,32.461198",,梅兰东路299号华钜活力城3层,海陵区,泰州市,B020B0O4ZX,[],大地影院(华钜活力城店),江苏省,0523-89989772;0523-89989771,体育休闲服务;影剧院;电影院,80601,119.919221,32.461198
598,"121.711433,39.096812",,北山路1416号,金州区,大连市,B019B0YOMV,[],金逸国际电影城(金州店),辽宁省,0411-39309093;0411-39309098;0411-39309099,体育休闲服务;影剧院;电影院,80601,121.711433,39.096812
599,"117.120656,39.199544",,辰昌路1901号乐天玛特3层,北辰区,天津市,B00161187V,[],横店电影城(天津瑞景),天津市,022-58236222;022-58236233,体育休闲服务;影剧院;电影院,80601,117.120656,39.199544
600,"114.501835,38.020755",,平安南大街186,桥西区,石家庄市,B013701953,[],金棕榈石家庄影城(平安南大街店),河北省,0311-80890507;0311-86013641,体育休闲服务;影剧院;电影院,80601,114.501835,38.020755
601,"113.7745,23.039227",,东纵路111号威尼斯广场D区2-3层,东莞市,东莞市,B03017WK7F,[],横店电影城(东纵路店),广东省,0769-23321808;0769-23329320,体育休闲服务;影剧院;电影院,80601,113.7745,23.039227
602,"105.389093,31.20707",,101省道指南新区影视艺术中心,盐亭县,绵阳市,B03300PLK9,[],盐亭电影院(云溪镇店),四川省,0816-7121881,体育休闲服务;影剧院;电影院,80601,105.389093,31.20707
603,"118.508198,31.682516",,湖东路大华国际广场5幢3层,花山区,马鞍山市,B022B00N2V,[],大华时代电影大世界(大华国际广场店),安徽省,0555-8222888,体育休闲服务;影剧院;电影院,80601,118.508198,31.682516
604,"126.565586,43.848061",,吉林大街178号文化产业大厦4层,船营区,吉林市,B01B0026VH,[],吉林剧场国际影城(吉林大街店),吉林省,0432-66556001;0432-66556407,体育休闲服务;影剧院;电影院,80601,126.565586,43.848061
605,"106.517817,29.510777",,杨家坪步行街珠江路48号龙湖西城天街3层26号,九龙坡区,重庆市,B001783RWO,[],UME国际影城(九龙坡店),重庆市,023-68126060;023-68126066;4006782005,体育休闲服务;影剧院;电影院,80601,106.517817,29.510777
606,"118.048857,36.804871",,柳泉路45号,张店区,淄博市,B021502WLV,[],淄博齐纳国际影城(柳泉路店),山东省,0533-2282826;0533-2188180,体育休闲服务;影剧院;电影院,80601,118.048857,36.804871
607,"121.484683,30.914025",,百齐路288号百联南桥购物中心2期4层,奉贤区,上海市,B00156DG9K,[],海上国际影城(百联南桥店),上海市,021-37569530;021-37569538;021-37569537,体育休闲服务;影剧院;电影院,80601,121.484683,30.914025
608,"117.673290,24.499546",,建元路悦港花园11-15幢商场S102,芗城区,漳州市,B0FFI7VM98,[],铁树影城(建元店),福建省,0596-2111842;0596-2882788,体育休闲服务;影剧院;电影院,80601,117.67329,24.499546
609,"119.273257,28.582845",,园丁路1号凯新广场1层,遂昌县,丽水市,B0FFFYC110,[],凯新时代影城,浙江省,0578-8529191,体育休闲服务;影剧院;电影院,80601,119.273257,28.582845
610,"116.113260,39.935702",,双峪路35号b座熙旺中心大厦6层,门头沟区,北京市,B0FFFXK8ET,[],熙旺国际影城,北京市,010-69862078,体育休闲服务;影剧院;电影院,80601,116.11326,39.935702
611,"109.968440,27.548505",,人民南路85号潮流特区2-3层,鹤城区,怀化市,B02E901026,[],人民影剧院(怀化市楚湘人民电影城),湖南省,0745-2220055,体育休闲服务;影剧院;电影院,80601,109.96844,27.548505
612,"114.210882,36.419500",,滏临南大街31号峰峰文化大厦4层,峰峰矿区,邯郸市,B01360OFIS,[],峰峰电影院(峰峰文化大厦店),河北省,0310-5115511;0310-5115513,体育休闲服务;影剧院;电影院,80601,114.210882,36.4195
613,"113.100485,29.354952",,求索西路118号恒大名都3层,岳阳楼区,岳阳市,B02DA0PUQK,[],恒大影城(求索西路店),湖南省,0730-8377788,体育休闲服务;影剧院;电影院,80601,113.100485,29.354952
614,"117.28144,39.068538",,大沽南路1118号天邦购物乐园4层,河西区,天津市,B001611CR2,[],左岸影城(天邦购物乐园),天津市,022-28155888;15502288400,体育休闲服务;影剧院;电影院,80601,117.28144,39.068538
615,"111.202559,34.778637",,陕源路4号三门峡影院购物广场2层,湖滨区,三门峡市,B018E002UZ,[],黄河影城,河南省,0398-2822763,体育休闲服务;影剧院;电影院,80601,111.202559,34.778637
616,"108.321376,22.814073",,朝阳路9号步行街广场6层L6-015-024,兴宁区,南宁市,B0FFIGYK1N,[],中影国际环球影城(百盛步行街广场店),广西壮族自治区,0771-2872618,体育休闲服务;影剧院;电影院,80601,108.321376,22.814073
617,"118.829367,32.020291",,月牙湖街道苜蓿园大街石门坎165号,秦淮区,南京市,B0FFGX7MXS,[],华夏国际影城(苜蓿园店),江苏省,025-84275077,体育休闲服务;影剧院;电影院,80601,118.829367,32.020291
618,"120.122724,30.288182",,文一路298号物美大卖场6层,西湖区,杭州市,B023B02NEO,[],翠苑电影大世界(文一店),浙江省,0571-88922960,体育休闲服务;影剧院;电影院,80601,120.122724,30.288182
619,"121.444139,31.280342",,万荣路777号大宁音乐广场A栋,静安区,上海市,B0FFGYQKHI,[],海上明珠影城(大宁店),上海市,021-61670520,体育休闲服务;影剧院;电影院,80601,121.444139,31.280342
620,"118.080049,24.456089",,思明北路18号3层,思明区,厦门市,B0FFGHT693,[],咖啡私人影院(中山路店),福建省,0592-2520982,体育休闲服务;影剧院;电影院,80601,118.080049,24.456089
621,"113.650924,34.735829",,陇海中路100号鑫苑・鑫都汇3层10A,二七区,郑州市,B0FFGEXHTW,[],星空影城(陇海路店),河南省,13716916689,体育休闲服务;影剧院;电影院,80601,113.650924,34.735829
622,"114.065241,22.910961",,西城路11号天一城购物中心5层,东莞市,东莞市,B03018II54,[],橙天嘉禾影城(天一城店),广东省,0769-87798822;4000080888,体育休闲服务;影剧院;电影院,80601,114.065241,22.910961
623,"115.645920,22.947306",,东海镇北堤路4号金华来购物广场2层,陆丰市,汕尾市,B0FFGNZGXV,[],中影・奥斯卡国际影城,广东省,[],体育休闲服务;影剧院;电影院,80601,115.64592,22.947306
624,"119.142054,33.529609",,翔宇大道588号金地商业广场1号楼F3层-F4层,淮安区,淮安市,B0FFFDNCUM,[],淮安耀莱成龙影城(翔宇南道店),江苏省,0517-85198118,体育休闲服务;影剧院;电影院,80601,119.142054,33.529609
625,"120.876645,30.032269",,市民大道688号上百万和城4层,上虞区,绍兴市,B023F02PG4,[],大地影院(上虞万和城店),浙江省,0575-81282821;0575-81282822,体育休闲服务;影剧院;电影院,80601,120.876645,30.032269
626,"108.720626,34.316139",,世纪大道XY沣渭世纪中心E区2层2-02号,秦都区,咸阳市,B0FFGHKMEX,[],时代华纳国际影城(沣渭店),陕西省,029-33685522,体育休闲服务;影剧院;电影院,80601,108.720626,34.316139
627,"119.903940,28.456300",,学院路36号西城广场6-7层,莲都区,丽水市,B024215FBB,[],时代电影大世界(西城广场店),浙江省,0578-2161888;0578-2379666,体育休闲服务;影剧院;电影院,80601,119.90394,28.4563
628,"118.054047,24.563141",,杏林街道建南路3号文化宫1层,集美区,厦门市,B025004EGX,[],世纪嘉华电影(建南路店),福建省,0592-6077556;0592-6079577,体育休闲服务;影剧院;电影院,80601,118.054047,24.563141
629,"104.095039,30.480619",,麓山大道二段20号附1号2层1号,双流区,成都市,B0FFFDMH9K,[],橙天嘉禾影城(成都麓镇店),四川省,028-85779039,体育休闲服务;影剧院;电影院,80601,104.095039,30.480619
630,"116.533387,39.802353",,科创五街38号北京城乡世纪广场L3层,大兴区,北京市,B0FFGMDXHN,[],中传国际影城(亦庄店),北京市,010-87227162;010-87227179,体育休闲服务;影剧院;电影院,80601,116.533387,39.802353
631,"113.327153,23.148595",,林和村A6栋4501室,天河区,广州市,B0FFFVBEMX,[],幕维私人影院,广东省,18022368948;13342867780,体育休闲服务;影剧院;电影院,80601,113.327153,23.148595
632,"114.422171,23.082970",,东湖九区隆生广场4层,惠城区,惠州市,B0FFHE5L3B,[],壹洲国际影城(隆生广场店),广东省,0752-5312600,体育休闲服务;影剧院;电影院,80601,114.422171,23.08297
633,"119.290460,26.089549",,通湖路22号,鼓楼区,福州市,B024F05RQ2,[],西湖影剧院,福建省,0591-87671333;0591-83319773,体育休闲服务;影剧院;电影院,80601,119.29046,26.089549
634,"117.772918,40.952048",,隆基泰和国际广场宜佳旺7层,双滦区,承德市,B0FFF4N18B,[],大地影院(隆基泰和广场店),河北省,0314-4226039;0314-4226220,体育休闲服务;影剧院;电影院,80601,117.772918,40.952048
635,"116.492051,39.962238",,酒仙桥红霞路13号,朝阳区,北京市,B000A7PCNW,[],红霞影剧院,北京市,[],体育休闲服务;影剧院;剧场,80603,116.492051,39.962238
636,"117.680222,39.007008",,新港路宝龙城市广场4层,滨海新区,天津市,B0FFFQT049,[],中影时代凤凰国际影城,天津市,022-25622007;13612135955,体育休闲服务;影剧院;电影院,80601,117.680222,39.007008
637,"114.092592,22.547320",,燕南路95号深圳市文化馆,福田区,深圳市,B02F37ULFI,[],深圳市文化馆影剧院,广东省,0755-83351046;0755-83351043,体育休闲服务;影剧院;影剧院相关,80600,114.092592,22.54732
638,"118.191787,24.476645",,环岛东路1803号君尚广场5层50001号,思明区,厦门市,B0FFI6BG2D,[],橙天嘉禾影城,福建省,0592-5826955,体育休闲服务;影剧院;电影院,80601,118.191787,24.476645
639,"128.904850,47.727256",,通河路51号盟科购物中心广场5层,伊春区,伊春市,B0FFF6ZOBX,[],大地影院(大世界商城店),黑龙江省,0458-8898678;0458-8898789,体育休闲服务;影剧院;电影院,80601,128.90485,47.727256
640,"113.447232,23.101501",,港湾路325号(近恒兴美食),黄埔区,广州市,B00140UG7L,[],港湾影剧院,广东省,020-82152214,体育休闲服务;影剧院;电影院,80601,113.447232,23.101501
641,"120.107622,30.300808",,萍水街458号2楼(城西银泰北3号门正对面橡树园正门左边),拱墅区,杭州市,B0FFGI192R,[],米粒私人影院(城西银泰店),浙江省,18867545838,体育休闲服务;影剧院;电影院,80601,120.107622,30.300808
642,"104.771606,29.319873",,华商国际城5号楼3层,自流井区,自贡市,B0FFG79JA9,[],星维国际电影城(南湖店),四川省,0813-6981333,体育休闲服务;影剧院;电影院,80601,104.771606,29.319873
643,"104.414729,31.134246",,玉泉路屏山街199号(弘顺广场2层),旌阳区,德阳市,B0FFGL6YRX,[],华纳国际影城,四川省,0838-2506860,体育休闲服务;影剧院;电影院,80601,104.414729,31.134246
644,"110.278752,25.253153",,环城西一路117号联达商业广场4号楼2层,象山区,桂林市,B030509APE,[],梦露影城(环城西一路店),广西壮族自治区,0773-3854444;0773-3555678;0773-3815030,体育休闲服务;影剧院;电影院,80601,110.278752,25.253153
645,"125.146691,42.905614",,育宁路2号博纳广场3层,龙山区,辽源市,B0FFF36R2J,[],辽源长影国际电影城(博纳广场店),吉林省,0437-3206666,体育休闲服务;影剧院;电影院,80601,125.146691,42.905614
646,"120.277427,31.469724",,蠡湖大道2001号,滨湖区,无锡市,B01FE18U33,[],保利国际影城(电影产业园店),江苏省,0510-85175868;0510-85175898;0510-85171180,体育休闲服务;影剧院;电影院,80601,120.277427,31.469724
647,"113.466888,23.168403",,科丰路87广州萝岗万达广场4层,黄埔区,广州市,B0FFH98CDC,[],万达影城(萝岗万达广场店),广东省,020-29097668,体育休闲服务;影剧院;电影院,80601,113.466888,23.168403
648,"116.346065,25.835087",,西外街卧龙财富广场B区4层,长汀县,龙岩市,B0FFF3GVU7,[],大地影院,福建省,0597-6633133;0597-6633233,体育休闲服务;影剧院;电影院,80601,116.346065,25.835087
649,"110.001289,39.812306",,鄂尔多斯街9号,东胜区,鄂尔多斯市,B01DD0067U,[],鄂尔多斯影剧院,内蒙古自治区,0477-8324544,体育休闲服务;影剧院;电影院,80601,110.001289,39.812306
650,"113.870917,35.261672",,胜利路与南环交汇处恒大商业广场3层,卫滨区,新乡市,B0FFGH7IR8,[],恒大嘉凯影城(雅苑店),河南省,0373-3088588,体育休闲服务;影剧院;电影院,80601,113.870917,35.261672
651,"107.150115,34.375657",,中山路与大通路交叉口东北50米,金台区,宝鸡市,B039501A96,[],人民电影院,陕西省,0917-3516607,体育休闲服务;影剧院;电影院,80601,107.150115,34.375657
652,"107.055611,33.074661",,莲湖东路与朝阳路交汇处盛隆家居广场6层,汉台区,汉中市,B0FFG7X48M,[],中影星美国际电影院,陕西省,0916-2696900;0916-2696901,体育休闲服务;影剧院;电影院,80601,107.055611,33.074661
653,"109.207242,19.731203",,港湾街,儋州市,儋州市,B03250029M,[],洋浦港影剧院,海南省,0898-36982407,体育休闲服务;影剧院;剧场,80603,109.207242,19.731203
654,"81.319148,43.921943",,解放西路79号万力时尚5层,伊宁市,伊犁哈萨克自治州,B0FFH71N52,[],银河电影公园(万力时尚店),新疆维吾尔自治区,0999-8030808;18009998365,体育休闲服务;影剧院;电影院,80601,81.319148,43.921943
655,"116.556648,33.241113",,政通路与嵇康路交叉口玖隆国际购物中心4层(玖隆国际大酒店对面),蒙城县,亳州市,B0FFF5PZES,[],华夏国际影城(蒙城店),安徽省,0558-7800688,体育休闲服务;影剧院;电影院,80601,116.556648,33.241113
656,"121.13348,30.183079",,兴业北路528号,慈溪市,宁波市,B023E0Y8QA,[],奥克雷影城(兴业北路店),浙江省,0574-23866777;0574-23889898,体育休闲服务;影剧院;电影院,80601,121.13348,30.183079
657,"112.845630,35.500585",,新市西街795号,城区,晋城市,B01640MJ9O,[],晋城影剧院,山西省,0356-3033527,体育休闲服务;影剧院;电影院,80601,112.84563,35.500585
658,"119.595761,39.939364",,康乐街25号人民广场,海港区,秦皇岛市,B014F06BO0,[],银谷影城(康乐街店),河北省,0335-3232222;0335-3252002;0335-3252779,体育休闲服务;影剧院;电影院,80601,119.595761,39.939364
659,"112.136923,32.041582",,长虹路泛悦购物中心4层,樊城区,襄阳市,B0FFIS2ED5,[],泛悦摩尔国际电影城,湖北省,0710-3126868,体育休闲服务;影剧院;电影院,80601,112.136923,32.041582
660,"114.333565,30.520761",,宝通寺路38号瑞景广场3层,武昌区,武汉市,B0FFGEQBIF,[],百瑞景天河国际影城,湖北省,027-88167777;027-87655777,体育休闲服务;影剧院;电影院,80601,114.333565,30.520761
661,"104.093417,30.661458",,猛追湾街94号339欢乐颂3层,成华区,成都市,B0FFGB0IB4,[],成都339电影城,四川省,028-83525339,体育休闲服务;影剧院;电影院,80601,104.093417,30.661458
662,"126.610639,45.704907",,中兴大道99号哈西家纺城5层,南岗区,哈尔滨市,B0FFFWWIQX,[],嘉星影城(学府店),黑龙江省,0451-86129886,体育休闲服务;影剧院;电影院,80601,126.610639,45.704907
663,"119.917567,32.471404",,济川东路232号万达广场3层,海陵区,泰州市,B0FFF3J5UT,[],万达影城(万达广场店),江苏省,0523-80639690;0523-80639664;4000806060,体育休闲服务;影剧院;电影院,80601,119.917567,32.471404
664,"108.377086,30.813613",,孙家书房路71号,万州区,重庆市,B00178V8XP,[],三峡影都,重庆市,023-58686007,体育休闲服务;影剧院;电影院,80601,108.377086,30.813613
665,"109.433039,24.325444",,阳光100城市广场26栋乌托邦音乐城6层,城中区,柳州市,B0FFIS5VKE,[],欧秀国际影城(乌托邦音乐城店),广西壮族自治区,0772-8801116;0772-8801118,体育休闲服务;影剧院;电影院,80601,109.433039,24.325444
666,"117.166988,35.079844",,善国南路3号(京泰购物广场三楼),滕州市,枣庄市,B0FFGI0DEZ,[],中影乐达国际影城(滕州店),山东省,0632-5122222,体育休闲服务;影剧院;电影院,80601,117.166988,35.079844
667,"122.428386,37.163785",,建业街2号(近振华量贩超市),荣成市,威海市,B027714Z6G,[],联通星达荣成电影城(建业街店),山东省,0631-7588999,体育休闲服务;影剧院;电影院,80601,122.428386,37.163785
668,"120.686547,30.532638",,海昌路1号龙城商业广场4层,海宁市,嘉兴市,B023D03UJ0,[],金像电影大世界(龙城商业广场店),浙江省,0573-87792618;0573-87792222;0573-87792617,体育休闲服务;影剧院;电影院,80601,120.686547,30.532638
669,"116.997826,35.588922",,静轩东路游客集散中心1层,曲阜市,济宁市,B02190XQ5A,[],新世纪电影城(游客集散中心店),山东省,0537-4647888;0537-4647899,体育休闲服务;影剧院;电影院,80601,116.997826,35.588922
670,"120.846072,31.033529",,黎里镇城司路1199号永信汾湖商业广场2栋3层,吴江区,苏州市,B02001GT2M,[],嘉宝数码影院(永信广场店),江苏省,0512-63292088,体育休闲服务;影剧院;电影院,80601,120.846072,31.033529
671,"121.716961,39.103226",,斯大林路677号安盛购物广场F6层,金州区,大连市,B019B0B9XN,[],大连华臣影城(金州店),辽宁省,0411-39311711;0411-39311811,体育休闲服务;影剧院;电影院,80601,121.716961,39.103226
672,"121.347022,30.733124",,卫清西路168弄99号百联金山购物中心3层,金山区,上海市,B00156DW3S,[],星美国际影城(金山店),上海市,021-67229998,体育休闲服务;影剧院;电影院,80601,121.347022,30.733124
673,"117.114424,36.189269",,[],泰山区,泰安市,B0FFF8MT3X,[],先锋电影城(银座商城店),山东省,0538-8226607;0538-8226617,体育休闲服务;影剧院;电影院,80601,117.114424,36.189269
674,"112.890832,23.156221",,文锋东路1号,三水区,佛山市,B02F505H8U,[],西南影剧院(文锋东路店),广东省,0757-87730031;0757-87733566,体育休闲服务;影剧院;电影院,80601,112.890832,23.156221
675,"119.384902,25.718390",,玉屏街道一拂路1号,福清市,福州市,B024F01121,[],华侨影剧院,福建省,0591-86076861;0591-85222474,体育休闲服务;影剧院;电影院,80601,119.384902,25.71839
676,"113.363381,22.93462",,光明南路7号文化中心3-4楼,番禺区,广州市,B00141J5N4,[],桥文化中心电影院(光明南路店),广东省,020-84818172;020-84818117,体育休闲服务;影剧院;电影院,80601,113.363381,22.93462
677,"117.122499,40.140822",,府前街3号,平谷区,北京市,B000A840S0,[],平谷影剧院,北京市,010-69962434,体育休闲服务;影剧院;电影院,80601,117.122499,40.140822
678,"120.41784,36.307605",,青威路617号青特上豪广场3层,城阳区,青岛市,B02140VNN7,[],青岛完美世界影城(青特店),山东省,0532-66731616;0532-66731687,体育休闲服务;影剧院;电影院,80601,120.41784,36.307605
679,"113.151893,27.83927",,建设中路7号千金文化广场4层,芦淞区,株洲市,B02DD0Q3ST,[],千金电影城(建设中路店),湖南省,0731-28271977;0731-28271989;0731-28271979,体育休闲服务;影剧院;电影院,80601,113.151893,27.83927
680,"113.110998,23.039796",,高基街209号华强广场三楼影院,禅城区,佛山市,B0FFHHRWQ3,[],中影国线影院(佛山店),广东省,0757-82615260;0757-82035807,体育休闲服务;影剧院;电影院,80601,113.110998,23.039796
681,"113.284561,23.215445",,尚景街1号白云尚城文化活动中心,白云区,广州市,B0FFG6HZXL,[],IDC国际影城(白云尚城店),广东省,020-28085922,体育休闲服务;影剧院;电影院,80601,113.284561,23.215445
682,"116.846364,38.31377",,新华西路23号(新华路地区医院对面),运河区,沧州市,B013D0161X,[],沧州影剧院,河北省,0317-3172768;0317-2127398,体育休闲服务;影剧院;电影院,80601,116.846364,38.31377
683,"110.022961,21.457036",,安铺镇东大街东大一路32号,廉江市,湛江市,B0FFGO5GUM,[],富顺影城,广东省,0759-6830998,体育休闲服务;影剧院;电影院,80601,110.022961,21.457036
684,"113.628865,34.703656",,百姓广场A馆3层,二七区,郑州市,B0FFGIITE0,[],奥斯卡影城,河南省,0371-53308880;0371-56260593,体育休闲服务;影剧院;电影院,80601,113.628865,34.703656
685,"109.490382,18.285801",,凤凰路155号红树林度假世界国际会议中心2层、2M层,天涯区,三亚市,B0FFG90147,[],红树林国际影城,海南省,0898-31090199;0898-88955555,体育休闲服务;影剧院;电影院,80601,109.490382,18.285801
686,"114.940015,25.828701",,兴国路9号万盛购物中心3层,章贡区,赣州市,B031D0QAU3,[],银河欢乐影城(兴国路店),江西省,0797-8088903;0797-8088908,体育休闲服务;影剧院;电影院,80601,114.940015,25.828701
687,"121.259492,28.634773",,引泉西路嘉丽阳光苑1号楼2-3层,黄岩区,台州市,B02400SGMV,[],自力电影大世界(引泉路店),浙江省,0576-84206666,体育休闲服务;影剧院;电影院,80601,121.259492,28.634773
688,"121.244362,30.170249",,新都汇2号楼79号2-3层,慈溪市,宁波市,B023E05RUR,[],慈溪时代电影大世界(新都汇店),浙江省,0574-23668691;0574-23662888,体育休闲服务;影剧院;电影院,80601,121.244362,30.170249
689,"120.644898,31.160575",,中心北巷53号,吴江区,苏州市,B020006X5U,[],红旗影剧院(松陵镇店),江苏省,0512-63423439,体育休闲服务;影剧院;电影院,80601,120.644898,31.160575
690,"121.426800,31.416925",,龙镇路96号(四元路)上海市宝山区月浦文化馆,宝山区,上海市,B001573WRP,[],影剧院,上海市,021-56931717;021-56930443,体育休闲服务;影剧院;电影院|体育休闲服务;影剧院;剧场,080601|080603,121.4268,31.416925
691,"120.108779,30.299614",,丰潭路380号银泰城(城西店)F4层-F5层,拱墅区,杭州市,B023B1DLWR,[],传奇奢华影城(银泰城店),浙江省,0571-88332929;0571-88222929,体育休闲服务;影剧院;电影院,80601,120.108779,30.299614
692,"115.710201,39.393625",,府前街139号,涞水县,保定市,B0138025B8,[],涞水影剧院,河北省,18632286939,体育休闲服务;影剧院;电影院,80601,115.710201,39.393625
693,"119.296944,26.082597",,三坊七巷南后街73号(博览苑正对面),鼓楼区,福州市,B0FFG8PXI5,[],中瑞南华影城(福州三坊七巷店),福建省,18106052385,体育休闲服务;影剧院;电影院,80601,119.296944,26.082597
694,"119.305906,26.091544",,五四路128号王府井百货6F层,鼓楼区,福州市,B024F0VAMU,[],横店影城(王府井店),福建省,0591-38163777;0591-38051618,体育休闲服务;影剧院;电影院,80601,119.305906,26.091544
695,"108.713323,34.336842",,人民中路新华大厦5层,秦都区,咸阳市,B0FFG7HIDN,[],文投国际影城(新华店),陕西省,029-33161999;029-33231095,体育休闲服务;影剧院;电影院,80601,108.713323,34.336842
696,"111.516224,36.086505",,解放西路57号路北,尧都区,临汾市,B016500389,[],临汾影剧院,山西省,0357-2031319,体育休闲服务;影剧院;影剧院相关,80600,111.516224,36.086505
697,"123.400954,41.921036",,道义南大街33号积家购物中心F5层,沈北新区,沈阳市,B001816S04,[],积家国际影城(积家购物中心店),辽宁省,024-88799800,体育休闲服务;影剧院;电影院,80601,123.400954,41.921036
698,"121.415621,31.187941",,吴中路52号宝鼎古北广场7层,徐汇区,上海市,B00156GTZN,[],巨影国际影城(吴中路店),上海市,021-54488150;021-64311211,体育休闲服务;影剧院;电影院,80601,121.415621,31.187941
699,"121.218075,31.037952",,新松江路925号开元地中海商业广场4F层4042,松江区,上海市,B00155CYWJ,[],地中海影城,上海市,021-37793999,体育休闲服务;影剧院;电影院,80601,121.218075,31.037952
700,"119.890047,29.452512",,人民东路28号福泰隆广场4层,浦江县,金华市,B024315G8J,[],金像国际影城(福泰隆广场店),浙江省,0579-84567888,体育休闲服务;影剧院;电影院,80601,119.890047,29.452512
701,"106.513068,29.60108",,新南路36号卜蜂莲花3层,渝北区,重庆市,B00178UMWX,[],华昕影院,重庆市,023-67960702;023-67960701,体育休闲服务;影剧院;电影院,80601,106.513068,29.60108
702,"121.437627,31.238976",,长寿路401号亚新生活广场4层,普陀区,上海市,B00156EZUG,[],星光影城(亚新生活广场店),上海市,021-62881357;13318709836,体育休闲服务;影剧院;电影院,80601,121.437627,31.238976
703,"116.109338,24.299377",,江北秋云桥与程江桥河堤中段,梅县区,梅州市,B02F10QNPO,[],开心电影城(金秋街店),广东省,0753-2222938,体育休闲服务;影剧院;电影院,80601,116.109338,24.299377
704,"111.318449,23.471582",,大南路62号锦泰商业广场7层,万秀区,梧州市,B03060MA5I,[],大地影院(锦泰商业广场店),广西壮族自治区,0774-2826998;0774-2823500,体育休闲服务;影剧院;电影院,80601,111.318449,23.471582
705,"119.959345,30.052456",,龙浦街196号,富阳区,杭州市,B023B0BI0Q,[],富阳时代电影大世界(龙山路店),浙江省,0571-61711166,体育休闲服务;影剧院;电影院,80601,119.959345,30.052456
706,"114.117883,22.600004",,吉华路69号布吉中心广场4层,龙岗区,深圳市,B0FFFEC60M,[],中影易禾影城(布吉广场店),广东省,[],体育休闲服务;影剧院;电影院,80601,114.117883,22.600004
707,"118.080389,24.455841",,思明北路2-14号,思明区,厦门市,B025000C12,[],厦门市思明电影院(思明北路店),福建省,0592-2024462;0592-2132873;0592-2023412,体育休闲服务;影剧院;电影院,80601,118.080389,24.455841
708,"118.711663,32.157187",,丽景路1号莱福城B栋3层,浦口区,南京市,B0FFGHC2WR,[],华彩巨幕影城,江苏省,025-58226677,体育休闲服务;影剧院;电影院,80601,118.711663,32.157187
709,"108.988550,34.202383",,曲江池东路999号金地广场4F层,雁塔区,西安市,B0FFFQ0XXE,[],奥斯卡金地国际影城(金地广场店),陕西省,029-84561999;4008999527,体育休闲服务;影剧院;电影院,80601,108.98855,34.202383
710,"106.305970,29.583526",,大学城中路旭阳台北城4层,沙坪坝区,重庆市,B0FFFQ06FX,[],越界影城IMAX(大学城店),重庆市,[],体育休闲服务;影剧院;电影院,80601,106.30597,29.583526
711,"118.699547,32.112572",,浦珠北路126号澳林购物广场二期5层,浦口区,南京市,B0FFFEZAED,[],中传国际影城(澳林广场店),江苏省,025-58103577;025-58163577,体育休闲服务;影剧院;电影院,80601,118.699547,32.112572
712,"121.461389,31.217954",,淮海中路870号,黄浦区,上海市,B001526481,[],国泰电影院(淮海中路店),上海市,021-54042095;021-54041122;021-54040415,体育休闲服务;影剧院;电影院,80601,121.461389,31.217954
713,"103.844213,36.051894",,东方红广场1号国芳百货8层,城关区,兰州市,B03A30XTS9,[],天亿国际影城(国芳店),甘肃省,0931-8726102;0931-8726101,体育休闲服务;影剧院;电影院,80601,103.844213,36.051894
714,"114.305272,30.651568",,后湖大道111号汉口城市广场购物中心F3层,江岸区,武汉市,B0FFF9U0P9,[],摩尔国际电影城(汉口城市广场购物中心),湖北省,027-82855588,体育休闲服务;影剧院;电影院,80601,114.305272,30.651568
715,"115.401559,31.804229",,崇福大道西亚丽宝6层,商城县,信阳市,B0FFGL0URM,[],西亚影城(商城店),河南省,0376-7355666,体育休闲服务;影剧院;电影院,80601,115.401559,31.804229
716,"117.672532,24.51032",,南昌路49号印象汇4层,芗城区,漳州市,B02540P2ZK,[],大地影院(凯德广场店),福建省,0596-2969517;0596-2969537;0596-2969527,体育休闲服务;影剧院;电影院,80601,117.672532,24.51032
717,"111.364909,35.613147",,新田路中段庆丰新天地6层,侯马市,临汾市,B01650WQBQ,[],新思维九州影城(庆丰新天地店),山西省,0357-4230388,体育休闲服务;影剧院;电影院,80601,111.364909,35.613147
718,"116.424231,39.978385",,惠新东街19号北京惠侨饭店4层,朝阳区,北京市,B0FFF0EJDH,[],云乐迪电影吧(惠桥店),北京市,010-64964998,体育休闲服务;影剧院;电影院,80601,116.424231,39.978385
719,"119.031365,33.583151",,淮海南路105联盛广场3层,清江浦区,淮安市,B02050SVNP,[],中影国际影城(联盛店),江苏省,0517-83831199,体育休闲服务;影剧院;电影院,80601,119.031365,33.583151
720,"104.159873,30.813871",,电子路海乐荟4层,新都区,成都市,B0FFGDQF2K,[],中影飞尚国际影城(新都店),四川省,028-62519919;028-62511688,体育休闲服务;影剧院;电影院,80601,104.159873,30.813871
721,"114.126312,22.641287",,南湾街道布澜路31号李朗国际珠宝园C1栋3层,龙岗区,深圳市,B02F38W4ED,[],深圳聚星国际影城(李朗店),广东省,0755-28313188;0755-89374060,体育休闲服务;影剧院;电影院,80601,114.126312,22.641287
722,"121.560213,37.390867",,武五路318号太平洋广场3层,牟平区,烟台市,B02170TQV4,[],成龙影城(烟台牟平店),山东省,0535-4705300;0535-4705301,体育休闲服务;影剧院;电影院,80601,121.560213,37.390867
723,"114.419365,23.116358",,惠州大道11号佳兆业广场4层,惠城区,惠州市,B0FFH9QBE0,[],佳兆业国际影城(惠州店),广东省,0752-2828285;0752-2828287,体育休闲服务;影剧院;电影院,80601,114.419365,23.116358
724,"120.54395,30.63271",,复兴北路368号复兴文化广场5层,桐乡市,嘉兴市,B023D03RWW,[],复兴影城(复兴北路店),浙江省,0573-88028581,体育休闲服务;影剧院;电影院,80601,120.54395,30.63271
725,"116.970412,35.404974",,太平西路1305号百货大楼北店4层,邹城市,济宁市,B02190B1D2,[],新世纪电影院(百货大楼店),山东省,0537-5110808,体育休闲服务;影剧院;电影院,80601,116.970412,35.404974
726,"125.151322,42.892638",,福镇大路2号(显顺琵琶学校院内),龙山区,辽源市,B01B500GMB,[],新天地国际影城(福镇大路),吉林省,0437-6110555;0437-6666603;0437-6666605,体育休闲服务;影剧院;电影院,80601,125.151322,42.892638
727,"119.57336,39.947362",,港城大街西段80号秦皇岛文化广场1层,海港区,秦皇岛市,B014F06PMD,[],金棕榈国际电影城(文化广场店),河北省,0335-3662111;0335-3662038,体育休闲服务;影剧院;电影院,80601,119.57336,39.947362
728,"118.643981,24.740152",,宝塘路职工活动中心(体育馆对面),石狮市,泉州市,B025303A4U,[],石狮集发影城(体育馆店),福建省,0595-88709919,体育休闲服务;影剧院;电影院,80601,118.643981,24.740152
729,"113.029674,28.138135",,香樟路819号通程商业广场喜乐汇4楼,雨花区,长沙市,B0FFIJLF97,[],中影星美国际影城(喜乐汇店),湖南省,0731-85791118;0731-85795558,体育休闲服务;影剧院;电影院,80601,113.029674,28.138135
730,"120.178189,30.258223",,庆春路60号东清大厦E幢2层-4层,下城区,杭州市,B023B02O3A,[],庆春电影大世界(庆春路店),浙江省,0571-87219585,体育休闲服务;影剧院;电影院,80601,120.178189,30.258223
731,"113.367847,23.193997",,龙洞翠竹一巷1号2层,天河区,广州市,B0FFHBBPQJ,[],由你私人影音体验,广东省,13246862754,体育休闲服务;影剧院;电影院,80601,113.367847,23.193997
732,"113.347354,26.99935",,步行街苏宁电器6层,攸县,株洲市,B0FFF60ULX,[],华谊时尚影城(苏宁电器店),湖南省,[],体育休闲服务;影剧院;电影院,80601,113.347354,26.99935
733,"116.591055,35.408179",,共青团路17号运河城商业摩尔7层,任城区,济宁市,B02190AYFE,[],上河影城(摩尔店),山东省,0537-3612222;0537-3610025,体育休闲服务;影剧院;电影院,80601,116.591055,35.408179
734,"119.76832,49.209851",,胜利大街5号龙凤新天地4层,海拉尔区,呼伦贝尔市,B01D60N8VA,[],新东北影城(海拉尔店),内蒙古自治区,0470-8313679;0470-8550777,体育休闲服务;影剧院;电影院,80601,119.76832,49.209851
735,"126.604021,45.766953",,上海沙龙步行街爱湖路18号,道里区,哈尔滨市,B0FFGAQ5V9,[],七彩国际影城(爱建店),黑龙江省,0451-84281678,体育休闲服务;影剧院;电影院,80601,126.604021,45.766953
736,"119.182340,32.266637",,国庆路中源商贸城9号楼3层,仪征市,扬州市,B02021563F,[],国信影城(中源商贸店),江苏省,0514-89389666;0514-89389662,体育休闲服务;影剧院;电影院,80601,119.18234,32.266637
737,"114.340762,30.586579",,友谊大道396号福客茂F5层,武昌区,武汉市,B001B1H0IT,[],银兴菲林国际影城(福客茂店),湖北省,027-86728989,体育休闲服务;影剧院;电影院,80601,114.340762,30.586579
738,"116.278300,32.333110",,东湖路169号,霍邱县,六安市,B0FFGIA1WS,[],华夏国际影城,安徽省,0564-6022788,体育休闲服务;影剧院;电影院,80601,116.2783,32.33311
739,"126.555273,45.738309",,群力第四大道1553号A2-30号,道里区,哈尔滨市,B0FFFTHD09,[],CGV星聚汇影城(群力店),黑龙江省,0451-51951068;0451-51955557,体育休闲服务;影剧院;电影院,80601,126.555273,45.738309
740,"118.119771,27.331513",,人民路45号1-4层,建阳区,南平市,B02570SKBO,[],万星国际影城(人民路店),福建省,0599-5631000;0599-5822198,体育休闲服务;影剧院;电影院,80601,118.119771,27.331513
741,"115.421769,25.954967",,滨江大道滨江・汇金广场5号楼3层,于都县,赣州市,B0FFGEK16G,[],中影嘉莱国际影城(于都店),江西省,0797-6336665;17779719192,体育休闲服务;影剧院;电影院,80601,115.421769,25.954967
742,"104.749489,31.777945",,中坝镇中坝剧场B1层,江油市,绵阳市,B0FFFX9GFJ,[],新时代电影城(江油店),四川省,0816-3833226,体育休闲服务;影剧院;电影院,80601,104.749489,31.777945
743,"110.419276,21.216067",,观海路183号荣基国际广场4层,霞山区,湛江市,B02F702071,[],荣基国际影城(观海路店),广东省,0759-2123511,体育休闲服务;影剧院;电影院,80601,110.419276,21.216067
744,"109.592884,34.955971",,红旗路中段8号联手商城5层,蒲城县,渭南市,B03910NS3C,[],威尼斯国际影城,陕西省,0913-7715888,体育休闲服务;影剧院;电影院,80601,109.592884,34.955971
745,"122.264286,40.677825",,勤俭里5号大明府2层(休闲一角对面),站前区,营口市,B01A10I5NI,[],港隆电影院(勤俭里店),辽宁省,0417-3846826,体育休闲服务;影剧院;电影院,80601,122.264286,40.677825
746,"114.356264,23.025045",,仲恺大道与和畅五路交汇处TPARK时尚公园F5层,惠城区,惠州市,B0FFFQ1I3F,[],金逸・华时尚国际电影城(惠州店),广东省,0752-2266111,体育休闲服务;影剧院;电影院,80601,114.356264,23.025045
747,"104.021191,30.646334",,二环路西一段逸都路6号同辉国际购物中心6层,武侯区,成都市,B001C09SL3,[],双楠电影城(同辉国际店),四川省,028-87033289;028-87029828,体育休闲服务;影剧院;电影院,80601,104.021191,30.646334
748,"113.036896,22.519745",,大新路50号星汇广场3层,新会区,江门市,B0FFG6HIKA,[],星河电影城(新会店),广东省,0750-6603000,体育休闲服务;影剧院;电影院,80601,113.036896,22.519745
749,"120.468709,36.104684",,秦岭路18号丽达购物中心1F层,崂山区,青岛市,B02140A3G4,[],华诚国际影城(秦岭路店),山东省,0532-89098200,体育休闲服务;影剧院;电影院,80601,120.468709,36.104684
750,"110.283544,21.603141",,廉江广场路2号御景城广场2层,廉江市,湛江市,B02F70OZZA,[],金逸永福影城,广东省,0759-8215888;0759-6615888,体育休闲服务;影剧院;电影院,80601,110.283544,21.603141
751,"120.904297,28.051885",,柳市镇育英北路83号,乐清市,温州市,B02410ZNRY,[],聚鑫国际影城(育英北路店),浙江省,0577-27776667,体育休闲服务;影剧院;电影院,80601,120.904297,28.051885
752,"114.106079,22.554692",,松园路鸿翔花园2期1层(家乐福后门),罗湖区,深圳市,B0FFGWLE0Y,[],嘉乐国际影城(鸿翔店),广东省,0755-22900020,体育休闲服务;影剧院;电影院,80601,114.106079,22.554692
753,"117.705711,39.029716",,开发区第三大街32号鸿泰・千佰汇商业广场F4层,滨海新区,天津市,B00160E012,[],鸿泰影城(千佰汇商业广场店),天津市,022-66295346;022-66295345;022-66295366,体育休闲服务;影剧院;电影院,80601,117.705711,39.029716
754,"113.935524,22.517001",,文心五路33号海岸城3层301号,南山区,深圳市,B02F37UEJ3,[],海岸影城(海岸城店),广东省,0755-86359166;0755-86129988,体育休闲服务;影剧院;电影院,80601,113.935524,22.517001
755,"114.249994,30.568891",,中山大道1号星汇维港购物中心A区4层,~口区,武汉市,B0FFGF45KP,[],银兴星汇维港影城(越秀・星汇云锦),湖北省,027-59003581;027-83868225,体育休闲服务;影剧院;电影院,80601,114.249994,30.568891
756,"113.914769,22.531694",,前海路3005号港湾丽都购物广场2层,南山区,深圳市,B0FFF6PPP7,[],华夏君盛影城(港湾丽都店),广东省,0755-29902555,体育休闲服务;影剧院;电影院,80601,113.914769,22.531694
757,"120.662088,28.011217",,纱帽河商城2层(原百嘉乐第一桥店),鹿城区,温州市,B0FFH6Z511,[],摩登光影影院,浙江省,0577-89998888,体育休闲服务;影剧院;电影院,80601,120.662088,28.011217
758,"115.987368,36.458016",,柳园北路99号人民广场最南头地下,东昌府区,聊城市,B027B0P4LS,[],新世纪影城(人民广场店),山东省,0635-2999118,体育休闲服务;影剧院;电影院,80601,115.987368,36.458016
759,"113.26676,23.125846",,中山五路68号五月花商业广场F6层,越秀区,广州市,B00140K336,[],五月花电影城(五月花商业广场店),广东省,020-83330836;020-83351988;020-83337366,体育休闲服务;影剧院;电影院,80601,113.26676,23.125846
760,"114.098415,22.539288",,深南中路1095新城市广场3F层3001-3004、4F层403-404、5F层501A,福田区,深圳市,B02F37UOAG,[],新南国影城(中信店),广东省,0755-25945588;0755-25943738;0755-25944588,体育休闲服务;影剧院;电影院,80601,114.098415,22.539288
761,"113.525011,23.085108",,黄埔东路2889号领好广场5层,黄埔区,广州市,B00141KAE6,[],大地影院(领好广场店),广东省,020-22197293;020-22197292,体育休闲服务;影剧院;电影院,80601,113.525011,23.085108
762,"106.759249,26.610789",,顺海路88号(保利温泉新城演艺中心内),乌当区,贵阳市,B0FFGZFUXL,[],星空(保利温泉巨幕影城),贵州省,15519500927,体育休闲服务;影剧院;电影院,80601,106.759249,26.610789
763,"114.520143,26.323898",,泉江镇东路大道61号伟业国际大酒店6层,遂川县,吉安市,B031C0Q07Z,[],星河国际影城(伟业国际店),江西省,0796-6319600;0796-6437777,体育休闲服务;影剧院;电影院,80601,114.520143,26.323898
764,"122.210716,29.990072",,体育路167号3层,定海区,舟山市,B0244652AH,[],大光明巨幕影城(体育路店),浙江省,0580-8235778;0580-8235775,体育休闲服务;影剧院;电影院,80601,122.210716,29.990072
765,"121.360688,29.113007",,海游街道西区大道西城广场4层,三门县,台州市,B02400V83C,[],扬戈时代影城(西城广场店),浙江省,0576-83330888,体育休闲服务;影剧院;电影院,80601,121.360688,29.113007
766,"116.698371,39.870987",,华远・好天地E座5号楼301,通州区,北京市,B0FFGE17YC,[],博纳国际影城(土桥店),北京市,010-61510188,体育休闲服务;影剧院;电影院,80601,116.698371,39.870987
767,"118.986763,37.126584",,海源街以北1号楼2层,寒亭区,潍坊市,B0FFF3M2K5,[],鼎盛国际影城,山东省,0536-5315577,体育休闲服务;影剧院;电影院,80601,118.986763,37.126584
768,"102.735698,25.094893",,霖雨路288邦利嘉年华4层,五华区,昆明市,B03670W9AX,[],嘉美影院(邦利嘉年华店),云南省,0871-65876677,体育休闲服务;影剧院;电影院,80601,102.735698,25.094893
769,"110.251604,21.384662",,遂城新中心市场3层,遂溪县,湛江市,B0FFIAUOSJ,[],金逸超凡巨幕影城,广东省,0759-7770202,体育休闲服务;影剧院;电影院,80601,110.251604,21.384662
770,"120.338009,31.593929",,广南路588号睦邻中心4层,梁溪区,无锡市,B01FE0IW7U,[],睦邻影城(睦邻中心店),江苏省,0510-82026566;0510-82026577,体育休闲服务;影剧院;电影院,80601,120.338009,31.593929
771,"121.478687,31.224497",,淮海中路99号大上海时代广场6层,黄浦区,上海市,B0015501ZV,[],万裕国际影城(淮海店),上海市,021-63910363;021-63910755;021-63910701,体育休闲服务;影剧院;电影院,80601,121.478687,31.224497
772,"126.699740,45.759163",,红旗大街339号红博中央公园1层、B2层,南岗区,哈尔滨市,B0FFGJNZ3F,[],CGV星聚汇影城(哈尔滨会展中心店),黑龙江省,0451-85998890;0451-51955557,体育休闲服务;影剧院;电影院,80601,126.69974,45.759163
773,"121.434706,28.681643",,江滨路703号,椒江区,台州市,B0FFGCRTNJ,[],黑鲸电影(江滨路店),浙江省,[],体育休闲服务;影剧院;电影院,80601,121.434706,28.681643
774,"123.804307,41.847317",,雷锋路乐购商城2层,望花区,抚顺市,B019D0NWBF,[],华谊国际影城(奥特来商业广场店),辽宁省,024-58171666;024-56680836,体育休闲服务;影剧院;电影院,80601,123.804307,41.847317
775,"116.769939,23.477064",,324国道线澄海展览中心,澄海区,汕头市,B0FFFSYQXV,[],启航国际影城(展览中心店),广东省,0754-86989888,体育休闲服务;影剧院;电影院,80601,116.769939,23.477064
776,"113.031015,25.795643",,人民中路1号2层,北湖区,郴州市,B02DF01O1Z,[],中影南方影城(人民中路店),湖南省,[],体育休闲服务;影剧院;电影院,80601,113.031015,25.795643
777,"116.50354,39.810563",,文化园东路6号亦庄创意生活广场3层,大兴区,北京市,B000A8UO9X,[],大料国际影城(亦庄创意生活广场店),北京市,010-67859009;010-67859010,体育休闲服务;影剧院;电影院,80601,116.50354,39.810563
778,"113.339289,23.125647",,黄埔大道西120号高志大厦4层,天河区,广州市,B0FFHAHPGF,[],中影南方WE影城(高志店),广东省,020-85208789,体育休闲服务;影剧院;电影院,80601,113.339289,23.125647
779,"119.076860,27.619877",,石龙街236号4层,庆元县,丽水市,B0FFG2IGPO,[],金球影城(庆元店),浙江省,0578-6118999,体育休闲服务;影剧院;电影院,80601,119.07686,27.619877
780,"114.057467,22.546841",,福中一路2016号,福田区,深圳市,B02F37WNL6,[],嘉之华中心影城(深圳音乐厅店),广东省,0755-82878333;0755-82876333,体育休闲服务;影剧院;电影院,80601,114.057467,22.546841
781,"114.205786,22.647089",,茂盛路1号志健时代广场4层,龙岗区,深圳市,B02F37WCFQ,[],金域世纪电影城(志健时代店),广东省,0755-28229362,体育休闲服务;影剧院;电影院,80601,114.205786,22.647089
782,"111.147350,37.577099",,临安路恒大华府综合楼2幢3-4层,离石区,吕梁市,B0FFFTRY0L,[],吕梁恒大华府影城(恒大华府店),山西省,0358-3326788,体育休闲服务;影剧院;电影院,80601,111.14735,37.577099
783,"113.147799,23.027632",,桂城天佑六路11号,南海区,佛山市,B02F501Y45,[],南海影剧院,广东省,0757-86281382;0757-86398684,体育休闲服务;影剧院;电影院,80601,113.147799,23.027632
784,"125.080673,45.514852",,新风路(君澜酒店对面),肇源县,大庆市,B01CB0NSB1,[],华誉影院(新风路店),黑龙江省,0459-8236555,体育休闲服务;影剧院;电影院,80601,125.080673,45.514852
785,"113.304218,23.030682",,新虹路渔人码头F3层,番禺区,广州市,B00141JV4M,[],丽江影城(渔人码头店),广东省,020-39986399;020-39986366,体育休闲服务;影剧院;电影院,80601,113.304218,23.030682
786,"114.520211,36.642608",,人和街179号融富中心B区恒富天地3层,丛台区,邯郸市,B01360NPTR,[],邯郸横店电影城,河北省,0310-5700555;0310-5516819,体育休闲服务;影剧院;电影院,80601,114.520211,36.642608
787,"106.545024,29.579382",,北城天街48号九街高屋东区5层,江北区,重庆市,B001792XL7,[],橙天嘉禾影城(重庆九街店),重庆市,023-88191086;023-88191010,体育休闲服务;影剧院;电影院,80601,106.545024,29.579382
788,"110.333354,22.703926",,二环西路19号,北流市,玉林市,B0FFFFQA7T,[],时代凤凰国际影城,广西壮族自治区,0775-6388833,体育休闲服务;影剧院;电影院,80601,110.333354,22.703926
789,"104.734256,31.773244",,新华中路279号,江油市,绵阳市,B033003ANW,[],飞天影城(新华中路店),四川省,0816-8181122;0816-8179333,体育休闲服务;影剧院;电影院,80601,104.734256,31.773244
790,"119.374860,32.384529",,京华城路168号京华城全生活广场3层,邗江区,扬州市,B02020JAZ7,[],喜满客国际影城(京华城店),江苏省,0514-85888588;0514-87885360,体育休闲服务;影剧院;电影院,80601,119.37486,32.384529
791,"108.996844,34.268985",,西北国际茶城4层,新城区,西安市,B0FFG4FHQI,[],首映国际影城(西安通化门店),陕西省,029-89539800,体育休闲服务;影剧院;电影院,80601,108.996844,34.268985
792,"106.265113,29.996736",,交通街兆甲海润天街10号楼3层(大润发斜对面),合川区,重庆市,B0FFFSRR6G,[],保利万和国际影城(合川店),重庆市,023-42818686,体育休闲服务;影剧院;电影院,80601,106.265113,29.996736
793,"114.409177,30.501521",,光谷街23号德国步行街8号楼3-5层,洪山区,武汉市,B0FFFFY31B,[],CGV星聚汇影城(光谷店),湖北省,027-87101656,体育休闲服务;影剧院;电影院,80601,114.409177,30.501521
794,"108.963125,34.206693",,大唐不夜城银泰城4层,雁塔区,西安市,B0FFF52XH5,[],耀莱成龙国际影城(西安曲江店),陕西省,029-89126611,体育休闲服务;影剧院;电影院,80601,108.963125,34.206693
795,"120.137489,30.325601",,小河路488号运河天地广场4栋,拱墅区,杭州市,B023B1467O,[],杭州比高电影城,浙江省,0571-28066699;4008151000,体育休闲服务;影剧院;电影院,80601,120.137489,30.325601
796,"116.33353,39.764731",,金星西路3号绿地缤纷城4层,大兴区,北京市,B000A8XL1T,[],保利国际影城(缤纷城店),北京市,010-80255601;010-80255600,体育休闲服务;影剧院;电影院,80601,116.33353,39.764731
797,"116.422267,39.864007",,蒲黄榆路28号,丰台区,北京市,B000A8UM61,[],博纳国际影城(方庄店),北京市,010-67697337;010-67699909,体育休闲服务;影剧院;电影院,80601,116.422267,39.864007
798,"116.470631,39.90927",,建国路93号院万达广场B座3层,朝阳区,北京市,B000A83VFG,[],万达影城(CBD万达广场店),北京市,010-59603399;4000806060,体育休闲服务;影剧院;电影院,80601,116.470631,39.90927
799,"103.707582,30.395446",,永康大道33号,邛崃市,成都市,B001C8OEWG,[],太平洋电影城(蜀风苑店),四川省,028-88733599,体育休闲服务;影剧院;电影院,80601,103.707582,30.395446
800,"114.345896,22.690379",,建设路49号泰华商城4层,坪山区,深圳市,B0FFF36HF1,[],中影UL城市影院(坪山店),广东省,0755-86616986,体育休闲服务;影剧院;电影院,80601,114.345896,22.690379
801,"106.073095,30.777328",,玉屏路69号(陈寿路万卷楼公园旁),顺庆区,南充市,B0FFF65MZ2,[],华夏国际电影城(玉屏路店),四川省,0817-3711999;15892759988,体育休闲服务;影剧院;电影院,80601,106.073095,30.777328
802,"104.75141,31.461298",,涪城路131-2号茂业百货F5层,涪城区,绵阳市,B033002WVC,[],绵阳电影院(兴达街店),四川省,0816-2225635;0816-2221199,体育休闲服务;影剧院;电影院,80601,104.75141,31.461298
803,"115.559685,29.852901",,北川路30号城市广场6层,武穴市,黄冈市,B0FFFV6A38,[],华夏国际影城(武穴店),湖北省,0713-6238885,体育休闲服务;影剧院;电影院,80601,115.559685,29.852901
804,"119.160671,34.599554",,解放西路28号,海州区,连云港市,B02060P77K,[],中环时代国际影城(解放西路店),江苏省,0518-80780088;0518-80780099,体育休闲服务;影剧院;电影院,80601,119.160671,34.599554
805,"104.181978,30.809383",,马超东路2号18栋1层68号,新都区,成都市,B0FFGRR1N4,[],魅影电影院,四川省,028-81048233,体育休闲服务;影剧院;电影院,80601,104.181978,30.809383
806,"120.17378,30.30763",,香积寺路21号众安华纳假日大酒店3层,下城区,杭州市,B023B072KF,[],众安电影大世界(华纳店),浙江省,0571-85266677,体育休闲服务;影剧院;电影院,80601,120.17378,30.30763
807,"123.431378,41.765952",,文萃路4号诚大数码国际广场5层,和平区,沈阳市,B00180JS2Q,[],华臣影城(三好街店),辽宁省,024-83912800;024-28208666;024-83912900,体育休闲服务;影剧院;电影院,80601,123.431378,41.765952
808,"110.249766,21.376463",,文育路39号,遂溪县,湛江市,B02F70248R,[],文苑影吧・旅业,广东省,0759-7764570;0759-7760183,购物服务;专卖店;音像店|住宿服务;旅馆招待所;旅馆招待所,061206|100200,110.249766,21.376463
809,"109.467461,34.496507",,西五路南段天泓广场,临渭区,渭南市,B0FFFQ6QLZ,[],奥斯卡电影,陕西省,0913-8182205,体育休闲服务;影剧院;电影院,80601,109.467461,34.496507
810,"122.478864,37.157983",,成山大道东段阳光财富广场2号4层(威百商厦东侧),荣成市,威海市,B02771515C,[],阳光INT影城(财富广场店),山东省,0631-7506699,体育休闲服务;影剧院;电影院,80601,122.478864,37.157983
811,"113.614393,23.123806",,新塘镇东坑三横中路1号汇创国贸大厦3幢3层,增城区,广州市,B0FFG8W4VG,[],中影・佰纳影城,广东省,020-32891988,体育休闲服务;影剧院;电影院,80601,113.614393,23.123806
812,"108.813888,34.300701",,西咸大道启航时代广场4层,未央区,西安市,B0FFFT4PM8,[],时代华纳国际影城(启航店),陕西省,029-89506662,体育休闲服务;影剧院;电影院,80601,108.813888,34.300701
813,"113.134785,23.049507",,海三路鸿大广场4层,南海区,佛山市,B02F50YFAC,[],大地影院(佛山鸿大店),广东省,0757-86678193,体育休闲服务;影剧院;电影院,80601,113.134785,23.049507
814,"118.790395,32.020467",,南京夫子庙-秦淮风光带贡院街107号,秦淮区,南京市,B0FFHFS3X0,[],动感影院,江苏省,13260111222,体育休闲服务;影剧院;电影院,80601,118.790395,32.020467
815,"131.018909,45.773726",,旭日街500号(人民公园旁),桃山区,七台河市,B0FFFALZ14,[],华纳数字影城,黑龙江省,0464-8328999,体育休闲服务;影剧院;电影院,80601,131.018909,45.773726
816,"114.103787,22.555000",,红岭中路2061号星光广场3层,福田区,深圳市,B0FFGKAFF4,[],百汇国际影城(红岭店),广东省,0755-22205709,体育休闲服务;影剧院;电影院,80601,114.103787,22.555
817,"114.150879,22.612261",,南岭社区三角街1-10号人人购物广场4层,龙岗区,深圳市,B0FFFQ6QLL,[],中影百汇影城(人人购物广场),广东省,0755-28708255,体育休闲服务;影剧院;电影院,80601,114.150879,22.612261
818,"114.233851,22.727122",,龙城街道爱龙路葡萄酒城A区81号(妇幼保健院斜对面),龙岗区,深圳市,B02F38LOP5,[],中影泰得影城(盛世店),广东省,0755-28510119,体育休闲服务;影剧院;电影院,80601,114.233851,22.727122
819,"120.198036,30.28698",,秋涛北路407号新澳门广场2-3层,江干区,杭州市,B023B1H92X,[],东漫影院(澳门广场店),浙江省,0571-89807000,体育休闲服务;影剧院;电影院,80601,120.198036,30.28698
820,"120.154192,30.278377",,湖墅南路103号百大花园旁边3-4层,拱墅区,杭州市,B023B16BME,[],光影影城,浙江省,0571-88092209;0571-89976700,体育休闲服务;影剧院;电影院,80601,120.154192,30.278377
821,"120.352528,30.309244",,2号大街861-863十六街区商城,江干区,杭州市,B023B0BIV0,[],华元电影大世界(十六街区商城店),浙江省,0571-81634323,体育休闲服务;影剧院;电影院,80601,120.352528,30.309244
822,"121.556288,38.919694",,黄河路1105号逸彩城3层,沙河口区,大连市,B019B0ZR2B,[],华美影城(逸彩城店),辽宁省,0411-84208409;0411-84208209;4001886996,体育休闲服务;影剧院;电影院,80601,121.556288,38.919694
823,"116.423893,39.968987",,北三环东路22号,朝阳区,北京市,B000A82Z3K,[],金鸡百花影城(和平东桥店),北京市,010-64212040;010-64207759;010-64203483,体育休闲服务;影剧院;电影院,80601,116.423893,39.968987
824,"111.953070,28.901916",,龙阳镇振兴西路龙阳商业广场2层,汉寿县,常德市,B0FFG7GADV,[],华耀国际影城(龙阳店),湖南省,0736-2049899,体育休闲服务;影剧院;电影院,80601,111.95307,28.901916
825,"114.195522,36.694004",,放射路财富国际酒店西侧,武安市,邯郸市,B01360NQ7Y,[],森宝国际影城(放射路店),河北省,0310-5551218,体育休闲服务;影剧院;电影院,80601,114.195522,36.694004
826,"119.327157,26.079828",,长乐北路157号紫阳商贸中心大润发超市5层,晋安区,福州市,B0FFFA3A74,[],金逸影城(紫阳店),福建省,0591-87955735,体育休闲服务;影剧院;电影院,80601,119.327157,26.079828
827,"115.100347,29.258765",,古艾路11号,武宁县,九江市,B031803HZM,[],星河国际影城(古艾路店),江西省,0792-2762068,体育休闲服务;影剧院;电影院,80601,115.100347,29.258765
828,"113.643612,34.785894",,南阳路52号丰业广场2层(农业路与南阳路交叉口),金水区,郑州市,B01731DSS7,[],奥斯卡丰业影城,河南省,0371-86237152;0371-86237153;15838070246,体育休闲服务;影剧院;电影院,80601,113.643612,34.785894
829,"121.522007,31.315764",,国和路777号中原城市广场2座F4层,杨浦区,上海市,B00156NSWI,[],博纳国际影城(中原城市广场店),上海市,021-35367020,体育休闲服务;影剧院;电影院,80601,121.522007,31.315764
830,"121.304551,31.294957",,沪宜公路1082号5幢1层,嘉定区,上海市,B00156EKC7,[],比高电影城(南翔店),上海市,021-69927666,体育休闲服务;影剧院;电影院,80601,121.304551,31.294957
831,"118.74162,32.130647",,滨江大道1号明发滨江新城249栋3层,浦口区,南京市,B00190CTMM,[],金逸国际电影城(明发店),江苏省,025-58100081;025-58100001,体育休闲服务;影剧院;电影院,80601,118.74162,32.130647
832,"119.69699,29.787814",,迎春南路69号华光大厦3层,桐庐县,杭州市,B023B14LEW,[],晨光国际影城(迎春南路店),浙江省,0571-69812888,体育休闲服务;影剧院;电影院,80601,119.69699,29.787814
833,"121.404249,31.211807",,上海市长宁区天山路888号,长宁区,上海市,B0FFHICRNY,[],天山电影院,上海市,021-62598717;021-62299570,体育休闲服务;影剧院;电影院,80601,121.404249,31.211807
834,"114.210135,30.559912",,汉阳大道687号汉商21世纪购物中心F3层,汉阳区,武汉市,B001B1C4E5,[],天河电影城(汉商21世纪购物中心),湖北省,027-84675900;027-84675911,体育休闲服务;影剧院;电影院,80601,114.210135,30.559912
835,"120.300242,31.67445",,吴韵路321号惠山万达广场4层,惠山区,无锡市,B01FE1AVL5,[],万达影城(惠山万达广场店),江苏省,0510-81198688,体育休闲服务;影剧院;电影院,80601,120.300242,31.67445
836,"111.699312,29.025955",,人民路水星楼城市购物广场2号楼4-5层,武陵区,常德市,B02E00431E,[],水星楼国际电影城(人民路店),湖南省,0736-7710165;0736-7266118,体育休闲服务;影剧院;电影院,80601,111.699312,29.025955
837,"107.419250,40.758880",,胜利北路河67号(河港商城对面),临河区,巴彦淖尔市,B01DE00AQ7,[],巴彦淖尔影剧院,内蒙古自治区,0478-8212283,体育休闲服务;影剧院;电影院,80601,107.41925,40.75888
838,"113.974044,22.537844",,益田假日广场L3-8,南山区,深圳市,B0FFF3L3GP,[],中影益田假日影城(深圳广场店),广东省,0755-86298989;4006889777,体育休闲服务;影剧院;电影院,80601,113.974044,22.537844
839,"113.2618,23.194398",,机场路1399号百信广场L5层东区L5-004,白云区,广州市,B00140UQPO,[],金逸影城(广州百信店),广东省,020-86310908;020-86310906;020-35976309,体育休闲服务;影剧院;电影院,80601,113.2618,23.194398
840,"118.945405,40.404248",,龙城购物广场3层,青龙满族自治县,秦皇岛市,B0FFHHAVJK,[],龙城影院,河北省,0335-7158661,体育休闲服务;影剧院;电影院,80601,118.945405,40.404248
841,"116.650414,40.133766",,新顺北大街3号,顺义区,北京市,B000A43A3C,[],顺义影剧院,北京市,010-69424348;13701180028,体育休闲服务;影剧院;电影院,80601,116.650414,40.133766
842,"119.046473,29.610805",,千岛湖镇新安北路41号千岛湖农贸市场4层,淳安县,杭州市,B023B14UJ7,[],金字塔影院(新安北路店),浙江省,0571-65087798,体育休闲服务;影剧院;电影院,80601,119.046473,29.610805
843,"117.560715,34.850430",,振兴中路15号(文化路口),市中区,枣庄市,B0FFHYFEWZ,[],枣庄市电影发行放映公司数字影城,山东省,0632-3111088,体育休闲服务;影剧院;电影院,80601,117.560715,34.85043
844,"120.020466,32.166878",,泰兴镇鼓楼南路48号2-4层,泰兴市,泰州市,B020B001EF,[],泰兴电影院(鼓楼南路店),江苏省,0523-87658943;0523-87658944;0523-87633007,体育休闲服务;影剧院;电影院,80601,120.020466,32.166878
845,"104.720032,31.453082",,花园路9号万达广场4F层-5F层,涪城区,绵阳市,B03300Q2LC,[],万达影城(绵阳涪城万达广场店),四川省,0816-8118999;4000806060,体育休闲服务;影剧院;电影院,80601,104.720032,31.453082
846,"116.977455,36.660932",,经二路588号嘉华购物广场F7层,槐荫区,济南市,B021306RWP,[],新世纪电影城(嘉华店),山东省,0531-87918188;0531-86086088,体育休闲服务;影剧院;电影院,80601,116.977455,36.660932
847,"113.350716,22.541346",,康安路29号棕榈彩虹商业中心1座2层,中山市,中山市,B02F80SIKX,[],五月花电影城(棕榈彩虹商业中心店),广东省,0760-87500018;0760-87500028,体育休闲服务;影剧院;电影院,80601,113.350716,22.541346
848,"118.581855,24.906736",,新华南路207号T淘园3层,鲤城区,泉州市,B02530QYIV,[],横店影城(新华南路店),福建省,0595-28790012;0595-28791785,体育休闲服务;影剧院;电影院,80601,118.581855,24.906736
849,"119.202088,26.066962",,国宾大道233号博仕后时代购物广场B区3层,闽侯县,福州市,B024F0U6J7,[],燕林国际影城(大学城店),福建省,0591-22882866,体育休闲服务;影剧院;电影院,80601,119.202088,26.066962
850,"113.281528,23.136422",,建设大马路18号中环广场南塔5层,越秀区,广州市,B00141JHZ2,[],保利国际影城(中环店),广东省,020-83030222,体育休闲服务;影剧院;电影院,80601,113.281528,23.136422
851,"114.255082,30.604116",,云彩路198号泛海城市广场购物中心5层,江汉区,武汉市,B0FFF3G0KP,[],泛海国际影城(泛海城市广场店),湖北省,027-83886973;027-85550688,体育休闲服务;影剧院;电影院,80601,114.255082,30.604116
852,"121.439615,28.653511",,开元广场119号4层,椒江区,台州市,B02400THM3,[],新崇和影城,浙江省,0576-88207799;0576-88207788,体育休闲服务;影剧院;电影院,80601,121.439615,28.653511
853,"114.059263,22.536065",,福华一路3号怡景中心城G层,福田区,深圳市,B02F37TEXA,[],金逸影城(怡景中心城),广东省,0755-82801168;0755-82801169,体育休闲服务;影剧院;电影院,80601,114.059263,22.536065
854,"112.177344,37.206591",,平遥古城西北角(原柴油机厂园区内),平遥县,晋中市,B0FFISI7DP,[],平遥电影宫,山西省,0354-5600055;0354-5600066,体育休闲服务;影剧院;电影院,80601,112.177344,37.206591
855,"112.558562,37.824044",,亲贤北街99号王府井百货A馆6F层,小店区,太原市,B0FFHVTWSM,[],太原横店影城(王府井店)石化VIP放映厅,山西省,[],体育休闲服务;影剧院;电影院,80601,112.558562,37.824044
856,"117.268587,35.659787",,文化路与中兴路交叉口银座商城4层,泗水县,济宁市,B02190YHVC,[],旭东国际影城(银座商城店),山东省,0537-4277789,体育休闲服务;影剧院;电影院,80601,117.268587,35.659787
857,"117.279122,31.880651",,北一环路168号新天地国际购物中心华润万家4层410,庐阳区,合肥市,B0FFISFI27,[],完美世界影城(新天地店),安徽省,0551-65526428;0551-65584442,体育休闲服务;体育休闲服务场所;体育休闲服务场所,80000,117.279122,31.880651
858,"117.019141,25.088033",,龙岩大道489号世纪天成广场8层,新罗区,龙岩市,B02550ORB4,[],中影梦工坊影城,福建省,0597-2128800;0597-2128801,体育休闲服务;影剧院;电影院,80601,117.019141,25.088033
859,"113.881013,22.581337",,宝民二路129号港隆城百货4层,宝安区,深圳市,B02F37VIPF,[],中影南国影城(宝安店),广东省,0755-27935726;0755-88351881;0755-29659928;0755-29659918,体育休闲服务;影剧院;电影院,80601,113.881013,22.581337
860,"118.084029,24.454847",,霞溪路28号名汇广场3层,思明区,厦门市,B02500496F,[],金逸影城(厦门名汇店),福建省,0592-2138800;0592-2138811,体育休闲服务;影剧院;电影院,80601,118.084029,24.454847
861,"126.588053,45.700756",,中兴大道168号万达广场3层,南岗区,哈尔滨市,B01C31DB99,[],万达影城(哈西万达广场店),黑龙江省,0451-58561888;0451-87717598,体育休闲服务;影剧院;电影院,80601,126.588053,45.700756
862,"108.903191,34.23239",,科技路33号世纪金花高新购物中心3层,雁塔区,西安市,B001D092E1,[],奥斯卡金花影城,陕西省,029-62961066;4008999527,体育休闲服务;影剧院;电影院,80601,108.903191,34.23239
863,"104.067326,30.631689",,人民南路四段3号来福士3层3002号,武侯区,成都市,B001C9183K,[],卢米埃影城(来福士店),四川省,028-85083941;028-85083341;4006010618,体育休闲服务;影剧院;电影院,80601,104.067326,30.631689
864,"121.110479,31.443795",,人民南路96号南洋广场C区F3层,太仓市,苏州市,B02000J3ML,[],世纪南洋影城(南洋店),江苏省,0512-53870087;0512-53870090,体育休闲服务;影剧院;电影院,80601,121.110479,31.443795
865,"120.961034,31.352288",,柏庐南路999号乐购商城北门3层,昆山市,苏州市,B020017QXL,[],大地影院(苏州昆山乐购店),江苏省,0512-36625961;0512-36625960,体育休闲服务;影剧院;电影院,80601,120.961034,31.352288
866,"121.516917,31.228314",,张杨路501号上海第一八佰伴新世纪商厦10层,浦东新区,上海市,B00155F5IG,[],上影百联影城(新世纪商厦店),上海市,021-58362988;021-62817017,体育休闲服务;影剧院;电影院,80601,121.516917,31.228314
867,"126.616545,45.77966",,中央大街232号万达商业广场A座3层,道里区,哈尔滨市,B01C305IY1,[],万达影城(中央大街悦荟广场店),黑龙江省,0451-85981777;4000400841;0451-88882008,体育休闲服务;影剧院;电影院,80601,126.616545,45.77966
868,"112.469685,23.050635",,天宁北路76号工影商场2层,端州区,肇庆市,B02F6012F8,[],肇庆市工人影剧院,广东省,0758-2233930,体育休闲服务;影剧院;电影院,80601,112.469685,23.050635
869,"110.40787,21.193598",,人民大道28号怡福国际广场5层,霞山区,湛江市,B02F7019XN,[],金逸国际电影城(怡福国际广场店),广东省,0759-2299871;0759-2299876;0759-2299877,体育休闲服务;影剧院;电影院,80601,110.40787,21.193598
870,"122.069837,37.531525",,长春路帝王宫昌鸿广场5层,环翠区,威海市,B027714H83,[],新世纪电影城(昌鸿广场店),山东省,0631-5679886;0631-5679887,体育休闲服务;影剧院;电影院,80601,122.069837,37.531525
871,"121.43067,30.989338",,沪杭公路228弄连城广场3号楼1-2层,奉贤区,上海市,B0FFF0EQ18,[],连城国际影城(连城广场店),上海市,021-60137666,体育休闲服务;影剧院;电影院,80601,121.43067,30.989338
872,"112.892432,23.172109",,张边路9号三水广场3层,三水区,佛山市,B02F50UXJA,[],大地数字影院(三水广场店),广东省,0757-87910101;4006782828,体育休闲服务;影剧院;电影院,80601,112.892432,23.172109
873,"104.284406,30.976901",,武昌路南一段79号,广汉市,德阳市,B034601T66,[],太平洋国际影城(劲浪店),四川省,0838-5244582,体育休闲服务;影剧院;电影院,80601,104.284406,30.976901
874,"113.129744,23.019770",,文华北路文华里美食天地,禅城区,佛山市,B0FFHQSOX3,[],方进巨幕影城(文华里店),广东省,0757-82901177;15782901177,体育休闲服务;影剧院;电影院,80601,113.129744,23.01977
875,"114.273749,22.729482",,龙平东路人人购物广场富德店4层,龙岗区,深圳市,B02F38J2AA,[],嘉年华国际影城(人人购物广场店),广东省,0755-89363888;0755-84811366;0755-84811266,体育休闲服务;影剧院;电影院,80601,114.273749,22.729482
876,"120.86231,32.012878",,环城西路1号,崇川区,南通市,B020104SPY,[],文化宫世纪影城(文化宫店),江苏省,0513-85516904;0513-85516324,体育休闲服务;影剧院;电影院,80601,120.86231,32.012878
877,"118.380290,33.773533",,华地万象,宿城区,宿迁市,B0FFGLXNRI,[],中影东方影城(洋河店),江苏省,0527-84928128;0527-84928288,体育休闲服务;影剧院;电影院,80601,118.38029,33.773533
878,"121.195437,31.150645",,赵巷赵中路28号,青浦区,上海市,B00155C8JK,[],赵巷影剧院,上海市,021-59751015;021-59754375,体育休闲服务;影剧院;电影院,80601,121.195437,31.150645
879,"114.245754,22.716836",,龙城街道中心城龙翔大道龙岗世贸中心(D区四楼),龙岗区,深圳市,B02F37WKXN,[],百誉影城(世贸中心店),广东省,0755-29999998;0755-28902896,体育休闲服务;影剧院;电影院,80601,114.245754,22.716836
880,"109.0295,32.69417",,兴安中路54号金客隆大厦7层(中心广场),汉滨区,安康市,B03930OYBC,[],大地影院(金客隆店),陕西省,0915-8163222,体育休闲服务;影剧院;电影院,80601,109.0295,32.69417
881,"114.173950,22.307885",,东莞街骏发花园商场,油尖旺区,香港特别行政区,B073C0RB2D,[],百老汇电影中心,香港特别行政区,00852-23880002,体育休闲服务;影剧院;电影院,80601,114.17395,22.307885
882,"110.492943,24.776234",,叠翠路19号,阳朔县,桂林市,B0FFF6VSPY,[],秀水影城(叠翠路店),广西壮族自治区,0773-7956009;0773-7956006,体育休闲服务;影剧院;电影院,80601,110.492943,24.776234
883,"117.970293,28.442730",,抗建中路3号亚细亚商城4层,信州区,上饶市,B0FFFH8V6Y,[],上饶世纪星河影院(步行街店),江西省,0793-6179888,体育休闲服务;影剧院;电影院,80601,117.970293,28.44273
884,"120.130399,33.380938",,建军中路169号金鹰国际购物中心F7层,亭湖区,盐城市,B02030JK62,[],中影国际影城(金鹰国际达店),江苏省,0515-83077222;0515-83076222,体育休闲服务;影剧院;电影院,80601,120.130399,33.380938
885,"121.416607,31.219565",,长宁路1018号龙之梦购物中心F9层,长宁区,上海市,B00155GG7I,[],龙之梦影城(龙之梦购物中心),上海市,021-52378276;021-52378275,体育休闲服务;影剧院;电影院,80601,121.416607,31.219565
886,"120.361610,36.105953",,人民路269号悦荟广场5层,市北区,青岛市,B021413F9T,[],金逸影城(悦荟店),山东省,0532-80931300;0532-80932788,体育休闲服务;影剧院;电影院,80601,120.36161,36.105953
887,"120.657507,31.317034",,现代大道1699号印象城购物中心3层3040号,苏州工业园区,苏州市,B02001725W,[],橙天嘉禾影城(印象城店),江苏省,0512-69566566,体育休闲服务;影剧院;电影院,80601,120.657507,31.317034
888,"127.512631,42.102703",,万达旅游小镇南区娱乐楼K楼,抚松县,白山市,B01B70M0WX,[],万达影城(长白山万达广场南区店),吉林省,0439-6987992;4000806060,体育休闲服务;影剧院;电影院,80601,127.512631,42.102703
889,"115.979669,29.680954",,长江大道669号21世纪家居中心4层,浔阳区,九江市,B0FFF3LX7V,[],九江时代电影大世界(世纪家居店),江西省,0792-8530008,体育休闲服务;影剧院;电影院,80601,115.979669,29.680954
890,"112.256291,30.307358",,北京中路298号美佳华商业广场4层,沙市区,荆州市,B02CC022LA,[],江汉银兴影都,湖北省,0716-8213318,体育休闲服务;影剧院;电影院,80601,112.256291,30.307358
891,"116.581401,35.405666",,古槐路100号,任城区,济宁市,B021905520,[],济宁影城(古槐路店),山东省,0537-2209888;0537-2409666;0537-2206729,体育休闲服务;影剧院;电影院,80601,116.581401,35.405666
892,"121.052801,31.383351",,前进东路217号世贸广场D2座3层,昆山市,苏州市,B02001BU8Z,[],万达影城(前进路世茂店),江苏省,0512-50176000,体育休闲服务;影剧院;电影院,80601,121.052801,31.383351
893,"111.29798,30.700168",,东山大道109号卓悦广场6层,西陵区,宜昌市,B02CD0QD6L,[],金逸国际电影城(卓悦店),湖北省,0717-6689808;0717-6689809,体育休闲服务;影剧院;电影院,80601,111.29798,30.700168
894,"114.610576,38.014334",,天山大街245号北国商城6层,裕华区,石家庄市,B0FFGF7SEZ,[],中都益新影城(益新店),河北省,0311-85267771,体育休闲服务;影剧院;电影院,80601,114.610576,38.014334
895,"102.732596,25.079759",,北京路1079号欣都龙城v.cpark购物中心4栋3-5层,盘龙区,昆明市,B03671107J,[],喜满客影城(北京路店),云南省,0871-64162001,体育休闲服务;影剧院;电影院,80601,102.732596,25.079759
896,"116.982451,36.63712",,阳光新路19号阳光100美乐汇南区3层,槐荫区,济南市,B02130TYI2,[],新世纪电影城(阳光100店),山东省,0531-87918089;0531-86086088,体育休闲服务;影剧院;电影院,80601,116.982451,36.63712
897,"117.015022,32.639958",,朝阳中路家乐福时代广场5层,田家庵区,淮南市,B022A02J20,[],横店影城(时代广场店),安徽省,0554-2118222;0554-6677168,体育休闲服务;影剧院;电影院,80601,117.015022,32.639958
898,"113.289366,22.795846",,兴顺路嘉信城市广场4层西,顺德区,佛山市,B02F506UYF,[],嘉信电影城(嘉信城市广场店),广东省,0757-22326996;0757-22326998;0757-22326999,体育休闲服务;影剧院;电影院,80601,113.289366,22.795846
899,"114.061439,22.626090",,五和大道118号海达和成购物中心F3层F301,龙岗区,深圳市,B0FFFTJXV1,[],中影博亚影城(海达和成购物中心),广东省,0755-28446032;0755-28376035,体育休闲服务;影剧院;电影院,80601,114.061439,22.62609
